accessURI,catalogNumber,verbatimCollectors,collectedBy,secondaryCollectors,recordNumber,verbatimEventDate,minimumEventDate,maximumEventDate,verbatimIdentification,latestScientificName,identifiedBy,verbatimDateIdentified,associatedTaxa,country,firstPoliticalUnit,secondPoliticalUnit,municipality,verbatimLocality,locality,habitat,verbatimElevation,verbatimCoordinates,otherCatalogNumbers,originalMethod,typeStatus
https://fm-digital-assets.fieldmuseum.org/2433/459/V0573776F.jpg,V0573776F,Dr. Edgar A. Mearns,E. A. Mearns,N/A,2532,"Jan. 10 to Feb. 2, 1910",1910-01-10,1910-02-02,Cyperus caldwellii Ridley,Cyperus maculatus,J. Koyap,19.10.1971,N/A,South Sudan,Bahr el Jebel,Lado Enclave,N/A,"""Rhino Camp""",Rhino Camp,N/A,N/A,N/A,468360,Mix of Handwritten and Typed,no type status
https://fm-digital-assets.fieldmuseum.org/2437/184/V0576008F.jpg,V0576008F,COLL. F. G. OVERLAET,F. G. Overlaet,N/A,s.n.,1923-4,1923-04-00,N/A,Habenaria,Habenaria,B. Pettersson,1984,N/A,Democratic Republic of the Congo,N/A,N/A,N/A,N/A,[precise locality unknown],N/A,N/A,N/A,752356,Typed,no type status
https://fm-digital-assets.fieldmuseum.org/2433/678/V0576279F.jpg,V0576279F,R. A. Maas Geesteranus,R. A. Maas Geesteranus,N/A,4924,14-VI-1949,1949-06-14,N/A,Pycreus segmentatus C.B.C.L.,Pycreus segmentatus,unsure and check,N/A,Dombeya mastersii | Olea hochstetteri,Kenya,Nyanza,Londiani,N/A,Tinderet Forest Reserve Camp I,Tinderet Forest Reserve Camp I,glade surrounded by rather open tall forest,2260 m s.m.,lat. 0° 5' S long. 35° 27' E,1417352,Mix of Handwritten and Typed,no type status
https://fm-digital-assets.fieldmuseum.org/2437/413/V0577013F.jpg,V0577013F,Récolteurs: J. M. et C. B. Reitsma,J. M. Reitsma,C. B. Reitsma,2013,3-3-85,1985-03-03,N/A,Bulbophyllum scaberulum (Rolfe) Bolus var. scaberulum,Bulbophyllum scaberulum,O. Kosovsky,2011,N/A,Gabon,N/A,N/A,N/A,ca 6 km NW of Ovan chantier Rougier Océan,6 kilometers northwest of Ovan chantier Rougier Océan,Primary rain forest,N/A,0 41 N x 11 07 E,2310219,Typed,no type status
https://fm-digital-assets.fieldmuseum.org/2434/201/V0577892F.jpg,V0577892F,Carvalho 2102,Carvalho,N/A,2102,26-VII-1986,1986-07-26,N/A,Mariscus alternifolius Vahl,Mariscus alternifolius,C. Cebolla | M. A. Rivas Ponce,1995,N/A,Equatorial Guinea,Bioco,N/A,Malabo,finca las Carboneras 32NMK7415 8 m,finca las Carboneras,Bosque secundario y terrenos incultos Herbacea 20-30 cm,8 m,N/A,2201108,Typed,no type status
https://fm-digital-assets.fieldmuseum.org/2437/617/V0578553F.jpg,V0578553F,Fernández Casas 11206,N. Fernández,N/A,11206,5-11-1989,1989-11-05,N/A,Agrostis manii (Hooker fil.) Stapf,Agrostis manii,C. Cebolla | M. A. Rivas Ponce,1993,N/A,Equatorial Guinea,Bioco,N/A,N/A,cumbre del pico Basilé 32NMJ7396 2870 m márgenes de la pista,Cumbre del pico Basilé,márgenes de la pista,2870 m,32NMJ7396,2200806,Typed,no type status
https://fm-digital-assets.fieldmuseum.org/2441/863/V0574052F.jpg,V0574052F,COLL. F. G. OVERLAET,F. G. Overlaet,N/A,s.n.,1923-4,1923-00-00,1924-00-00,Scirpus,Scirpus mucronatus,A. Peter,1960,N/A,Democratic Republic of the Congo,N/A,N/A,N/A,N/A,[precise locality unknown],N/A,N/A,N/A,752378,Typed,no type status
https://fm-digital-assets.fieldmuseum.org/2446/122/V0577681F.jpg,V0577681F,Collected by C.J.P. Seegeler,C. J. P. Seegeler,N/A,2806,23 October 1972,1972-10-23,N/A,Vernonia abyssinica Sch.Bip.,Vernonia abyssinica,G. J. H. Amshoff,1982,N/A,Ethiopia,Shewa,N/A,N/A,3 km from Metahara on road to Nazareth,3 kilometers from Metahara on road to Nazareth,In full sun on lava rock,Alt: 925m,c. 8°56'N 39°55'E,2302805,Typed,no type status
https://fm-digital-assets.fieldmuseum.org/2442/190/V0597557F.jpg,V0597557F,Nom du récolteur,N/A,N/A,48,05.08.2003,2003-08-05,N/A,Carduus leptacanthus Fres,Carduus leptacanthus,N/A,N/A,N/A,Democratic Republic of the Congo,Sud-Kivu,Kabare,Musisi,Musisi,Musisi,N/A,N/A,N/A,2257689,Mix of Handwritten and Typed,no type status
https://fm-digital-assets.fieldmuseum.org/2452/643/V0594376F.jpg,V0594376F,J.M. Fay 8017,J. M. Fay,N/A,8017,25 May 1987,1987-05-25,N/A,Burkea africana Hook.,Burkea africana,J. M. Fay,N/A,N/A,Central African Republic,Manovo-Gounda-St. Floris,N/A,N/A,Vicinity of Camp Koumbala,Vicinity of Camp Koumbala,N/A,elev. 600 m,08°29'N 21°12'E,NCI# Wood Q67B/0065 Bark Q67B/0066 Root Q67B/0067 Leaves Q67B/0068,Typed,no type status
https://fm-digital-assets.fieldmuseum.org/2453/856/V0597275F.jpg,V0597275F,Collected by: P.C.M. Jansen,P. C. M. Jansen,N/A,5996,14 April 1976,1976-04-14,N/A,Cirsium vulgare (Savi) Ten.,Cirsium vulgare,C. C. H. Jongkind,1987,N/A,Ethiopia,Harerge,N/A,N/A,around Damata Village near Alemaya Between chat and Sorghum fields,around Damata Village near Alemaya,Between chat and Sorghum fields,2000m,c. 9°24' N 42°01' E,2302849,Typed,no type status
https://fm-digital-assets.fieldmuseum.org/2454/013/V0597626F.jpg,V0597626F,"Amanda Koch, Wilson Sakuda, AK61, October 22, 2003",A. Koch,W. Sakuda,AK61,"October 22, 2003",2003-10-22,N/A,Acacia reficiens misera (Vatke) Brenan,Acacia reficiens,P. Mutiso,"November 02, 2003",N/A,Kenya,Kajiado,Oloishobor,N/A,Maasai Name: Oldepe,Oldepe,Dry bushland,N/A,N/A,2309478,Typed,no type status
https://fm-digital-assets.fieldmuseum.org/2454/080/V0597688F.jpg,V0597688F,J. Lebrun,J. Lebrun,N/A,2409,Mars 1931,1931-03-00,N/A,Albizzia gummifera (J. M. G.),Albizzia gummifera,C. A. Smith,N/A,N/A,Democratic Republic of the Congo,Lualaba,N/A,N/A,Lolo (Uele Itimbiri),Lolo,N/A,N/A,N/A,867368,Mix of Handwritten and Typed,no type status
https://fm-digital-assets.fieldmuseum.org/2460/308/V0588237F.jpg,V0588237F,N/A,N/A,N/A,2077,25.12.1957,1957-12-25,N/A,Digitaria pennata (Hochst) Chiov,Digitaria pennata,N/A,N/A,N/A,Kenya,N/A,N/A,N/A,Tsavo - Mtito Andei Kenya,Tsavo - Mtito Andei,N/A,N/A,N/A,1559644,Mix of Handwritten and Typed,no type status
https://fm-digital-assets.fieldmuseum.org/2460/430/V0580026F.jpg,V0580026F,N/A,N/A,N/A,s.n.,Juillet 1958,1958-07-00,N/A,Gaertnera paniculata,Gaertnera paniculata,H. Callens,1/9/58,N/A,Democratic Republic of the Congo,N/A,N/A,Kisantu,Kisantu (Congo Belge) Africa,[precise locality unknown],foret secondaire,N/A,N/A,158465,Typed,no type status
https://fm-digital-assets.fieldmuseum.org/2464/177/V0580516F.jpg,V0580516F,G. Troupin,G. Troupin,N/A,6333,10/2/1958,1958-02-10,N/A,Mikani cordata (Burm.f.) B.L.Robins,Mikani cordata,N/A,N/A,N/A,Democratic Republic of the Congo,Kivu,Kelehe,N/A,Vers le 110 route Kavumu-Walikale pres reserve Tshelo,Vers le 110 route Kavumu-Walikale pres reserve Tshelo,"Foret ombrophile Canton 1,540 m",Alt 850 - 900 m,N/A,1543353,Typed,no type status
https://fm-digital-assets.fieldmuseum.org/2466/373/V0574490F.jpg,V0574490F,Gordon McPherson 13781,G. McPherson,N/A,13781,20 Mars 1989,1989-03-20,N/A,Corynanthe mayumbensis (R. Good) N. Hallé,Corynanthe mayumbensis,Wilks | McPherson,1989,N/A,Gabon,Ogooue-Ivindo,N/A,N/A,Réserve de la Lopé au sud d'Ayem chantier SOFORGA,Réserve de la Lopé au sud d'Ayem chantier SOFORGA,Arbre 15 m fruit brun,c. 200 m,0°25'S 11°30'E,LF:Q665-0223-G BK:Q665-0224-H WD:Q665-0225-I,Typed,no type status
https://fm-digital-assets.fieldmuseum.org/2472/873/V0574226F.jpg,V0574226F,J. M. Fay,J. M. Fay,N/A,8294,4 March 1988,1988-03-04,N/A,Millettia zechiana Harms,Millettia zechiana,A. Assi,1988,Guibourtia demeusei | Berlinia sp. | Bombax sp.,Cameroon,N/A,N/A,N/A,On the Sangha River across from Ndakan gorilla study area,On the Sangha River across from Ndakan gorilla study area,In seasonally flooded forest,385 m,02°20'N 16°08'E,NCI Leaves 067E/0545-C | Wood 067E/0546-H | Bark 067E/0547-I | Root 067E/0548-J,Typed,no type status
https://fm-digital-assets.fieldmuseum.org/2473/141/V0580728F.jpg,V0580728F,Coll. F. A. Melville,F. A. Melville,N/A,199,29.vii.1959,1959-07-29,N/A,Phaseolus lunatus L.,Phaseolus lunatus,unsure and check,N/A,N/A,Equatorial Guinea,Annobón,N/A,N/A,South West of Crater Lake,South West of Crater Lake,Clearing in wood scrambling over herbage,"Alt. 1,500 ft.",N/A,1624518,Typed,no type status
https://fm-digital-assets.fieldmuseum.org/2473/209/V0578764F.jpg,V0578764F,R. L. Piemeisel L. W. Kephart,R. L. Piemeisel,L. W. Kephart,2,June 28 1937,1937-06-28,N/A,N/A,N/A,N/A,N/A,N/A,Kenya,N/A,N/A,Nairobi,Muthaiga near Nairobi,Muthaiga near Nairobi,N/A,"alt. 1,700 meters",N/A,2074762,Typed,no type status
https://fm-digital-assets.fieldmuseum.org/2474/564/V0594158F.jpg,V0594158F,A. Léonard,A. Léonard,N/A,3149,19/2 1959,1959-02-19,N/A,Oxyanthus speciosus DC. subsp. indet.,Oxyanthus speciosus,B. Sonké,1989,N/A,Democratic Republic of the Congo,North Kivu,N/A,Masisi,Masisi,Masisi,Vieille forêt secondaire,1900 m,N/A,2086095,Typed,no type status
https://fm-digital-assets.fieldmuseum.org/2477/449/V0573054F.jpg,V0573054F,récolté par le R. P. Klaine,R. P. Klaine,N/A,3200,N/A,0000-00-00,N/A,Klainedoxa,Klainedoxa,N/A,N/A,N/A,Gabon,N/A,N/A,Libreville,Herbier des environs de Libreville,[precise locality unknown],fruit et arille rouge,N/A,N/A,781173,Mix of Handwritten and Typed,no type status
https://fm-digital-assets.fieldmuseum.org/2478/115/V0601010F.jpg,V0601010F,James T. Allen,J. T. Allen,N/A,41,"September 23, 1996",1996-09-23,N/A,Dissotis rotundifolia (Sm.) Triana,Dissotis rotundifolia,N/A,N/A,N/A,Ghana,Volta,N/A,N/A,Larteh; Center for Scientific Research into Plant Medicine (CSRPM) farm,Larteh; Center for Scientific Research into Plant Medicine farm,Anti-asthmatic; treating coughs and colds; antipyretic; for dysentery; Applied topically-arthritis,N/A,N/A,2200652,Typed,no type status
https://fm-digital-assets.fieldmuseum.org/2478/233/V0602418F.jpg,V0602418F,J E Andoh,J. E. Andoh,N/A,5632,March 1952,1952-03-00,N/A,Chrysophyllum perpulchrum Mildbr.,Chrysophyllum perpulchrum,N/A,N/A,N/A,Ghana,Ashanti,Kumasi,N/A,Kumasi Township Forest Reserve,Kumasi Township Forest Reserve,Medium sized tree 30 ft high and 2 ft girth Planted in 1935,N/A,N/A,1601919,Typed,no type status
https://fm-digital-assets.fieldmuseum.org/2478/305/V0604513F.jpg,V0604513F,J. Nemba & D.W. Thomas 520,J. Nemba,D. W. Thomas,520,15 June 1987,1987-06-15,N/A,Donella welwitschii Pierre ex Engl.,Donella welwitschii,D. W. Thomas,1987,N/A,Cameroon,Southwest,N/A,N/A,Secondary growth and old growth forest along Kumba-Mamfe road at mile 14 Lkilwindi,Kumba-Mamfe road at mile 14 Lkilwindi,Secondary growth and old growth forest,200 m,04°44'N 09°29'E,Q66/0052-L,Typed,no type status
https://fm-digital-assets.fieldmuseum.org/2479/474/V0572217F.jpg,V0572217F,J. Deaw,J. Deaw,N/A,Sp 283,4 10 71,1971-10-04,N/A,Eugenia coronata,Eugenia coronata,A. A. Enti,19,N/A,Ghana,N/A,N/A,Accra,Accra,[precise locality unknown],A shrub about 6 feet high flowering pedicels fascicled fruit ellipsoid calyx persistent at the apex,N/A,N/A,1753423,Typed,no type status
https://fm-digital-assets.fieldmuseum.org/2487/523/V0602609F.jpg,V0602609F,coll. G. Schweinfurth et D. Riva,G. Schweinfurth,D. Riva,1814,1 mai 1892,1892-05-01,N/A,Rumex nervosus V.,Rumex nervosus,unsure and check,N/A,N/A,Eritrea,N/A,N/A,N/A,Saganeïti pente du Nord au dessous d'Addi-Abbougn,Saganeïti,N/A,2300/2100 m,N/A,71288,Mix of Handwritten and Typed,no type status
https://fm-digital-assets.fieldmuseum.org/2487/806/V0606178F.jpg,V0606178F,Coll. R.B. & A.J. Faden 77/711,R. B. Faden,A. J. Faden,77/711,7 March 1977,1977-03-07,N/A,Toddaliopsis sansibarensis (Engl.) Engl. confirmed J.O. Kokwaro,Toddaliopsis sansibarensis,J. O. Kokwaro,N/A,Combretum schumannii,Kenya,Kwale,N/A,N/A,Kenya K7 Kwale District Chale Peninsula,Chale Peninsula,Coral rag dry forest,Alt 0-5 m,"ca. 4°26'S 39°32'30""E",2153520,Typed,no type status
https://fm-digital-assets.fieldmuseum.org/2487/920/V0603038F.jpg,V0603038F,F. Szafranski,F. Szafranski,N/A,1378,5.2.1988,1988-02-05,N/A,Floscopa glomerata (Roem. et Schult.) Hassk.,Floscopa glomerata,N/A,N/A,N/A,Democratic Republic of the Congo,Haut-Uele,N/A,Isiro,Haut-Zaïre S-Rég Haut-Uele Isiro,[precise locality unknown],bas fond marécageux près de la route aux environs de l'usine SOCODIA,N/A,N/A,2084694,Typed,no type status
https://fm-digital-assets.fieldmuseum.org/2491/969/V0606676F.jpg,V0606676F,Coll. F. W. H. Migeod,F. W. H. Migeod,N/A,394,25. 1. 1928.,1928-01-25,N/A,Solanum sp.,Solanum aculeatissimum,M. Nee,"Dec. 3, 1977",N/A,Cameroon,Northwest,N/A,Bamenda,Bamenda British Cameroons,Bamenda,Shrub very thorny and spinous,"Alt. 5,500 ft.",N/A,1441275,Typed,no type status
https://fm-digital-assets.fieldmuseum.org/2491/991/V0601406F.jpg,V0601406F,T.C. Wrigley and F.A. Melville,T. C. Wrigley,F. A. Melville,52,18 July 1959,1959-07-18,N/A,Cassipourea annobonensis Mildbr. ex Alston,Cassipourea annobonensis,A. W. Exell,1961,N/A,Equatorial Guinea,Annobon,N/A,N/A,Ridge west of Crater Lake,Ridge west of Crater Lake,Open woodland,1200 m,N/A,1624568,Typed,no type status
https://fm-digital-assets.fieldmuseum.org/2493/436/V0604673F.jpg,V0604673F,William Burger,W. Burger,N/A,1767,27 May 1962,1962-05-27,N/A,Rubus apetalus Poir,Rubus apetalus,W. B. Kwan,N/A,N/A,Ethiopia,Harar,N/A,N/A,Near G. Ades 18Km. e. of Hirna along new hwy steep slopes with remnant Podocarpus & juniperous forest,Near G. Ades 18 kilometers east of Hirna along new highway steep slopes,Forming bush 2.5m tall under Podocarpus etc,At 7200 feet,9°17'N 41°3'E,1825230,Mix of Handwritten and Typed,no type status
https://fm-digital-assets.fieldmuseum.org/2499/501/V0565514F.jpg,V0565514F,J.D. Sauer,J. D. Sauer,N/A,3914,15 June 1963,1963-06-15,N/A,Aerva lanata (L.) Juss.,Aerva lanata,N/A,N/A,N/A,Kenya,Coast,Kwale,N/A,Bumburri Beach N of Mombasa,Bumburri Beach near Mombasa,Beach ridge shallow open coast,N/A,N/A,1595670,Typed,no type status
https://fm-digital-assets.fieldmuseum.org/2499/556/V0565977F.jpg,V0565977F,C. Vigne,C. Vigne,N/A,4068,N/A,0000-00-00,N/A,Enantia polycarpa Engl. & Diels,Enantia polycarpa,N/A,N/A,N/A,Ghana,N/A,N/A,N/A,Gold Coast,[precise locality unknown],N/A,N/A,N/A,839434,Typed,no type status
https://fm-digital-assets.fieldmuseum.org/2499/686/V0566108F.jpg,V0566108F,Eman Addo,E. Addo,N/A,1026,Collected in 1999,1999-00-00,N/A,Uvaria versicolor Pierre,Uvaria versicolor,N/A,N/A,N/A,Ghana,N/A,N/A,N/A,N/A,[precise locality unknown],N/A,N/A,N/A,2325285,Typed,no type status
https://fm-digital-assets.fieldmuseum.org/2500/629/V0567164F.jpg,V0567164F,A.A. Enti,A. A. Enti,N/A,Sp 393,22 11 19 71,1971-11-22,N/A,Pergularia daemia,Pergularia daemia,A. A. Enti,19 71,N/A,Ghana,Central,N/A,N/A,Awutu - Winneba Road,Awutu - Winneba Road,A climber among grasses,N/A,N/A,1753348,Typed,no type status
https://fm-digital-assets.fieldmuseum.org/2501/420/V0591661F.jpg,V0591661F,D.W. Thomas 6850,D. W. Thomas,N/A,6850,1987,1987-00-00,N/A,Cola flavovelutina K. Schum,Cola flavovelutina,D. W. Thomas,1987,N/A,Cameroon,Southwest,N/A,N/A,PROV. SOUTHWEST: Korup National Park,Korup National Park,Primary rain forest Understorey tree 5 m tall,60 m,05°02'N 08°50'E,2041255,Typed,no type status
https://fm-digital-assets.fieldmuseum.org/2504/891/V0567306F.jpg,V0567306F,Sue A. Thompson 1522,S. A. Thompson,N/A,1522,9 July 1984,1984-07-09,N/A,Impatiens macroptera Hook.f.,Impatiens macroptera,N/A,N/A,N/A,Cameroon,Sud-Ouest,Fako,Bakingili,Trail up Mt. Cameroon,Trail up Mount Cameroon,Erect herb up to 70 cm tall growing on wet rocks flowers purple,Alt. 50-250 m.,4°04'N 9°02'E,2086046,Typed,no type status
https://fm-digital-assets.fieldmuseum.org/2505/266/V0606921F.jpg,V0606921F,D. Wiens,D. Wiens,N/A,4484,16-12-71,1971-12-16,N/A,Englerina tenuifolia (Engl.) Gilli,Englerina tenuifolia,N/A,N/A,N/A,Kenya,Kitui,N/A,N/A,4 km n. of Kangondi on road to Embu,4 kilometers north of Kangondi on road to Embu,Thornshrub,4500 ft,N/A,1864166,Mix of Handwritten and Typed,no type status
https://fm-digital-assets.fieldmuseum.org/2506/309/V0605928F.jpg,V0605928F,Sue A. Thompson 1333 & John E. Rawlins,S. A. Thompson,J. E. Rawlins,1333,3 June 1984,1984-06-03,N/A,Avicennia africana P. Beauv.,Avicennia africana,N/A,N/A,N/A,Cameroon,Sud-Ouest,Fako,Bakingili,Bakingili 4°04' N 9°02' E Alt. 0 m Seaside,Bakingili,Seaside Tree ca 2-3 m tall bark with light blotches flowers white,Alt. 0 m,4°04' N 9°02' E,2088074,Typed,no type status
https://fm-digital-assets.fieldmuseum.org/2511/134/V0605675F.jpg,V0605675F,G. Troupin,G. Troupin,N/A,6347,12.9.1958,1958-09-12,N/A,Tithonia diversifolia (Hemsl.) A. Gray,Tithonia diversifolia,unsure and check,N/A,N/A,Democratic Republic of the Congo,Kivu,Itombwe,N/A,Vers la 110 route Kavumu-Kalonge,Vers la 110 route Kavumu-Kalonge,forêt ombrophile,850-900 m,N/A,1543374,Typed,no type status
https://fm-digital-assets.fieldmuseum.org/2511/772/V0571550F.jpg,V0571550F,A. Pappi,A. Pappi,N/A,262,14-15.VIII.1902,1902-08-14,1902-08-15,Lavandula pubescens Decaisne,Lavandula pubescens,T. M. Upson,2/4/1996,N/A,Eritrea,N/A,N/A,N/A,Lungo il Torrente Haddas,Lungo il Torrente Haddas,N/A,N/A,N/A,1559413,Typed,no type status
https://fm-digital-assets.fieldmuseum.org/2512/575/V0607392F.jpg,V0607392F,W. M. Burger,W. M. Burger,N/A,1453,14 Feb. 1962,1962-02-14,N/A,Juniperus procera Hochst. ex Endl.,Juniperus procera,W. B.,N/A,N/A,Ethiopia,Harar,N/A,N/A,N. W. face of Gara Mullata Mtn. ca. 50 km due W of Harar 9°16'N 41°43'E alt 2500-3000 m,N. W. face of Gara Mullata Mountain approximately 50 kilometers due west of Harar,Taller on steep slopes with mixed forest,8600 feet alt 2500-3000 m,9°16'N 41°43'E,1632855,Mix of Handwritten and Typed,no type status
https://fm-digital-assets.fieldmuseum.org/2513/815/V0570163F.jpg,V0570163F,G. B. D. Coker No. 1,G. B. D. Coker,N/A,No. 1,10/12/1972,1972-12-10,N/A,Terminalia glaucescens,Terminalia glaucescens,N/A,1972,N/A,Ghana,Volta Region,N/A,Ho,Ho Volta Region Ghana,Ho,A tree to 40 feet high 6 feet girth wood yellow or brownish yellow,N/A,N/A,2007210,Mix of Handwritten and Typed,no type status
https://fm-digital-assets.fieldmuseum.org/2514/094/V0570543F.jpg,V0570543F,leg. Schimper,W. Schimper,N/A,1467,24.11.63,1863-11-24,N/A,Ipomoea cummunis; Chois.,Ipomoea cummunis,unsure and check,N/A,N/A,Ethiopia,unsure and check,N/A,N/A,Amora Galla,Amora Galla,N/A,N/A,N/A,373793,Mix of Handwritten and Typed,no type status
https://fm-digital-assets.fieldmuseum.org/2514/378/V0607965F.jpg,V0607965F,D.W. Thomas & M. Etuge,D. W. Thomas,M. Etuge,6988,18 May 1987,1987-05-18,N/A,Tapura africana Oliv.,Tapura africana,D. W. Thomas,1987,N/A,Cameroon,Southwest,N/A,N/A,Degraded forest at Barombi Kang Kumba,Barombi Kang Kumba,Degraded forest,150 m,04°36'N 09°27'E,2040825,Typed,no type status
https://fm-digital-assets.fieldmuseum.org/2514/765/V0570471F.jpg,V0570471F,Edgar A. Mearns,E. A. Mearns,N/A,1114,"September 6 and 7, 1909",1909-09-06,1909-09-07,Evolvulus alsinoides L.,Evolvulus alsinoides,unsure and check,N/A,N/A,Kenya,N/A,N/A,N/A,Vicinity of Thika British East Africa,Vicinity of Thika,N/A,altitude about 1350 meters,N/A,468287,Typed,no type status
https://fm-digital-assets.fieldmuseum.org/2514/997/V0570108F.jpg,V0570108F,G MacNaughton,G. MacNaughton,N/A,580,s.d.,0000-00-00,N/A,Combretum schumannii Engl.,Combretum schumannii,unsure and check,N/A,N/A,Kenya,N/A,N/A,N/A,N/A,[precise locality unknown],N/A,N/A,N/A,856357,Typed,no type status
https://fm-digital-assets.fieldmuseum.org/2515/000/V0570110F.jpg,V0570110F,J. M. Fay 8271,J. M. Fay,N/A,8271,28 February 1988,1988-02-28,N/A,Combretum smeathmannii G. Don,Combretum smeathmannii,A. Assi,1988,Irvingia smithii | Guibourtia demensii | Berlinia sp.,Cameroon,N/A,N/A,N/A,Along the Sangha River adjacent to the island of Kilona,Along the Sangha River adjacent to the island of Kilona,In riparian forest adjacent to seasonally flooded forest,385 m,02°21'N 16°09'E,NCI# Stem 067E/0466-T | Leaves 067E/0467-U,Typed,no type status
https://fm-digital-assets.fieldmuseum.org/2522/077/V0590787F.jpg,V0590787F,Coll. D.D. Soejarto,D. D. Soejarto,N/A,4793,"April 1, 1978",1978-04-01,N/A,Diospyros tricolor Hiern.,Diospyros tricolor,unsure and check,N/A,Thespesia populnea | Sophora occidentalis,Ghana,Greater Accra,N/A,Bortianor,"20 km. West of Accra, Sea coast","20 kilometers West of Accra, Sea coast","Straggling shrub, in association with Thespesia populnea and Sophora occidentalis. Fruits green. Forming clumps just behind beach, on sandy soil. Common",N/A,N/A,1842606,Mix of Handwritten and Typed,no type status
https://fm-digital-assets.fieldmuseum.org/39/558/V0040586F.jpg,V0040586F,Narciso Reyna R. 40,N. Reyna,N/A,40,15 diciembre 1967,1967-12-15,N/A,Guatteria scalarinervia D. R. Simpson,Guatteria scalarinervia,D. R. Simpson,1975,N/A,Peru,Loreto,Maynas,Alto Nanay,Santa María - Río Nanay distr. Alto Nanay dept. Loreto prov. Maynas,Santa María - Río Nanay,arbol bosque húmedo tropical,Alt. 150 m,N/A,229-I,Typed,Holotype
https://fm-digital-assets.fieldmuseum.org/613/620/V0081497F.jpg,V0081497F,M. O. Dillon & D. Dillon,M. O. Dillon,D. Dillon,3776,1 Nov 1983,1983-11-01,N/A,Galvezia fruticosa Gmel.,Galvezia elisensii,unsure and check,unsure and check,N/A,Peru,Arequipa,Caraveli,N/A,Lomas of Atiquipa ca. 10.5 km N of turn-off to Atiquipa KM 584 S of Lima ca. 150-200 m,Lomas of Atiquipa ca. 10.5 kilometers North of turn-off to Atiquipa Kilometer 584 South of Lima,Erect glutinous shrub to 0.75 meters flowers red,ca. 150-200 m,N/A,1940835,Typed,Holotype
https://fm-digital-assets.fieldmuseum.org/40/414/V0042484F.jpg,V0042484F,Frank Habbeg,F. Habbeg,N/A,1915,1830,1830-00-00,N/A,Tetrorchidium rubrivenium var. genuinum Müll. Arg.,Tetrorchidium rubrivenium,F. Pax,N/A,N/A,N/A,N/A,N/A,N/A,N/A,[precise locality unknown],N/A,N/A,N/A,60787,Mix of Handwritten and Typed,Isosyntype
https://fm-digital-assets.fieldmuseum.org/281/725/V0092855F.jpg,V0092855F,José Campos y O. Díaz 2490,J. Campos,O. Díaz,2490,9 Febrero 1996,1996-02-09,N/A,Amorimia camporum W.R. Anderson,Amorimia camporum,W. R. Anderson,2006,N/A,Peru,Cajamarca,San Ignacio,N/A,Distrito Chirinos: Entre La Catagua y Tablón,Entre La Catagua y Tablón,Trepadora; flor amarilla,550 - 650 m,05°19'S 078°47'W,2296033,Typed,Isotype
https://fm-digital-assets.fieldmuseum.org/155/067/V0078059F.jpg,V0078059F,Tafalla collected with and for Ruiz & Pavon,H. Ruiz,J. Pavon | Tafalla,s.n.,14 November 1784,1784-11-14,N/A,Nolana spathulata R & P,Nolana spathulata,A. Mesa,1981,N/A,Peru,N/A,N/A,N/A,N/A,[precise locality unknown],N/A,N/A,N/A,845155,Typed,Isolectotype
https://fm-digital-assets.fieldmuseum.org/281/732/V0092864F.jpg,V0092864F,Camilo Díaz y Antonio Peña 8808,C. Díaz,A. Peña,8808,4 Diciembre 1996,1996-12-04,N/A,Symplocos ovata Ståhl,Symplocos ovata,B. Ståhl,2010,N/A,Peru,Amazonas,Luya,N/A,"Camporredondo Tullanya Pascana ""Pajaro Tigre""","Camporredondo Tullanya Pascana ""Pajaro Tigre""",Liana con frutos verdes Pedúnculos largos,2250-2360 m,N/A,2296023,Typed,Isotype
https://fm-digital-assets.fieldmuseum.org/283/142/V0092900F.jpg,V0092900F,R & P,R. P.,N/A,9/58,1778-1788,1778-00-00,1788-00-00,Bomarea purpurea (Ruiz & Pavón) Herb.,Bomarea purpurea,N. Hofreiter,2007,N/A,Peru,N/A,N/A,Pillao,N/A,[precise locality unknown],N/A,N/A,N/A,916119,Mix of Handwritten and Typed,isotype
https://fm-digital-assets.fieldmuseum.org/283/147/V0092906F.jpg,V0092906F,V. Quipuscoa S. A. Sagástegui A. S. Leiva G. M. Bejarano C.,V. Quipuscoa,A. Sagástegui | A. S. Leiva | G. M. Bejarano,1378,20 agosto 1998,1998-08-20,N/A,Lithospermum cinerascens (A.DC.) Johnst.,Lithospermum leymabambense,M. Weigend,Septiembre 2006,N/A,Peru,Amazonas,Chachapoyas,Leymebamba,Carretera a Celendín entre Ishpingo - Pomacocha,Carretera a Celendín between Ishpingo and Pomacocha,Bosque montano fragmentado,2800-3000 m,N/A,2211679,Typed,Isotype
https://fm-digital-assets.fieldmuseum.org/283/156/V0092915F.jpg,V0092915F,Llewellyn Williams,L. Williams,N/A,6999,1/1/1930,1930-01-01,N/A,Norantea cuneifolia Macbr.,Marcgraviastrum mixtum,D. Giraldo-Cañas,2010,N/A,Peru,San Martin,N/A,San Roque,Forest Roque San Martin,Forest Roque,Vine forest,Alt. 1350-1500 m,N/A,65813,Mix of Handwritten and Typed,Holotype
https://fm-digital-assets.fieldmuseum.org/283/160/V0092918F.jpg,V0092918F,Ruiz et Pavón,N/A,N/A,s.n.,1778-1788,1778-00-00,1788-00-00,Norantea obovata (R & P) G. Don,Marcgraviastrum obovatum,D. Giraldo-Cañas | H. G. Bedell,2010 | VIII 1982,N/A,Peru,N/A,N/A,N/A,Chachapoyas,Chachapoyas,N/A,N/A,N/A,843295,Mix of Handwritten and Typed,Isotype
https://fm-digital-assets.fieldmuseum.org/283/163/V0092921F.jpg,V0092921F,Ruiz et Pavón,N/A,N/A,s.n.,1778-1788,1778-00-00,1788-00-00,Norantea obovata G. Don,Marcgraviastrum obovatum,J. Giraldo-Cañas | H. G. Bedell,2010 | VIII 1982,N/A,Peru,N/A,N/A,N/A,N/A,[precise locality unknown],N/A,N/A,N/A,65816,Mix of Handwritten and Typed,Isotype
https://fm-digital-assets.fieldmuseum.org/679/934/V0190732F.jpg,V0190732F,Robin B. Foster,R. B. Foster,N/A,8752,13 Sept. 1982,1982-09-13,N/A,Acidoton venezolanus (Pax & Hoffm.) Webster,Acidoton venezolanus,M. J. Huft,1983,N/A,Peru,Huánuco,N/A,N/A,Pachitea; Puerto Inca to Sungaro. Foot trail between Río Pachitea and Río Sungaro.,Pachitea; Puerto Inca to Sungaro. Foot trail between Río Pachitea and Río Sungaro.,Forested low hills and ravines,Alt. 250-300 m.,"75°00'W, 9°18'S.",1921102,Typed,no type status
https://fm-digital-assets.fieldmuseum.org/791/904/V0277652F.jpg,V0277652F,José Schunke Vigo,J. Schunke,N/A,6505,27 May 1949,1949-05-27,N/A,Tontelea attenuata Miers,Tontelea attenuata,J. A. Lombardi,IV 1999 2000,N/A,Peru,San Martín,N/A,N/A,Quebrada Huicte (rio Huallaga) in tall forest,Quebrada Huicte,In tall forest,529 m alt,N/A,1751666,Mix of Handwritten and Typed,no type status
https://fm-digital-assets.fieldmuseum.org/586/997/V0152152F.jpg,V0152152F,Manuel Rimachi Y.,M. Rimachi,N/A,4268,"February 8, 1979",1979-02-08,N/A,Nectandra krukovii (A.C. Smith) Kosterm.,Endlicheria anomala,D. A. Chanderbali,2001,N/A,Peru,Loreto,Requena,Saquena,"Río Ucayali, Quebrada de Aucayacu, above Genaro Herrera","Quebrada de Aucayacu, above Genaro Herrera","marginal forest, ""muena,"" 8 m, fr. green",N/A,N/A,2058606,Typed,no type status
https://fm-digital-assets.fieldmuseum.org/802/677/V0277223F.jpg,V0277223F,SALVADOR FLORES P.,S. Flores,N/A,95(P1-2),Julio/82,1982-07-00,N/A,Paracoubea sericea Tul.,Paracoubea sericea,T. Plowman,1985,N/A,Peru,Loreto,Maynas,N/A,Ampiyacu-Pevas,Ampiyacu-Pevas,Bosque secundario 35 años,100 m.s.n.m.,N/A,1968315,Typed,no type status
https://fm-digital-assets.fieldmuseum.org/694/649/V0195906F.jpg,V0195906F,Percy Núñez & S. Walsh,P. Núñez,S. Walsh,6330,29 October 1986,1986-10-29,N/A,Euphorbia heterophylla L.,Euphorbia heterophylla,M. H. Mayfield,Oct. 1995,N/A,Peru,Cuzco,La Convención,N/A,Quillabamba Salsapampa,Quillabamba Salsapampa,N/A,Alt. 1110 m.,N/A,1982606,Typed,no type status
https://fm-digital-assets.fieldmuseum.org/904/057/V0290180F.jpg,V0290180F,Jose Schunke,J. Schunke,N/A,9560,30 Mayo 1977,1977-05-30,N/A,Hamelia patens Jacq.,Hamelia patens,J. Dwyer,1980,N/A,Peru,San Martin,Lamas,Alonso de Alvarado,San Juan de Pacaiquama km 72 carretera Tarapoto-Moyobamba,San Juan de Pacaiquama km 72 carretera Tarapoto-Moyobamba,En bosque secundario con abundante luz solar,1000-1050 m,N/A,1872133,Typed,no type status
https://fm-digital-assets.fieldmuseum.org/674/331/V0201636F.jpg,V0201636F,G.Moore L.Luna J.Ruiz,G. Moore,L. Luna | J. Ruiz,138,18-8-81,1981-08-18,N/A,Ficus maxima P. Miller,Ficus maxima,W. C. Burger,1982,N/A,Peru,Loreto,N/A,N/A,Quistococha 14km north of Iquitos,Quistococha 14 kilometers north of Iquitos,"Tree of 20m Important medicinal plant The ""milk"" from the bark is drunk",600m elev,N/A,1923146,Typed,no type status
https://fm-digital-assets.fieldmuseum.org/786/584/V0251887F.jpg,V0251887F,E. P. Killip | A. C. Smith,E. P. Killip,A. C. Smith,26721,"July 20, 21, 1929",1929-07-20,1929-07-21,Psychotria racemosa (Aubl.) Willd.,Psychotria racemosa,N/A,N/A,N/A,Peru,Junín,N/A,N/A,Cahuapanas on Rio Pichis,Cahuapanas on Rio Pichis,dense forest,alt. about 340 meters,N/A,607534,Mix of Handwritten and Typed,no type status
https://fm-digital-assets.fieldmuseum.org/750/898/V0243915F.jpg,V0243915F,M. O. Dillon and I. Sánchez V.,M. O. Dillon,I. Sánchez V.,6310,22 Jul 1991,1991-07-22,N/A,Wissadula grandifolia Baker ex Rusby,Wissadula grandifolia,P. Fryxell,1993,N/A,Peru,Piura,Huancabamba,N/A,ca. 2 km N of Canchaque,2 kilometers north of Canchaque,Shrubs to 1 m; flowers yellow,ca. 1450 m alt.,[5°24'S; 79°36'W],2119563,Typed,no type status
https://fm-digital-assets.fieldmuseum.org/678/428/V0187051F.jpg,V0187051F,COLL. J. FRANCIS MACBRIDE,J. F. Macbride,N/A,4806,"June 23, 1923",1923-06-23,N/A,Croton balsamensis,Croton balsamensis,unsure and check,N/A,N/A,Peru,N/A,N/A,N/A,Cueva Grande Estacion near Pozuzo,Cueva Grande Estacion near Pozuzo,Sunny brushy slope open brushy 4-5 ft shrub,ABOUT 3500 FEET,N/A,535840,Typed,no type status
https://fm-digital-assets.fieldmuseum.org/776/646/V0258426F.jpg,V0258426F,A. Sagastegui A.,A. Sagastegui,N/A,3820,18 Julio 1962,1962-07-18,N/A,Geranium chilloense Kunth,Geranium chilloense,B. H. Nielsen | C. Aedo,1993 | 2007,N/A,Peru,Cajamarca,Contumaza,N/A,Tingo Trinidad,Tingo Trinidad,Ladera abierta,2820 m s.n.m.,N/A,1684365,Mix of Handwritten and Typed,No type status
https://fm-digital-assets.fieldmuseum.org/686/796/V0193750F.jpg,V0193750F,J. Mostacero L. S. Leiva G. F. Mejia C. F. Pelaez J. Guevara B.,J. Mostacero,S. Leiva | F. Mejia | F. Pelaez | J. Guevara,1640,14-X-1986,1986-10-14,N/A,Dalechampia aristolochiifolia Kunth,Dalechampia aristolochiifolia,M. J. Huft,1992,N/A,Peru,Cajamarca,Cutervo,N/A,La Pucarilla (Socota-San Andres),La Pucarilla,Ladera al borde de carretera,2450 m.s.n.m.,N/A,199382,Typed,no type status
https://fm-digital-assets.fieldmuseum.org/738/306/V0228073F.jpg,V0228073F,"SPICHIGER, R. & P.-A. LOIZEAU",R. Spichiger,P.-A. Loizeau,3012,10-4-86,1986-04-10,N/A,Pourouma guianensis ssp guianensis,Pourouma guianensis,N/A,N/A,N/A,Peru,Loreto,N/A,Jenaro Herrera,Bosque de terraza alta suelo arenoso,[precise locality unknown],Bosque de terraza alta suelo arenoso,Alt. 125 m,73°45'W-4°55'S,N° 2027582,Mix of Handwritten and Typed,no type status
https://fm-digital-assets.fieldmuseum.org/494/920/V0100062F.jpg,V0100062F,G. Klug,G. Klug,N/A,660,Dec. 1929,1929-12-00,N/A,Balsesia floribunda Benth.,Balsesia floribunda,H. F. Loomis,N/A,N/A,Peru,Loreto,N/A,N/A,Mishuyacu near Iquitos,Mishuyacu near Iquitos,forest,alt. 100 meters,N/A,613565,Mix of Handwritten and Typed,no type status
https://fm-digital-assets.fieldmuseum.org/655/199/V0198402F.jpg,V0198402F,coll. T. R. Dudley,T. R. Dudley,N/A,12063,24 Aug. 1968,1968-08-24,N/A,Dendrophthora mesembryanthemoides Urb.,Dendrophthora sp.,J. Kuijt,18 Dec. 1984,N/A,Peru,Ayacucho,La Mar,N/A,eastern Massif of the Cordillera Central opposing the Cordillera Vilcabamba between Tambo San Miguel Ayma and the Hacienda Luisiana,eastern Massif of the Cordillera Central opposing the Cordillera Vilcabamba between Tambo San Miguel Ayma and the Hacienda Luisiana,Parasitic foliage yellowish-green calyx bright orange rare translucent pink waxy in dense areas isolated 40-50 feet high on hepatic forest at timberline,c. 3220 meters,c. 73°54'W 12°45'S,1721727,Typed,no type status
https://fm-digital-assets.fieldmuseum.org/675/982/V0225274F.jpg,V0225274F,G. Klug,G. Klug,N/A,1595,April 11 1931,1931-04-11,N/A,Ficus llewelynii Standl.,Ficus trigona,M. Vásquez Avila,1983,N/A,Peru,Loreto,N/A,N/A,Mishuyacu near Iquitos,Mishuyacu near Iquitos,forest,alt. 100 meters,N/A,873381,Typed,no type status
https://fm-digital-assets.fieldmuseum.org/736/767/V0224820F.jpg,V0224820F,Mildred E. Mathias Dermot Taylor,M. E. Mathias,D. Taylor,5576,13 July 1961,1961-07-13,N/A,Malpighiaceae,Malpighiaceae,W. R. Anderson,1983,N/A,Peru,Loreto,N/A,N/A,vicinity of Requena,vicinity of Requena,N/A,N/A,N/A,1733057,Typed,no type status
https://fm-digital-assets.fieldmuseum.org/939/013/V0304780F.jpg,V0304780F,José Schunke Vigo,J. Schunke,N/A,6677,17 Dec. 1964,1964-12-17,N/A,Paullinia imberbis Radlk.,Paullinia bracteosa,D. R. Simpson,Apr. 1973,N/A,Peru,Loreto,N/A,N/A,Quebrada de Maquia Contamana,Quebrada de Maquia Contamana,tall forest,220 m alt.,N/A,1717601,Mix of Handwritten and Typed,no type status
https://fm-digital-assets.fieldmuseum.org/785/493/V0238260F.jpg,V0238260F,LLEWELYN WILLIAMS,L. Williams,N/A,3363,"SEPT.-OCT., 1929",1929-09-00,1929-10-00,Psychotria viridis R & P,Psychotria viridis,unsure and check,N/A,N/A,Peru,Loreto,N/A,N/A,forest of Panais Alto Itaya,Panais Alto Rio Itaya,forest,ALT. 145 M.,N/A,61.4121,Typed,no type status
https://fm-digital-assets.fieldmuseum.org/736/994/V0225047F.jpg,V0225047F,"Coll. T. Plowman, A. Sagástegui A., J. Mostacero L., F. R. Mejía & F. Pelaéz",T. Plowman,A. Sagástegui A. | J. Mostacero L. | F. R. Mejía | F. Pelaéz,14242,12 July 1986,1986-07-12,N/A,Abutilon mollissimum (Cav.) Sweet,Abutilon mollissimum,P. Fryxell,1987,N/A,Peru,Cajamarca,Jaén,N/A,Road from Pucará to Chamaya km. 21 east of Pucará along Río Huancabamba,Road from Pucará to Chamaya 21 kilometers east of Pucará along Río Huancabamba,Dry scrub forest on steep slopes,Alt. 700 m.,N/A,1973380,Typed,no type status
https://fm-digital-assets.fieldmuseum.org/738/506/V0239614F.jpg,V0239614F,Magda Chanco with Michelle McMahon and Larry Hufford,M. Chanco,M. McMahon | L. Hufford,s.n.,14 April 2003,2003-04-14,N/A,Abutilon sp.,Abutilon,N/A,N/A,N/A,Peru,Cajamarca,N/A,N/A,Chilete-San Pablo road about 15 km from Chilete,Chilete-San Pablo road about 15 kilometers from Chilete,N/A,3614 feet elevation,S7° 10.554' W78° 49.665',2253555,Typed,no type status
https://fm-digital-assets.fieldmuseum.org/1611/031/V0414961F.jpg,V0414961F,Marcos Ríos 4399 Tony Mori Nigel Pitman Luis Torres Corine Vriesendorp,M. Ríos,T. Mori | N. Pitman | L. Torres | C. Vriesendorp,4399,13 octubre 2014,2014-10-13,N/A,Andira macrothyrsa Ducke,Andira macrothyrsa,unsure and check,N/A,N/A,Peru,Loreto,Requena,N/A,Prov. Requena Dtto. de Soplin Quebrada Yanayacu-Rio Blanco Campamento Wiswincho del inventario rapido #27 de la region Tapiche-Blanco,Campamento Wiswincho del inventario rapido number 27 de la region Tapiche-Blanco,Bosque de Planicie Inundable de aguas blancas,Alt. 90-110 msnm,"05°48'33.5""S 73°51'53.8""W",2318558,Typed,no type status
https://fm-digital-assets.fieldmuseum.org/1611/032/V0414962F.jpg,V0414962F,Marcos Ríos 4399 Tony Mori Nigel Pitman Luis Torres Corine Vriesendorp,M. Ríos,T. Mori | N. Pitman | L. Torres | C. Vriesendorp,4399,13 octubre 2014,2014-10-13,N/A,Andira macrothyrsa Ducke,Andira macrothyrsa,unsure and check,N/A,N/A,Peru,Loreto,Requena,N/A,Dtto de Soplin Quebrada Yanayacu-Rio Blanco Campamento Wiswincho del inventario rapido #27 de la region Tapiche-Blanco,Campamento Wiswincho del inventario rapido number 27 de la region Tapiche-Blanco,Bosque de Planicie Inundable de aguas blancas Arbol 7 m flores amarillas y los botones son de color beige (beige),Alt 90-110 msnm,"05°48'33.5""S 73°51'53.3""W",2318557,Typed,no type status
https://fm-digital-assets.fieldmuseum.org/1743/655/V0462893F.jpg,V0462893F,Ynes Mexia,Y. Mexia,N/A,8265,"Oct. 9, 1936",1936-10-09,N/A,Piper callosum Ruiz & Pavon,Piper callosum,W. Trelease,N/A,N/A,Peru,Huanuco,N/A,N/A,Near confluence Rio Cayumba with Huallaga,Near confluence Rio Cayumba with Huallaga,Forested slope above road,Alt. 805 m,N/A,1066996,Typed,no type status
https://fm-digital-assets.fieldmuseum.org/1743/657/V0462895F.jpg,V0462895F,Ynes Mexia,Y. Mexia,N/A,6157,"Nov. 24, 1931",1931-11-24,N/A,Piper callosum Ruiz & Pav.,Piper callosum,N. L. Britton,N/A,N/A,Peru,Loreto,N/A,N/A,Above Pongo de Manseriche Right bank of mouth of Rio Santiago,Above Pongo de Manseriche Right bank of mouth of Rio Santiago,Dense forest,Alt. 200 m.,N/A,872277,Typed,no type status
https://fm-digital-assets.fieldmuseum.org/1743/506/V0441679F.jpg,V0441679F,Coll. Donald R. Simpson & José Schunke V.,D. R. Simpson,J. Schunke V.,565,"January 4, 1968",1968-01-04,N/A,Ipomoea carnea Jacq.,Ipomoea carnea,D. Simpson,Jan. 1969,N/A,Peru,Tumbes,Pampas de Hospital,N/A,Along the road about 10 km. northwest of El Caucho,Along the road about 10 kilometers northwest of El Caucho,Vine clambering over shrubs corolla pale lavender open in the morning sun closed on this cloudy afternoon when collected Common from the dry deciduous forest zone downward into the very dry thorn-scrub,N/A,N/A,1837948,Typed,no type status
https://fm-digital-assets.fieldmuseum.org/1743/504/V0441677F.jpg,V0441677F,Coll. T. Plowman & P. M. Rury,T. Plowman,P. M. Rury,11105,6 December 1981,1981-12-06,N/A,Ipomoea carnea Jacq.,Ipomoea carnea,P. MacDonald,1983,N/A,Peru,Huánuco,Huánuco,N/A,8 km. northeast of Huánuco on road to Tingo María,8 kilometers northeast of Huánuco on road to Tingo María,Scandent shrub on roadside near houses. Stem with milky sap. Fls. pink.,Alt. 1750 m.,Approx. 9°52'S. 76°11'W.,1896900,Typed,no type status
https://fm-digital-assets.fieldmuseum.org/1684/390/V0401892F.jpg,V0401892F,Robin B. Foster,R. B. Foster,N/A,4240,"Aug. 19, 1978",1978-08-19,N/A,Aechmea,Aechmea corymbosa,E. J. Gouda,2018-02-05,N/A,Peru,Loreto,Maynas,N/A,Rio Nanay Caseria Mishana 30km SW of Iquitos,Rio Nanay Caseria Mishana 30 kilometers southwest of Iquitos,Terrestrial in white sand scrub bracts bright red-pink flowers white,N/A,N/A,1852637,Typed,no type status
https://fm-digital-assets.fieldmuseum.org/1766/135/V0460617F.jpg,V0460617F,"J. Farfán, L. Valenzuela, I. Huamantup a, A. Carazas, W. Argandoña 1262",J. Farfán,L. Valenzuela | I. Huamantup a | A. Carazas | W. Argandoña,1262,23 Octubre 2006,2006-10-23,N/A,Anthurium clavigerum Poepp.,Anthurium clavigerum,T. B. Croat,2008,N/A,Peru,Cusco,La Convención,N/A,"Dist. Vilcabamba, Chuanquiri camino a Riobamba, Bosque secundario",Chuanquiri camino a Riobamba,"Bosque Secundario. Epífita, hasta 70 cm, espádice rojo, espata verde",1009 m,"12°47'15""S 073°10'10""W",2315782,Typed,no type status
https://fm-digital-assets.fieldmuseum.org/1826/292/V0469643F.jpg,V0469643F,Thomas B. Croat,T. B. Croat,N/A,18210,"July 18, 1972",1972-07-18,N/A,Agave americana L.,Agave americana,N/A,N/A,N/A,Peru,Loreto,N/A,N/A,Sandy area 12.5 km. SW of Iquitos on road to Lago Quisto-cocha,Sandy area 12.5 kilometers southwest of Iquitos on road to Lago Quisto-cocha,Sandy area,N/A,N/A,1759629,Typed,no type status
https://fm-digital-assets.fieldmuseum.org/227/821/V0075820F.jpg,V0075820F,coll. T. R. Dudley,T. R. Dudley,N/A,10783,4 July 1968,1968-07-04,N/A,Thelypteris dudleyi A. R. Smith,Thelypteris dudleyi,A. R. Smith,1989,N/A,Peru,Cuzco,La Convencion,N/A,Prov. La Convencion; Dept. Cuzco,[precise locality unknown],Common terrestrial type with bright green foliage and purplish-black and glossy petioles saxatile on almost vertical rock faces in full sun on old open landslide just above the cloud forest between camp 4 and 5 almost to Camp 5 at c. 2825 meters one of the commonest colonizers of landslide,c. 2825 m,12° 37' 73° 32',65658,Typed,Isotype
https://fm-digital-assets.fieldmuseum.org/227/835/V0075836F.jpg,V0075836F,S. Knapp,S. Knapp,N/A,5881,4 July 1982,1982-07-04,N/A,TRICHIPTERIS PINNATA Stolze,Trichipteris pinnata,Robert G. Stolze,1984,N/A,Panama,Colón,N/A,N/A,Santa Rita Ridge road 21-26 km from Transisthmian Highway,Santa Rita Ridge road 21 to 26 kilometers from Transisthmian Highway,Tropical wet forest,500-550 m,9°25'N 79°37'W,1932768,Typed,Isotype
https://fm-digital-assets.fieldmuseum.org/1121/693/C0616676F.jpg,C0616676F,COL. J. DORANTES,J. Dorantes,N/A,455,01/01/1972,1972-01-01,N/A,Woodwardia spinulosa Mart. & Gal.,Woodwardia spinulosa,M. Palacios-Rios,"September, 2000",N/A,Mexico,Veracruz,Jalapa,N/A,Alto del Gato,Alto del Gato,Bosque caducifolio suelo rojo arcilloso muy abundante helecho perenne veg. riparia,TAM. 1.30 M.,MAPA 38.5 29.0,1736002,Typed,no type status
https://fm-digital-assets.fieldmuseum.org/1086/214/C0644079F.jpg,C0644079F,"A. Monteagudo, C. Mateo, G. Ortiz",A. Monteagudo,C. Mateo | G. Ortiz,4909,10 Abril 2003,2003-04-10,N/A,Blechnum occidentalis L.,Blechnum occidentalis,H. van der Werff,2005,N/A,Peru,Pasco,Oxapampa,N/A,Distrito Pozuzo Parque Nacional Yanachaga Chemillen Pozuzo Sector Pan de Azúcar Zona de Recuperación Bosque ribereño,Parque Nacional Yanachaga Chemillen Pozuzo Sector Pan de Azúcar Zona de Recuperación,Bosque ribereño Helecho terrestre adpreso a la roca soros marrones,1100-1250m,10°15'S 75°13'W,2287355,Typed,no type status
https://fm-digital-assets.fieldmuseum.org/1098/449/C0658238F.jpg,C0658238F,Ynes Mexia,Y. Mexia,N/A,8066,"May 14,1936",1936-05-14,N/A,Adiantum pulverulentum L.,Adiantum pulverulentum,E. B. Copeland,N/A,N/A,Peru,Cuzco,La Convencion,N/A,upper valley of Rio Sambray western affluent of Vilcanota along stream in virgin forest,upper valley of Rio Sambray western affluent of Vilcanota along stream,virgin forest Common scattered,Alt. about 1800 m.,N/A,1005396,Typed,no type status
https://fm-digital-assets.fieldmuseum.org/1079/847/C0637474F.jpg,C0637474F,J.I. Calzada,J. I. Calzada,N/A,5759,11-enero-1980,1980-01-11,N/A,Diplazium francois Liebm.,Diplazium francois,R. G. Stolze,1983,Liquidambar styraciflua | Quercus sp. | Alnus sp.,Mexico,Veracruz,Xico,N/A,Ranchería de Coatititlán,Ranchería de Coatititlán,Bosque Caducifolio Muy húmedo,1820 m.s.n.m.,19° 29' N 97° 04' W,1894963,Typed,no type status
https://fm-digital-assets.fieldmuseum.org/1079/274/C0636906F.jpg,C0636906F,Antonio Molina R.,A. Molina,N/A,1427,"Nov. 4, 1948",1948-11-04,N/A,Thelypteris piloso-hispida (Hook) Morton,Thelypteris rudis,A. R. Smith,1974,N/A,Honduras,Morazán,N/A,N/A,"Bosque lluvioso, norte de la Mt. Uyuca, caminos Tatumbla, Lebranza y Quebrada El Granadillo, sobre la Mt. Uyuca","North of the Mt. Uyuca, Tatumbla, Lebranza and Quebrada El Granadillo, on the Mt. Uyuca",Bosque lluvioso,Alt. 1800 m,at about Longitude 87° W and Latitude 14° N,1394536,Typed,no type status
https://fm-digital-assets.fieldmuseum.org/1072/569/C0665739F.jpg,C0665739F,"B. León, K. Young & N. Huapaya",B. León,K. Young | N. Huapaya,2911,10 setiembre 1991,1991-09-10,N/A,Thelypteris euchlora (Sod.) Reed,Thelypteris euchlora,R. G. Stolze,1992,N/A,Peru,Cuzco,Paucartambo,N/A,"Bosque de Nubes, Río La Unión. En ladera","Bosque de Nubes, Río La Unión",N/A,1700-1800 m,N/A,2112158,Typed,no type status
https://fm-digital-assets.fieldmuseum.org/1137/337/C0626158F.jpg,C0626158F,Louis O. Williams Antonio Molina R. Terua P. Williams Dorothy N. Gibson and Chester Laskowski,L. O. Williams,A. Molina R. | T. P. Williams | D. N. Gibson | C. Laskowski,27621,January 15 1965,1965-01-15,N/A,Polypodium blepharodes Maxon,Grammitis blepharodes,R. G. Stolze,1979,N/A,Nicaragua,Matagalpa,N/A,N/A,Montane rain forest or cloud forest Disparate de Potter Sta. María de Ostuma Cordillera Central de Nicaragua,Disparate de Potter Santa María de Ostuma Cordillera Central de Nicaragua,Epiphyte on mossy tree,alt. 1600 m,N/A,1626179,Typed,no type status
https://fm-digital-assets.fieldmuseum.org/1072/487/C0665657F.jpg,C0665657F,Ken Young & Mark Eisenberg 265,K. Young,M. Eisenberg,265,20 April 1981,1981-04-20,N/A,Thelypteris (subg. Amauropelta) cheilanthoides (Kunze) Proctor,Thelypteris cheilanthoides,A. R. Smith,1989,N/A,Peru,Cuzco,La Convencion,N/A,Just east of Quillabamba Finca Chichima,Just east of Quillabamba Finca Chichima,Cocoa coffee yuca mangoes bananas corn crops grown,Alt. 1300-1400 m,N/A,2038794,Typed,no type status
https://fm-digital-assets.fieldmuseum.org/330/762/C0045536F.jpg,C0045536F,Thomas G. Lammers,T. G. Lammers,N/A,10674,9 May 1998,1998-05-09,N/A,Dryopteris carthusiana (Vill.) H.P. Fuchs,Dryopteris carthusiana,N/A,N/A,N/A,United States,Illinois,Cook,N/A,Palos Twp. Swallow Cliffs Woods Forest Preserve southwest of the jct. of US Hwy 45 and State Hwy 83,Swallow Cliffs Woods Forest Preserve southwest of the junction of US Highway 45 and State Highway 83,Local in mesic maple-basswood forest on steep slopes of deep ravine south of toboggan run,N/A,N/A,2228497,Typed,no type status
https://fm-digital-assets.fieldmuseum.org/1139/892/C0627900F.jpg,C0627900F,Louis O. Williams | Antonio Molina R. | Albertina R. Molina,L. O. Williams,A. Molina R. | A. R. Molina,12562,"Mayo 22, 1963",1963-05-22,N/A,Polypodium montigenum Maxon,Polypodium montigenum,A. Molina,N/A,N/A,El Salvador,Santa Ana,N/A,N/A,Bosque abierto de Montaña Montecristo,Montecristo,Epífita Bosque abierto de Montaña,Alt. 2000 m,N/A,1661895,Typed,no type status
https://fm-digital-assets.fieldmuseum.org/217/945/V0082645F.jpg,V0082645F,M. O. Dillon 5376,M. O. Dillon,N/A,5376,21 Dec 1987,1987-12-21,N/A,Notholaena mollis Kunze,Notholaena mollis,unsure and check,N/A,N/A,Chile,Antofagasta,Antofagasta,N/A,Cerro Perales ca. 5 km E of Taltal,Cerro Perales approximately 5 kilometers east of Taltal,Terrestrial growing in rock crevices,600-850 m,25° 25' S 70° 25' W,Nº 2010984,Typed,no type status
https://fm-digital-assets.fieldmuseum.org/1073/191/C0666362F.jpg,C0666362F,Rolla M. & Alice F. Tryon,R. M. Tryon,A. F. Tryon,6566,23 October 1963,1963-10-23,N/A,Thelypteris lindigii (C.Chr.) Alston,Thelypteris rufa,A. R. Smith,"1979, 1989",N/A,Peru,Ancash,N/A,N/A,"Road from Huaras to Cusma, west valley","Road from Huaras to Cusma, west valley",damp shaded rocks,2800 m.,N/A,1833066,Typed,no type status
https://fm-digital-assets.fieldmuseum.org/1073/037/C0666207F.jpg,C0666207F,E. P. Killip A. C. Smith,E. P. Killip,A. C. Smith,2974,"September 22-29, 1929",1929-09-22,1929-09-29,Dryopteris megalodus (Schk.) Urban,Thelypteris pennata,A. R. Smith,1989,N/A,Peru,Loreto,N/A,N/A,Soledad on Rio Itaya,Soledad on Rio Itaya,Dense forest,alt. about 110 meters,N/A,1520668,Typed,no type status
https://fm-digital-assets.fieldmuseum.org/1073/036/C0666206F.jpg,C0666206F,F. P. Killip & A. C. Smith,F. P. Killip,A. C. Smith,24937,"September 18, 1929",1929-09-18,N/A,Dryopteris megalodus (Schk.) Urban,Thelypteris pennata,A. R. Smith,Date 1989,N/A,Peru,Loreto,N/A,N/A,San Antonio on Rio Itaya,San Antonio on Rio Itaya,Dense forest,alt. about 110 meters,N/A,1520607,Mix of Handwritten and Typed,no type status
https://fm-digital-assets.fieldmuseum.org/1073/033/C0666203F.jpg,C0666203F,Macbride & Featherstone,J. F. Macbride,J. Featherstone,1622,"JULY 8-22, 1922",1922-07-08,1922-07-22,Dryopteris pavoniana (Klf) C Chr,Thelypteris pavoniana,A. R. Smith,1979,N/A,Peru,Mito,N/A,N/A,Sunny dirt ledges of the grass-shrub formation,[precise locality unknown],Sunny dirt ledges of the grass-shrub formation,About 9000 ft,N/A,518129,Mix of Handwritten and Typed,no type status
https://fm-digital-assets.fieldmuseum.org/1073/032/C0666202F.jpg,C0666202F,J. J. Wurdack No. 705,J. J. Wurdack,N/A,705,1 June 1962,1962-06-01,N/A,Thelypteris (Thelypteris) pavoniana (Klotzsch),Thelypteris pavoniana,A. R. Smith,1979,N/A,Peru,Amazonas,Chachapoyas,N/A,Upper slopes of Puma-urcu east-southeast of Chachapoyas,Upper slopes of Puma-urcu east-southeast of Chachapoyas,On banks locally frequent,elev. 2700-3000 m,N/A,1647265,Typed,no type status
https://fm-digital-assets.fieldmuseum.org/1072/942/C0666112F.jpg,C0666112F,ROLLA M. TRYON & ALICE F. TRYON,R. M. Tryon,A. F. Tryon,5202,"Aug. 13, 1956",1956-08-13,N/A,Thelypteris,Thelypteris opulenta,A. R. Smith,"1979, 1990",N/A,Peru,Loreto,Maynas,N/A,"Rio Itaya, 10 km. s. of Iquitos","Rio Itaya, 10 kilometers south of Iquitos",In old banana planting,N/A,N/A,1587072,Typed,no type status
https://fm-digital-assets.fieldmuseum.org/1081/508/C0639123F.jpg,C0639123F,Louis O. Williams Antonio Molina R. and Terua P. Williams,L. O. Williams,A. Molina R. | T. P. Williams,23634,"January 8-15, 1963",1963-01-08,1963-01-15,Lycopodium clavatum L.,Lycopodium clavatum,C. V. Morton | D. B. Lellinger,1964,N/A,Nicaragua,Matagalpa,N/A,N/A,Cloud forest area Sta. Maria de Ostuma Cordillera Central de Nicaragua between Matagalpa and Jinotega Department of Matagalpa,Sta. Maria de Ostuma Cordillera Central de Nicaragua between Matagalpa and Jinotega,Terrestrial on open bank,alt. 1300-1500 meters,N/A,1604338,Typed,no type status
https://fm-digital-assets.fieldmuseum.org/1748/926/C0675553F.jpg,C0675553F,"John T. Atwood, Jr.",J. T. Atwood,N/A,77105,8 Feb. 1977,1977-02-08,N/A,Adiantum trapeziforme L.,Adiantum eximium,M. R. McCarthy,2012,N/A,Nicaragua,Granada,N/A,N/A,Volcan Mombacho Lower cloud forest near finca Cutirre,Volcan Mombacho near finca Cutirre,Lower cloud forest,N/A,N/A,1868242,Typed,no type status
https://fm-digital-assets.fieldmuseum.org/1749/002/C0675619F.jpg,C0675619F,H. et al.,H.,N/A,7644,4-21-35,1935-04-21,N/A,Adiantum trapeziforme L.,Adiantum exuberans,M. R. McCarthy,2012,N/A,Mexico,Mexico,Temascaltepec,Pantoja,Pantoja,[precise locality unknown],dry barranca,N/A,N/A,954869,Typed,no type status
https://fm-digital-assets.fieldmuseum.org/1751/323/C0355438F.jpg,C0355438F,R. A. Maas Geesteranus,R. A. Maas Geesteranus,N/A,5744,12-VIII-1949,1949-08-12,N/A,Asplenium dregeanum Kze.,Asplenium sandersonii,R. Faden,1976,Conopharyngia holstii,Kenya,Nyanza,Kericho,N/A,South Western Mau Forest Reserve camp 8,South Western Mau Forest Reserve camp 8,riparian-woodland along the river Itare among others,1920 m s.m.,"lat. 0°36'30"" S. long. 35°12'20"" E.",1445440,Mix of Handwritten and Typed,no type status
https://fm-digital-assets.fieldmuseum.org/1824/625/C0359489F.jpg,C0359489F,M. Véliz con J. M. Véliz J. Charco H. Sains J. Lopez y R. Esteban,M. Véliz,J. M. Véliz | J. Charco | H. Sains | J. Lopez | R. Esteban,16199,22/XI/2005,2005-11-22,N/A,Lophosoria quadripinnata (J.F. Gmel) C. Chr. var quadripinnata,Lophosoria quadripinnata,M. Véliz,24/XI/2005,Quercus,Guatemala,Jalapa,N/A,Aldea San Raymundo,río Manzanillos,Río Manzanillos,Helecho muy frecuente con frondes compuestos glaucos en el envés creciendo dentro de bosque de Quercus sp,2308 msnm,14° 33' 43.7'' N 90° 06' 19.7'' O,2298970,Typed,no type status
https://fm-digital-assets.fieldmuseum.org/1752/612/C0662895F.jpg,C0662895F,Chas. F. Millspaugh M. D.,C. F. Millspaugh,N/A,893,Jan. 28-Feb. 6,1889-01-28,1889-02-06,Asplenium trichomanes L.,Asplenium trichomanes,N/A,N/A,N/A,Jamaica,N/A,N/A,Port Antonio,Port Antonio,Port Antonio,N/A,N/A,N/A,80890,Typed,no type status
https://fm-digital-assets.fieldmuseum.org/1847/286/C0363828F.jpg,C0363828F,T. G. Yuncker,T. G. Yuncker,N/A,17429,"Nov. 17, 1957",1957-11-17,N/A,Lycopodium cernuum L.,Lycopodium cernuum,N/A,N/A,N/A,Jamaica,St. Andrew,N/A,N/A,"Scrambling over side of cut, along trail near Bellevue",Bellevue,Scrambling over side of cut,Alt. 3000-4000 ft.,N/A,1483756,Typed,no type status
https://fm-digital-assets.fieldmuseum.org/1847/445/C0363985F.jpg,C0363985F,Carvalho,Carvalho,N/A,2092,25-VII-1986,1986-07-25,N/A,Lycopodiella cernua (L.) Pic.-Serm.,Lycopodiella cernua,J. Fernández Casas,1991,N/A,Equatorial Guinea,Bioco,N/A,N/A,Malabo - Basilé km 13 cerca de Basilé 32NMK7808 390 m márgenes de la carretera,Malabo - Basilé km 13 cerca de Basilé,Postrada Forma pequeñas colonias dispersas,390 m,32NMK7808,2201362,Typed,no type status
https://fm-digital-assets.fieldmuseum.org/1847/568/C0363442F.jpg,C0363442F,Henk van der Werff 11699,H. van der Werff,N/A,11699,12 June 1990,1990-06-12,N/A,Diplazium assimile (Endl.) Bedd.,Diplazium assimile,H. van der Werff,1991,N/A,Australia,Queensland,N/A,N/A,Boonjee logging area at base of Mt. Bartle Frere,Boonjee logging area at base of Mount Bartle Frere,Rainforest,N/A,145°43'E 17°25'S,2094887,Typed,no type status
https://fm-digital-assets.fieldmuseum.org/2128/136/C0378283F.jpg,C0378283F,Coll. M. Tagawa & K. Iwatsuki,M. Tagawa,K. Iwatsuki,1150,"July 28, 1956",1956-07-28,N/A,Diplazium amabile (Tag.) Tag.,Diplazium amabile,M. Tagawa | K. Iwatsuki,N/A,N/A,Japan,Kagoshima,N/A,N/A,"Loc. Kyushu. Pref. Kagoshima: western slope of Mt. Hoyoshi, south of Kanoya City","Western slope of Mount Hoyoshi, south of Kanoya City",Wet rocky slope in densely wooded ravine,N/A,N/A,1478055,Typed,no type status
https://fm-digital-assets.fieldmuseum.org/1862/027/C0364726F.jpg,C0364726F,W. Takeuchi & J. Wiakabu,W. Takeuchi,J. Wiakabu,9366,"February 5, 1994",1994-02-05,N/A,Blechnum ledermannii Brause,Blechnum ledermannii,Field Char,N/A,N/A,Papua New Guinea,New Ireland,N/A,N/A,Hans Meyer Range Site 4 on the expedition report,Hans Meyer Range Site 4,Pristine subcloud forest dominated by bryophytic and ferny growth,c. 1800 m,4°25'S X 152°59'E,OFCZ0683-A,Typed,no type status
https://fm-digital-assets.fieldmuseum.org/1864/937/C0366013F.jpg,C0366013F,Tagawa & Iwatsuki,M. Tagawa,K. Iwatsuki,888,"May 20, 1956",1956-05-20,N/A,Dryopteris crassirhizoma Nakai,Dryopteris crassirhizoma,N/A,N/A,N/A,Japan,N/A,N/A,N/A,N/A,[precise locality unknown],N/A,N/A,N/A,1478001,Typed,no type status
https://fm-digital-assets.fieldmuseum.org/1863/394/C0366453F.jpg,C0366453F,Coll. J. Ohwi,J. Ohwi,N/A,s.n.,April 1951,1951-04-00,N/A,Polystichum tripteron Presl,Polystichum tripteron,N/A,N/A,N/A,Japan,Honshu,Sagami,N/A,Jizmuji in Sagami,Jizmuji,N/A,N/A,N/A,NSM. No. 202,Typed,no type status
https://fm-digital-assets.fieldmuseum.org/1862/882/C0364207F.jpg,C0364207F,Father Morice Vanoverbergh,M. Vanoverbergh,N/A,3591,April 13,19XX-04-13,N/A,Asplenium contiguum. Kaulf.,Asplenium contiguum,N/A,N/A,N/A,Philippines,Luzon,Bontoc,N/A,N/A,[precise locality unknown],N/A,N/A,N/A,393439,Typed,no type status
https://fm-digital-assets.fieldmuseum.org/1897/625/C0376117F.jpg,C0376117F,R.B. & A.J. Faden,R. B. Faden,A. J. Faden,77/53,5 Jan. 1977,1977-01-05,N/A,Pyrossia lanceolata (L.) Farw.,Pyrossia lanceolata,D. B. Lellinger,1979,N/A,Sri Lanka,North Western Province,Kurunegala,N/A,"Doluwakanda Hill ca. 7 37'N 80 24'30""E",Doluwakanda Hill,Forest Locally common Lithophyte Rhizoma creeping fronds widely spaced,Alt. 600 m,"7 37'N 80 24'30""E",2014294,Typed,no type status
https://fm-digital-assets.fieldmuseum.org/1904/108/C0377881F.jpg,C0377881F,By Albert N Steward C Y Chiao and H C Cheo,A. N. Steward,C. Y. Chiao | H. C. Cheo,344,Sept 4 1931,1931-09-04,N/A,Dryopteris esquirolii Christ,Dryopteris esquirolii,N/A,N/A,N/A,China,Guizhou,N/A,N/A,moist brushy slope,[precise locality unknown],moist brushy slope soil black,alt 980 m,N/A,779919,Typed,no type status
https://fm-digital-assets.fieldmuseum.org/1909/756/C0382365F.jpg,C0382365F,J. F. Barcelona,J. F. Barcelona,N/A,48,November 1989,1989-11-00,N/A,Selaginella cf repanda,Selaginella philippina,J. F. Barcelona,Nov. 1989,N/A,Philippines,Western Visayas,Antique,Sibalom,Antique poblacion forest along riverbank,Antique poblacion forest along riverbank,In shaded and moist places along riverbank,N/A,N/A,2210265,Mix of Handwritten and Typed,no type status
https://fm-digital-assets.fieldmuseum.org/1896/920/C0368029F.jpg,C0368029F,Col. L. & A. Fay 1206,L. Fay,A. Fay,1206,11 Apr 1985,1985-04-11,N/A,Drynaria laurentii (Christ.) Hieron.,Drynaria laurentii,N/A,N/A,N/A,Liberia,N/A,N/A,N/A,LIBERIA. Cuttington University College. Alt. 250 m.,Cuttington University College,"On tree trunk about 10 feet from ground; common in groves of rubber trees on trunks. Pinnae 12-15 pairs (fertile leaves); stipe/blade 15,16,17/55,59,55 cm. Sterile leaves 25 x 12 cm. no stipe.",Alt. 250 m.,N/A,2111378,Typed,no type status
https://fm-digital-assets.fieldmuseum.org/1990/120/C0356535F.jpg,C0356535F,Coll. H. St. John,H. St. John,N/A,16662,"Aug. 26, 1934",1934-08-26,N/A,Humata banksii Alston,Humata banksii,E. B. Copeland,N/A,N/A,French Polynesia,Austral Islands,Rurutu,N/A,Northwest slope of Teape Teti woods on mossy tree limb,Northwest slope of Teape Teti woods,Epiphyte Fronds mostly pendent coriaceous,altitude 350 meters,N/A,1435764,Typed,no type status
https://fm-digital-assets.fieldmuseum.org/1995/841/C0383576F.jpg,C0383576F,T. G. Yuncker,T. G. Yuncker,N/A,"18,561","Mar. 30, 1958",1958-03-30,N/A,Selaginella plana (Diev.) Hieron.,Selaginella plana,unsure and check,N/A,N/A,Jamaica,Portland,N/A,N/A,On wet embankment along trail rain forest John Crow Mts. 1.5-2 miles southwest of Ecclesdown,John Crow Mountains 1.5 to 2 miles southwest of Ecclesdown,On wet embankment along trail rain forest,Alt. 1500-2500 ft.,N/A,1481955,Typed,no type status
https://fm-digital-assets.fieldmuseum.org/1982/572/C0383180F.jpg,C0383180F,A. Carestia,A. Carestia,N/A,s.n.,1871,1871-00-00,N/A,Lycopodium complanatum L.,Lycopodium complanatum,J. H. Wilce,1962,N/A,Italy,Piedmont,Valsesia,Scopello,Salita alla Boscarola presso Scopello in Valsesia,Salita alla Boscarola,N/A,N/A,N/A,28302,Typed,no type status
https://fm-digital-assets.fieldmuseum.org/1991/498/C0358423F.jpg,C0358423F,coll. C.J. Chamberlain,C. J. Chamberlain,N/A,s.n.,"Oct. 15, 1911",1911-10-15,N/A,Trichomanes reniforme,Trichomanes reniforme,N/A,N/A,N/A,New Zealand,N/A,N/A,Ohakune,Ohakune,[precise locality unknown],N/A,N/A,N/A,1407795,Typed,no type status
https://fm-digital-assets.fieldmuseum.org/2116/918/C0662992F.jpg,C0662992F,R. L. Wilbur no. 8185 E. L. Dunn H. A. Hespenheide D. R. Wiseman,R. L. Wilbur,E. L. Dunn | H. A. Hespenheide | D. R. Wiseman,8185,2 August 1964,1964-08-02,N/A,Cnemidaria grandifolia (Willd.) Proctor var. grandifolia,Cnemidaria grandifolia,R. L. Wilbur,1966,N/A,Dominica,Saint Paul,N/A,N/A,Parish of St. Paul Disturbed rainforest in the upper Layou Valley about 5 miles from Clarke Hall towards Pont Cassé,Upper Layou Valley about 5 miles from Clarke Hall towards Pont Cassé,Disturbed rainforest,N/A,N/A,1670026,Typed,no type status
https://fm-digital-assets.fieldmuseum.org/2128/029/C0377971F.jpg,C0377971F,R.B. & A.J. Faden,R. B. Faden,A. J. Faden,77/31,2 Jan 1977,1977-01-02,N/A,Trigonospora obtusiloba Sledge,Trigonospora obtusiloba,unsure and check,N/A,N/A,Sri Lanka,Central,Nuwara Eliya,N/A,between mile posts 46/3 and 46/4 on Nuwara Eliya-Kandy road,between mile posts 46/3 and 46/4 on Nuwara Eliya-Kandy road,Shady moist bank near stream Local and uncommon,ca 1980 m,6 59'N 80 45'E,2089703,Typed,no type status
https://fm-digital-assets.fieldmuseum.org/326/926/C0003693F.jpg,C0003693F,leg. H.K.,H. K.,N/A,68/641,5.VII.1968,1968-07-05,N/A,Crucispora naucorioides HK. 1971 (Typus),Crucispora naucorioides,unsure and check,1971,Cyathea dealbata | C. smithii | Phyllocladus | Podocarpus,New Zealand,N/A,N/A,N/A,Kauaeranga Valley Coromandel Peninsula N.Z.,Kauaeranga Valley Coromandel Peninsula,in Humus unter Cyathea dealbata C. smithii Phyllocladus Podocarpus etc.,N/A,N/A,1017207,Typed,Typus
https://fm-digital-assets.fieldmuseum.org/407/128/C0004429F.jpg,C0004429F,Singer,R. Singer,N/A,B 7463,14 V 1973,1973-05-14,N/A,Hygrocybe dimorphobasiditata Sing.,Hygrocybe dimorphobasiditata,R. Singer,N/A,N/A,Ecuador,Napo,N/A,Lago Agrio,Lago Agrio,Lago Agrio,Ad terram in hylaea,N/A,N/A,1017827,Typed,Type
https://fm-digital-assets.fieldmuseum.org/407/130/C0004430F.jpg,C0004430F,Singer,R. Singer,N/A,M10517,23 II 1988,1988-02-23,N/A,Hygrocybe fuegiana Sing (= H. rosea sensu Horak),Hygrocybe fuegiana,N/A,N/A,Sphagnum | Rubus geoides,Argentina,Tierra del Fuego,Ushuaia,N/A,ya road Ushuaya-Lago Fagnano SW of highest point,Ushuaya-Lago Fagnano southwest of highest point,Gregarious in bog margin,N/A,N/A,F1075922,Typed,Holotype
https://fm-digital-assets.fieldmuseum.org/276/684/C0000578F.jpg,C0000578F,"John J. Engel, Matt von Konrat & John E. Braggins",J. J. Engel,M. von Konrat | J. E. Braggins,23773,12 February 2003,2003-02-12,N/A,Telaranea lindenbergii var. papillata Engel & Merr.,Telaranea lindenbergii,N/A,N/A,Blechnum novae-zelandiae | Weinmannia | Dicksonia squarrosa | Leptospermum scoparium,New Zealand,Auckland,N/A,N/A,"Whareorino Forest, start of track to Leitch's Hut","Whareorino Forest, start of track to Leitch's Hut","On clayey bank. Clay banks with Blechnum novae-zelandiae overhang, Weinmannia and Dicksonia squarrosa dominant canopy and occasional Leptospermum scoparium",280 m,"38° 24.5' S, 174° 49.8' E",1173554,Typed,Holotype
https://fm-digital-assets.fieldmuseum.org/2535/382/C2079898F.jpg,C2079898F,Marko Lewis,M. Lewis,N/A,78-2684,21-22 November 1978,1978-11-21,1978-11-22,Kindbergia praelonga (Hedw.) Ochyra,Kindbergia praelonga,W. C. Steere,N/A,N/A,Ecuador,Imbabura,N/A,N/A,E. side of Cerro Cotacachi NW of Cotacachi,East side of Cerro Cotacachi northwest of Cotacachi,Wet bank of runoff ravine,3750 m,0°22'N 78°20'W,1065158,Mix of Handwritten and Typed,no type status
https://fm-digital-assets.fieldmuseum.org/2537/873/C2077559F.jpg,C2077559F,Marko Lewis,M. Lewis,N/A,78-3163,8 December 1978,1978-12-08,N/A,Hedwigia ciliata (Hedw.) P. Beauv.,Hedwigia ciliata,W. C. Steere | E. De Luna,1992,N/A,Ecuador,Azuay,N/A,N/A,"Area Nacional de Recreación ""Cajas"", forested hill S. of ""Surrochuco"" (Laguna Llaviuco), SW of Sayausí","Area Nacional de Recreación Cajas, forested hill south of Surrochuco, Laguna Llaviuco, southwest of Sayausí",Stone wall,3240 m,"2°55'S, 79°09'W",1065433,Typed,no type status
https://fm-digital-assets.fieldmuseum.org/2537/883/C2077563F.jpg,C2077563F,R.Benoist,R. Benoist,N/A,4659,s.d.,0000-00-00,N/A,Hedwigia albicans (Web.) Lindb.,Hedwigia ciliata,E. De Luna,1992,N/A,Ecuador,N/A,N/A,Quito,environs de Quito,[precise locality unknown],N/A,N/A,N/A,1089453,Mix of Handwritten and Typed,no type status
https://fm-digital-assets.fieldmuseum.org/2537/887/C2077564F.jpg,C2077564F,Lég. R. Benoist,R. Benoist,N/A,s.n.,27 mars 1930,1930-03-27,N/A,Hedwigia albicans (Web.) Lindb.,Hedwigia ciliata,E. De Luna | I. Thériot,1992 | N/A,N/A,Ecuador,N/A,N/A,Quito,Sur rocher d'andésite. Quito,[precise locality unknown],Sur rocher d'andésite,N/A,N/A,1039455,Typed,no type status
https://fm-digital-assets.fieldmuseum.org/2537/891/C2077565F.jpg,C2077565F,COLLECTED BY R. S. WILLIAMS 1901-1902,R. S. Williams,N/A,2853,April 30 1902,1902-04-30,N/A,Hedwigia albicans (W. P. Schimper),Hedwigia ciliata,E. De Luna,1992,N/A,Bolivia,N/A,N/A,N/A,near Pelechuco,near Pelechuco,N/A,3500 meters,N/A,C00775656,Mix of Handwritten and Typed,no type status
https://fm-digital-assets.fieldmuseum.org/2537/895/C2077566F.jpg,C2077566F,Marko Lewis,M. Lewis,N/A,79-1237A,22 March 1979,1979-03-22,N/A,Hedwigia ciliata (Hedw.) P. Beauv.,Hedwigia ciliata,E. De Luna,1992,N/A,Bolivia,La Paz,Larecaja,N/A,Near large red outcrop 2 mi. from Sorata down Rio Consata,Near large red outcrop 2 miles from Sorata down Rio Consata,Bromeliad habitat. Abundant on rock faces of exposed cliffs,2630 m,15° 41' S. 68° 43' W.,1032221,Typed,no type status
https://fm-digital-assets.fieldmuseum.org/2537/899/C2077567F.jpg,C2077567F,Marko Lewis,M. Lewis,N/A,79-1232,22 March 1979,1979-03-22,N/A,Hedwigia ciliata (Hedw.) P. Beauv.,Hedwigia ciliata,E. De Luna,1992,N/A,Bolivia,La Paz,Larecaja,N/A,Near large red outcrop 2 mi. from Sorata down Rio Consata,Near large red outcrop 2 miles from Sorata down Rio Consata,Bromeliad-grass habitat on exposed cliffs,2630 m,15° 41' S 68° 43' W,C2077567F,Typed,no type status
https://fm-digital-assets.fieldmuseum.org/2537/903/C2077568F.jpg,C2077568F,Marko Lewis,M. Lewis,N/A,79-1114,6 March 1979,1979-03-06,N/A,Hedwigia ciliata (Hedw.) P. Beauv.,Hedwigia ciliata,E. De Luna,1992,N/A,Bolivia,La Paz,Saavedra,N/A,"On mountain side directly N. of river, beneath Niño Karine, NNW of Chuma","On mountain side directly North of river, beneath Niño Karine, North-Northwest of Chuma",Humid cliffs and steep slopes,3320 m.,"15° 08' S., 69° 03' W.",C2077568F,Typed,no type status
https://fm-digital-assets.fieldmuseum.org/2537/908/C2077569F.jpg,C2077569F,F. J. Hermann,F. J. Hermann,N/A,25152,"December 27, 1972",1972-12-27,N/A,Hedwigia ciliata (Hedw.) Beauv.,Hedwigia ciliata,E. De Luna,1992,N/A,Bolivia,Cochabamba,N/A,N/A,"On conglomerate boulder on shrubby NW slope of Mt. Tunari, near Liriuni Aguas Termales Hotel, alt. ca. 2700 m., 28 km. NW","On conglomerate boulder on shrubby northwest slope of Mount Tunari, near Liriuni Aguas Termales Hotel, 28 kilometers northwest",On conglomerate boulder on shrubby northwest slope,alt. ca. 2700 m.,N/A,1040675,Typed,no type status
https://fm-digital-assets.fieldmuseum.org/2537/555/C2077570F.jpg,C2077570F,Ynes Mexia,Y. Mexia,N/A,6204,"Dec. 2, 1931",1931-12-02,N/A,Pilotrichum subchlorophyllosum C. M.,Pilotrichum subchlorophyllosum,E. Bartram,N/A,N/A,Peru,Loreto,N/A,N/A,Above Pongo de Manseriche,Above Pongo de Manseriche,Streamlet near mouth of Rio Santiago On fallen log,Alt. 400 m.,N/A,1057692,Typed,no type status
https://fm-digital-assets.fieldmuseum.org/2537/556/C2077571F.jpg,C2077571F,Ynes Mexia,Y. Mexia,N/A,6204,"Dec. 2, 1931",1931-12-02,N/A,Pilotrichum subchlorophyllum,Pilotrichum subchlorophyllum,Bartram,N/A,N/A,Peru,Loreto,N/A,N/A,Above Pongo de Manseriche Streamlet near mouth of Rio Santiago On fallen log,Above Pongo de Manseriche Streamlet near mouth of Rio Santiago,On fallen log,Alt. 400 m.,N/A,C2077571F,Typed,No type status
https://fm-digital-assets.fieldmuseum.org/2537/557/C2077572F.jpg,C2077572F,A. C. Smith,A. C. Smith,N/A,2748,"Dec. 15-24, 1937",1937-12-15,1937-12-24,Pilotricum flaccidum C. M.,Pilotricum flaccidum,E. B. Bartram,N/A,N/A,Guyana,N/A,N/A,N/A,Basin of Essequibo River near mouth of Onoro Creek lat. about 1°35' N.,Basin of Essequibo River near mouth of Onoro Creek,On decayed wood in swamp dense forest,N/A,lat. about 1°35' N.,1023751,Mix of Handwritten and Typed,no type status
https://fm-digital-assets.fieldmuseum.org/2537/558/C2077573F.jpg,C2077573F,J.Florschütz-de Waard & R.Zielman,J. Florschütz-de Waard,R. Zielman,5315,5 - 11 - 1981,1981-11-05,N/A,Pilosiom chlorophyllum (Hornsch.) C.Müll. c.fr.,Pilosiom chlorophyllum,R. Zielman,N/A,Cecropia,Suriname,Nickerie,N/A,N/A,area of Kabalebo Dam project distr. Nickerie line NW from road km 39.5 p. 5N 58W qu.SE,area of Kabalebo Dam project line NW from road km 39.5,Secondary wood with Cecropia (bospapaja) on rotting log,ALT. 0 - 50 m,5N 58W qu.SE,1073523,Typed,no type status
https://fm-digital-assets.fieldmuseum.org/2537/559/C2077574F.jpg,C2077574F,J. Florschütz-de Waard & R. Zijlman,J. Florschütz-de Waard,R. Zijlman,5254,5-11-1981,1981-11-05,N/A,Pilosium chlorophyllum (Hornsch.) C. Müll.,Pilosium chlorophyllum,R. Zijlman,N/A,N/A,Suriname,Nickerie,N/A,N/A,area of Kabalebo Dam project distr. Nickerie line NW from road km 39.5 p. 5N 50W qu. SE,area of Kabalebo Dam project line NW from road kilometer 39.5 point 5N 50W quadrant SE,Savanna forest on rotting log,Alt. 0 - 50 m.,N/A,1073529,Typed,no type status
https://fm-digital-assets.fieldmuseum.org/2537/560/C2077575F.jpg,C2077575F,J. Florschütz-de Waard & R. Zijlman,J. Florschütz-de Waard,R. Zijlman,5098,30-10-1981,1981-10-30,N/A,Pilosium chlorophyllum (Hornsch.) C. Müll.,Pilosium chlorophyllum,R. Zijlman,N/A,N/A,Suriname,Nickerie,N/A,N/A,area of Kabalebo Dam project distr. Nickerie line W from road 34 km p. 5N 58W qu. SE,area of Kabalebo Dam project line West from road 34 kilometers,Rainforest on rotting log,Alt. 0 - 50 m.,5N 58W,1073528,Typed,no type status
https://fm-digital-assets.fieldmuseum.org/2537/561/C2077576F.jpg,C2077576F,"J.C.Lindeman,A.A.A.Göts-van Rijn,M.J.Jansen-Jacobs & A.M.C.Hetterscheid-Hollants",J. C. Lindeman,A. A. A. Göts-van Rijn | M. J. Jansen-Jacobs | A. M. C. Hetterscheid-Hollants,243 A,3-IX-1980,1980-09-03,N/A,Pilotricum chlorophyllum (Hornsch.) C.Müll.,Pilotricum chlorophyllum,H. H. Zijlstra,N/A,N/A,Suriname,Nickerie,N/A,N/A,Area of Kabalebo Dam project distr. Nickerie Forest S of km 28.7,Area of Kabalebo Dam project Forest South of kilometer 28.7,Epiphyte on tree trunk,Alt.: 30 - 130 m.,5°09' N 57°30' W,C02077576F,Typed,no type status
https://fm-digital-assets.fieldmuseum.org/2537/562/C2077577F.jpg,C2077577F,J. Florschütz-de Waard and R. Zijlman 5141,J. Florschütz-de Waard,R. Zijlman,5141,31 October 1981,1981-10-31,N/A,Pilosium chlorophyllum (Hornsch.) C. Müll.,Pilosium chlorophyllum,R. Zijlman,N/A,Astrocaryum,Suriname,Nickerie,N/A,N/A,Kabalebo river area line W from road km 34,Kabalebo river area line W from road kilometer 34,On decaying log in marsh forest with Astrocaryum,alt. 0-50 m,5°N 58°W,1079833,Typed,no type status
https://fm-digital-assets.fieldmuseum.org/2537/563/C2077578F.jpg,C2077578F,J. and P.A. Florschütz,J. Florschütz,P. A. Florschütz,4690,18 December 1975,1975-12-18,N/A,PILOSTIUM CHLOROPHYLLUM (Hornsch.) C. Muell.,Pilostium chlorophyllum,R. Zielman | J. Florschütz-de Waard,N/A,N/A,Suriname,N/A,N/A,N/A,Brownsberg trail to Leo Val,Brownsberg trail to Leo Val,On rotting log in rainforest,alt. ca. 500 m.,N/A,C2077578F,Typed,no type status
https://fm-digital-assets.fieldmuseum.org/2537/564/C2077579F.jpg,C2077579F,H.Cornelissen & S.R.Gradstein C076,H. Cornelissen,S. R. Gradstein,C076,8 March 1977,1977-03-08,N/A,Pilosium chlorophyllum (Hornsch.) C. Müll.,Pilosium chlorophyllum,J. Florschütz-de Waard,N/A,N/A,Guyana,N/A,N/A,N/A,GUYANA Mabura Hill 180 km S of Georgetown,Mabura Hill 180 kilometers south of Georgetown,On rotting tree base in mixed rain forest,alt. 0-50 m,5°20'N 58°40'W,1091586,Typed,no type status
https://fm-digital-assets.fieldmuseum.org/2537/565/C2077580F.jpg,C2077580F,R. Spruce,R. Spruce,N/A,5321,N/A,0000-00-00,N/A,Streptophlœum chlorophyllum Hornsch.,Pilosium chlorophyllum,R. R. Ireland | W. R. Buck,1992,N/A,Brazil,Para,N/A,N/A,Fl. Amazon prope Para,[precise locality unknown],N/A,N/A,N/A,1078188,Mix of Handwritten and Typed,no type status
https://fm-digital-assets.fieldmuseum.org/2537/566/C2077581F.jpg,C2077581F,Richard Evans Schultes & Isidoro Cabrera,R. E. Schultes,I. Cabrera,7932,"Oct. 22, 1952",1952-10-22,N/A,Pilotrichum chlorophyllum (Hornsch.) Jaeg.,Pilotrichum chlorophyllum,H. A. Crum,1956,N/A,Colombia,Vaupés,N/A,N/A,Río Vaupés Mitu and vicinity Cerro Mitá,Cerro Mitá,On rotten log,N/A,Lat. 1° N Long. 70° 5' W,1055492,Mix of Handwritten and Typed,no type status
https://fm-digital-assets.fieldmuseum.org/2537/567/C2077582F.jpg,C2077582F,Richard Evans Schultes et Isidoro Cabrera,R. E. Schultes,I. Cabrera,14294,"October 4-6, 1951",1951-10-04,1951-10-06,Pilosiun chlorophyllum (Hornsch.) C. M.,Pilosiun chlorophyllum,H. A. Crum,1956,N/A,Colombia,Vaupés,N/A,N/A,"Rio Kuduyari (affluent of Rio Vaupés), Yapobodá, quartzite savannah","Rio Kuduyari, Yapobodá",quartzite savannah,N/A,N/A,1055491,Typed,no type status
https://fm-digital-assets.fieldmuseum.org/2537/568/C2077583F.jpg,C2077583F,RICHARD EVANS SCHULTES,R. E. Schultes,N/A,12309,June 1951,1951-06-00,N/A,PILOSIUM CHLOROPHYLLUM (HORNSCH.) C. M. in BROTH.,Pilosium chlorophyllum,D. Griffin III,June 1951,N/A,Colombia,Vaupés,N/A,N/A,Rio Apaporis. Soratama,Rio Apaporis. Soratama,On trunks,N/A,N/A,1055490,Mix of Handwritten and Typed,no type status
https://fm-digital-assets.fieldmuseum.org/2537/569/C2077584F.jpg,C2077584F,RICHARD EVANS SCHULTES,R. E. Schultes,N/A,11128,Dec. 1950,1950-12-00,N/A,Pilosium chlorophyllum (Hsch.) C. M. in Broth.,Pilosium chlorophyllum,D. Griffin III,N/A,N/A,Colombia,Guaviare,N/A,San Jose del Guaviare,San Jose del Guaviare,San Jose del Guaviare,N/A,N/A,N/A,C2077584F,Typed,no type status
https://fm-digital-assets.fieldmuseum.org/2537/570/C2077585F.jpg,C2077585F,Ynes Mexia,Y. Mexia,N/A,6014a,"Aug. 31, 1931",1931-08-31,N/A,Filosum chlorophyllum (Hsch.) C. M.,Filosum chlorophyllum,E. Bartram,N/A,N/A,Brazil,Pará,Acará,N/A,Thomé Assú; down Rio Acará 3 km,Thomé Assú; down Rio Acará 3 kilometers,On fallen log,Alt. 35 m.,N/A,C027586F,Typed,no type status
https://fm-digital-assets.fieldmuseum.org/2537/571/C2077586F.jpg,C2077586F,Ynes Mexia,Y. Mexia,N/A,5914,"July 16, 1931",1931-07-16,N/A,Pilosiun Chlorophyllosum (Hsch.) C. M.,Pilosiun chlorophyllosum,N/A,N/A,N/A,Brazil,Pará,Acará,N/A,Thomé Assú Japanese Colony,Thomé Assú Japanese Colony,On rotting log in woods Abundant,Alt. about 30 m.,N/A,870829,Typed,no type status
https://fm-digital-assets.fieldmuseum.org/2539/518/C2078862F.jpg,C2078862F,leg. Dana Griffin III Manuel López F.,D. Griffin,M. López,PV-1525,14 marzo 1985,1985-03-14,N/A,Brachythecium plumosum (Hedw.) BSG,Brachythecium plumosum,D. Griffin,N/A,N/A,Venezuela,Trujillo,N/A,N/A,páramo de Guirigay arriba del pueblo de Las Piedras Entre el río Buey y Páramo Blancos con Espeletia schultzii,Páramo de Guirigay above the town of Las Piedras between the Buey River and Páramo Blancos,Sobre roca húmeda lecho de riachuelo a sol,3300 m,N/A,1064449,Mix of Handwritten and Typed,no type status
https://fm-digital-assets.fieldmuseum.org/2539/519/C2078913F.jpg,C2078913F,P. Dusén 5872,P. Dusén,N/A,5872,22 February 1897,1897-02-22,N/A,Brachythecium albicans (Hedw.) Schimp.,Brachythecium albicans,W. R. Buck,N/A,N/A,Chile,Patagonia,N/A,N/A,Cerra Colorado,Cerra Colorado,N/A,N/A,N/A,B11749,Typed,no type status
https://fm-digital-assets.fieldmuseum.org/2539/520/C2078924F.jpg,C2078924F,Ynes Mexia,Y. Mexia,N/A,8001,"April 10, 1936",1936-04-10,N/A,Brachythecium sublosum (H. f. & W. Jlaeg.),Brachythecium austro-glareosum,K. D. McFarland,Sept 1989,Nothofagus,Chile,Magallanes,N/A,N/A,Last Hope Inlet; Peninsula Antonio Varas,Last Hope Inlet; Peninsula Antonio Varas,Openings in Nothofagus wood in moist earth,Alt. 25 m,N/A,1036758,Typed,no type status
https://fm-digital-assets.fieldmuseum.org/2539/521/C2078925F.jpg,C2078925F,Marko Lewis,M. Lewis,N/A,79-2108,25 May 1979,1979-05-25,N/A,Brachythecium cf. calliergonioides Broth. in Herz.,Brachythecium calliergonioides,R. Ochyra,1982,N/A,Bolivia,Oruro,Sajama,N/A,Río Junthuma Khuchu 2 mi. down river from Aguas termales de Río Junthuma Khuchu 4350 m,Río Junthuma Khuchu 2 miles down river from Aguas termales de Río Junthuma Khuchu,In warmish creek,4350 m,18° 07' S 69° 00' W,C2078925F,Mix of Handwritten and Typed,no type status
https://fm-digital-assets.fieldmuseum.org/2539/522/C2078926F.jpg,C2078926F,Marko Lewis,M. Lewis,N/A,79-2109,25 May 1979,1979-05-25,N/A,Brachythecium calliergonioides Broth. in Herz.,Brachythecium calliergonioides,R. Ochyra,1982,N/A,Bolivia,Oruro,Sajama,N/A,Rio Junthuma Khuchu 2 mi. down river from Aguas termales de Rio Junthuma Khuchu,Rio Junthuma Khuchu 2 miles down river from Aguas termales de Rio Junthuma Khuchu,In warmish creek,4350 m,18° 07' S. 69° 00' W.,C2078926F,Typed,no type status
https://fm-digital-assets.fieldmuseum.org/2539/523/C2078927F.jpg,C2078927F,Marko Lewis,M. Lewis,N/A,no79-2112,25 May 1979,1979-05-25,N/A,Brachythecium calliergonioides Broth. in Herz.,Brachythecium calliergonioides,R. Ochyra,1982,N/A,Bolivia,Oruro,Sajama,N/A,Rio Junthuma Khuchu 2 mi. down river from Aguas termales de Rio Junthuma Khuchu,Rio Junthuma Khuchu 2 miles down river from Aguas termales de Rio Junthuma Khuchu,In warmish creek,4350 m,18° 07' S. 69° 00' W.,C2079827F,Typed,no type status
https://fm-digital-assets.fieldmuseum.org/2539/524/C2078928F.jpg,C2078928F,Marko Lewis,M. Lewis,N/A,79-2115,25 May 1979,1979-05-25,N/A,Brachythecium calliergonioides Broth. in Herz.,Brachythecium calliergonioides,R. Ochyra,1982,N/A,Bolivia,Oruro,Sajama,N/A,Río Junthuma Khuchu 2 mi. down river from Aguas termales de Río Junthuma Khuchu,Río Junthuma Khuchu 2 miles down river from Aguas termales de Río Junthuma Khuchu,In warmish creek,4350 m,18° 07' S 69° 00' W,C2078928F,Typed,no type status
https://fm-digital-assets.fieldmuseum.org/2539/525/C2078929F.jpg,C2078929F,Marko Lewis,M. Lewis,N/A,79-2117,25 May 1979,1979-05-25,N/A,Brachythecium calliergonioides Broth. in Herz.,Brachythecium calliergonioides,R. Ochyra,1982,N/A,Bolivia,Oruro,Sajama,N/A,Río Junthuma Khuchu 2 mi. down river from Aguas termales de Río Junthuma Khuchu 4350 m 18° 07' S 69° 00' W In warmish creek,Río Junthuma Khuchu 2 miles down river from Aguas termales de Río Junthuma Khuchu,In warmish creek,4350 m,18° 07' S 69° 00' W,C2078629F,Typed,no type status
https://fm-digital-assets.fieldmuseum.org/2539/526/C2078930F.jpg,C2078930F,Marko Lewis,M. Lewis,N/A,79-2118,25 May 1979,1979-05-25,N/A,Brachythecium calliergonioides Broth. in Herz.,Brachythecium calliergonioides,R. Ochyra,1982,N/A,Bolivia,Oruro,Sajama,N/A,Rio Junthuma Khuchu 2 mi. down river from Aguas termales de Rio Junthuma Khuchu,Rio Junthuma Khuchu 2 miles down river from Aguas termales de Rio Junthuma Khuchu,In warmish creek,4350 m,18° 07' S 69° 00' W,C0207830F,Mix of Handwritten and Typed,no type status
https://fm-digital-assets.fieldmuseum.org/2539/527/C2078931F.jpg,C2078931F,Marko Lewis,M. Lewis,N/A,79-2107,25 May 1979,1979-05-25,N/A,Brachythecium calliergonioides Broth. in Herz.,Brachythecium calliergonioides,R. Ochyra,1982,N/A,Bolivia,Oruro,Sajama,N/A,Río Junthuma Khuchu 2 mi. down river from Aguas termales de Río Junthuma Khuchu,Río Junthuma Khuchu 2 miles down river from Aguas termales de Río Junthuma Khuchu,In warmish creek,4350 m,18° 07' S 69° 00' W,C2078931F,Typed,no type status
https://fm-digital-assets.fieldmuseum.org/2539/529/C2078932F.jpg,C2078932F,Marko Lewis,M. Lewis,N/A,79-2119,25 May 1979,1979-05-25,N/A,Brachythecium calliergonoides Broth. in Herz.,Brachythecium calliergonoides,R. Ochyra,1982,N/A,Bolivia,Oruro,Sajama,N/A,Rio Junthuma Khuchu 2 mi. down river from Aguas termales de Rio Junthuma Khuchu,Rio Junthuma Khuchu 2 miles down river from Aguas termales de Rio Junthuma Khuchu,In warmish creek,4350 m.,18° 07' S. 69° 00' W.,1049412,Typed,no type status
https://fm-digital-assets.fieldmuseum.org/2539/889/C2079350F.jpg,C2079350F,Ynes Mexia,Y. Mexia,N/A,6149,"Nov. 23, 1931",1931-11-23,N/A,Vesicularia amphibola (Spr.) Broth.,Vesicularia amphibola,E. B. Bartram,N/A,N/A,Peru,Loreto,N/A,N/A,Above Pongo de Manseriche Left bank of Rio Santiago,Above Pongo de Manseriche Left bank of Rio Santiago,On stone in overflow forest,Alt. 200 m.,N/A,873368,Typed,no type status
https://fm-digital-assets.fieldmuseum.org/2539/890/C2079351F.jpg,C2079351F,Yves Mexia No. 6160-a,Y. Mexia,N/A,6160-a,"Nov. 25, 1931",1931-11-25,N/A,Vesicularia amphibola (Spr.) Broth.,Vesicularia amphibola,M. Bartram,N/A,N/A,Peru,Loreto,N/A,N/A,Above Pongo de Manseriche Right bank of Rio Santiago,Above Pongo de Manseriche Right bank of Rio Santiago,Dense forest on log,Alt. 200 m.,N/A,873367,Typed,no type status
https://fm-digital-assets.fieldmuseum.org/2539/892/C2079352F.jpg,C2079352F,Ynes Mexia,Y. Mexia,N/A,6217-a,"Dec. 4, 1931",1931-12-04,N/A,Vesicularia amphibola (Spr.) Broth.,Vesicularia amphibola,N/A,N/A,N/A,Peru,Loreto,N/A,N/A,Above Pongo de Manseriche,Streamlet on right bank of Rio Santiago,On rocks wet by spray,Alt. 250 m.,N/A,870879,Typed,no type status
https://fm-digital-assets.fieldmuseum.org/2539/893/C2079353F.jpg,C2079353F,Ynes Mexia,Y. Mexia,N/A,6259-a,"Dec. 12, 1931",1931-12-12,N/A,Vesicularia amphibola (Spr.) Broth.,Vesicularia amphibola,E. Extram,N/A,N/A,Peru,Loreto,N/A,N/A,Above Pongo de Manseriche,Above Pongo de Manseriche,Creek Carapias log in forest,Alt. 215 m.,N/A,870867,Typed,no type status
https://fm-digital-assets.fieldmuseum.org/2539/894/C2079354F.jpg,C2079354F,Ynes Mexia,Y. Mexia,N/A,6354-a,"Jan. 3, 1932",1932-01-03,N/A,Vesicularia amphibola (Spr.) Broth.,Vesicularia amphibola,E. Bartram,N/A,N/A,Peru,Loreto,N/A,N/A,Above Pongo de Manseriche,Above Pongo de Manseriche,On earth collected on inclined tree trunk,Alt. 215 m.,N/A,873369,Typed,no type status
https://fm-digital-assets.fieldmuseum.org/2539/895/C2079355F.jpg,C2079355F,Ynes Mexia,Y. Mexia,N/A,6375a,"Jan. 3, 1932",1932-01-03,N/A,Vesicularia amphibola (Spr.) Broth.,Vesicularia amphibola,N/A,det. Bartram,Taxithelium planum,Peru,Loreto,N/A,N/A,Above Pongo de Manseriche Creek Inche,Above Pongo de Manseriche Creek Inche,On rotten log Sterile,Alt. 215 m.,N/A,1039121,Typed,no type status
https://fm-digital-assets.fieldmuseum.org/2539/896/C2079356F.jpg,C2079356F,Ynes Mexia,Y. Mexia,N/A,6375-m,"Jan. 3, 1935",1935-01-03,N/A,Vestiazelia amphibia (Spr.) Broth.,Vestiazelia amphibia,J. Bartram,N/A,Taxithelium planum,Peru,Loreto,N/A,N/A,Above Pongo de Manseriche,Above Pongo de Manseriche,Creek Incho On rotten log Sterile,Alt. 215 m,N/A,870880,Typed,no type status
https://fm-digital-assets.fieldmuseum.org/2539/897/C2079357F.jpg,C2079357F,Ynes Mexia,Y. Mexia,N/A,6377,"Jan. 3, 1932",1932-01-03,N/A,Vesicularia amphibola (Spr.) Broth.,Vesicularia amphibola,E. Bartram,N/A,N/A,Peru,Loreto,N/A,N/A,Above Pongo de Manseriche. Creek Inche.,Above Pongo de Manseriche. Creek Inche.,On rotten log.,Alt. 215 m.,N/A,870873,Typed,no type status
https://fm-digital-assets.fieldmuseum.org/2539/898/C2079358F.jpg,C2079358F,Ynes Mexia,Y. Mexia,N/A,8070,"May 14, 1936",1936-05-14,N/A,Vesicularia amphibia (Spr.) Broth. in mixture,Vesicularia amphibia,F. Bartram,N/A,N/A,Peru,Cuzco,La Convencion,N/A,upper valley of the Sambray; affluent of the Vilcanota,upper valley of the Sambray; affluent of the Vilcanota,on rotten logs in virgin forest,Alt. 1800 m,N/A,106818,Typed,no type status
https://fm-digital-assets.fieldmuseum.org/2539/900/C2079359F.jpg,C2079359F,Ynes Mexia,Y. Mexia,N/A,8070,"May 14, 1936",1936-05-14,N/A,Vesicularia amphibola (Spr.) Broth. in mixture,Vesicularia amphibola,E. Bartram,N/A,N/A,Peru,Cuzco,La Convencion,N/A,upper valley of the Sambray; affluent of the Vilcanota; on rotten logs in virgin forest,upper valley of the Sambray; affluent of the Vilcanota,on rotten logs in virgin forest,Alt. 1800 m.,N/A,1039122,Typed,no type status
https://fm-digital-assets.fieldmuseum.org/2539/901/C2079360F.jpg,C2079360F,L. Reitz,L. Reitz,N/A,2222,2.9.50,1950-09-02,N/A,Vesicularia vesicularis (Schwagr.) Broth.,Vesicularia vesicularis,R. Reimers,1954,N/A,Brazil,Santa Catarina,N/A,N/A,Asambuja Brusque,Asambuja Brusque,Epiphyte da mata virgem,Alt. 50 m,N/A,5468,Typed,no type status
https://fm-digital-assets.fieldmuseum.org/2539/902/C2079361F.jpg,C2079361F,F. J. Hermann,F. J. Hermann,N/A,25019,"December 19, 1972",1972-12-19,N/A,Vesicularia vesicularis (Schwaegr.) Broth.,Vesicularia vesicularis,H. Robinson,N/A,N/A,Colombia,Santander,N/A,N/A,On base of tree trunk Paraguitas 1/4 mile NW,Paraguitas 1/4 mile northwest,On base of tree trunk,alt. ca. 4000 ft.,N/A,4039401,Typed,no type status
https://fm-digital-assets.fieldmuseum.org/2539/903/C2079362F.jpg,C2079362F,RICHARD EVANS SCHULTES,R. E. Schultes,N/A,11107,"Dec., 1950",1950-12-00,N/A,Vesicularia vesicularis (Schwgr.) Broth.,Vesicularia vesicularis,D. Griffin,N/A,N/A,Colombia,Meta,N/A,Villavicencio,alrededores de Villavicencio,[precise locality unknown],N/A,Alt 500 m.,N/A,N/A,Typed,no type status
https://fm-digital-assets.fieldmuseum.org/2542/815/C2079715F.jpg,C2079715F,"J.P. Frahm, P. Geissler, S.R. Gradstein, G. Philippi, W. Schultze-Motel",J. P. Frahm,P. Geissler | S. R. Gradstein | G. Philippi | W. Schultze-Motel,875,4.9.1982,1982-09-04,N/A,Entodon jamesonii (Tayl.) Mitt.,Entodon jamesonii,W. Schultze-Motel,N/A,N/A,Peru,Amazonas,Chachapoyas,N/A,Straße Chachapoyas-Cajamarca oberhalb Leimebamba km 417 s-exponierter Hang hochandiner Regenwald auf Kalkstein,Straße Chachapoyas-Cajamarca above Leimebamba kilometer 417,South-exposed slope high Andean rainforest on limestone,2800 msm,N/A,1076822 | 104130,Typed,no type status
https://fm-digital-assets.fieldmuseum.org/2542/817/C2079716F.jpg,C2079716F,PAUL C. HUTCHISON | J. KENNETH WRIGHT,P. C. Hutchison,J. K. Wright,1806,1 April 1964,1964-04-01,N/A,"Entodon jamesonii (Tayl.) Mitt. dupl. det. H. Robinson, 1966",Entodon jamesonii,H. Robinson,1966,N/A,Peru,Amazonas,Chachapoyas,N/A,"Cerros Calla Calla, east side, 5 km. above Leimebamba on the road to Balsas, at San Miguel (no buildings at this locality)","Cerros Calla Calla, east side, 5 kilometers above Leimebamba on the road to Balsas, at San Miguel (no buildings at this locality)",N/A,Altitude 2400 m,N/A,1012131,Typed,no type status
https://fm-digital-assets.fieldmuseum.org/2542/820/C2079717F.jpg,C2079717F,leg. Dana Griffin III,D. Griffin,N/A,PV-966,20 Feb. 1985,1985-02-20,N/A,Entodon jamesoni (tayl.) Broth.,Entodon jamesoni,D. Griffin,N/A,N/A,Venezuela,Merida,N/A,N/A,páramo de Los Granates finca de Los Granates a lo largo del río de Los Granates y en las lomas cercanas,Páramo de Los Granates finca de Los Granates along the río de Los Granates and in the nearby hills,Sobre roca seca a sombra,3000-3100 m,N/A,1064416,Typed,no type status
https://fm-digital-assets.fieldmuseum.org/2542/822/C2079718F.jpg,C2079718F,Ynes Mexia,Y. Mexia,N/A,5687,"April 21, 1931",1931-04-21,N/A,Entodon Lindbergii Ipe.,Entodon lindbergii,E. Bartram,N/A,N/A,Brazil,Minas Gerais,N/A,Corinto,Fazenda do Diamante Campo Tiririca,Fazenda do Diamante Campo Tiririca,Base of living tree in shade,Alt. 500 m.,N/A,870818,Typed,no type status
https://fm-digital-assets.fieldmuseum.org/2542/825/C2079719F.jpg,C2079719F,R. Spruce,R. Spruce,N/A,1023,s.d.,0000-00-00,N/A,Entodon longisetus Hook.,Entodon longisetus,W. Mitten,s.d.,N/A,Ecuador,N/A,N/A,Baños,Andes Ecuatorices Baños,Baños,N/A,N/A,N/A,1078203,Mix of Handwritten and Typed,no type status
https://fm-digital-assets.fieldmuseum.org/2542/827/C2079720F.jpg,C2079720F,Marko Lewis,M. Lewis,N/A,79-590,8 February 1979,1979-02-08,N/A,Entodon cf. nano-climacium C.M. (= E. micans Herz.),Entodon nano-climacium,W. Buck,1980,N/A,Bolivia,Tarija,Méndez,Cercado,Canyon 5 mi. SW of Tablada SW of Tarija,Canyon 5 miles southwest of Tablada southwest of Tarija,Bank of creek,2160 m.,21° 36' S 64° 48' W,1078788,Typed,no type status
https://fm-digital-assets.fieldmuseum.org/2542/829/C2079721F.jpg,C2079721F,Marko Lewis,M. Lewis,N/A,79-1220,22 March 1979,1979-03-22,N/A,Entodon nano-climacium C.M. (= E. micans Herz.),Entodon nano-climacium,W. Buck,1980,N/A,Bolivia,La Paz,Larecaja,N/A,Near large red outcrop 2 mi. from Sorata down Río Consata,Near large red outcrop 2 miles from Sorata down Río Consata,Very shady ground along creek in humid shrubs,2600 m.,"15° 41' S., 68° 43' W.",C0207921F,Typed,no type status
https://fm-digital-assets.fieldmuseum.org/2542/831/C2079722F.jpg,C2079722F,COLLECTED BY HARRY WARD FOOTE,H. W. Foote,N/A,s.n.,Sept. 3,1911-09-03,N/A,Entosthodon platyphylloides C. Muell.,Entosthodon platyphylloides,unsure and check,N/A,N/A,Peru,N/A,N/A,San Miguel,On rocks above San Miguel 10000 ft,On rocks above San Miguel,N/A,10000 ft,N/A,N/A,Mix of Handwritten and Typed,no type status
https://fm-digital-assets.fieldmuseum.org/2542/835/C2079723F.jpg,C2079723F,Marko Lewis,M. Lewis,N/A,79-1346,1 April 1979,1979-04-01,N/A,cf. Entodon polycarpus,Entodon polycarpus,W. Buck,1980,N/A,Bolivia,La Paz,Larecaja,N/A,Between Abra Huallata and waterfall at Millipaya,Between Abra Huallata and waterfall at Millipaya,Waterfall ravine highest extension of shrubs,3780 m,15° 51' S 68° 39' W,104636,Typed,no type status
https://fm-digital-assets.fieldmuseum.org/2542/837/C2079595F.jpg,C2079595F,H. Roivainen,H. Roivainen,N/A,2095,25.1.1970,1970-01-25,N/A,Isopterygium pulchellum (Hedw.) Jaeg.,Isopterygium pulchellum,R. Ochyra,1996,Nothofagus pumilio,Argentina,Tierra del Fuego,N/A,Ushuaia,australis Ushuaia Arroyo Grande (54°47'S 68°17'W) en fisuras de roca y en raices humoso-arcillosos de Nothofagus pumilio en orilla de la cascada 150 m s.m. bastante copiosamente,Arroyo Grande in fissures of rock and in humus-clay roots of Nothofagus pumilio on the edge of the waterfall 150 meters,en fisuras de roca y en raices humoso-arcillosos de Nothofagus pumilio en orilla de la cascada,150 m s.m.,54°47'S 68°17'W,1132417,Typed,no type status
https://fm-digital-assets.fieldmuseum.org/2542/839/C2079596F.jpg,C2079596F,H. Roivainen,H. Roivainen,N/A,1352,24.12.1969,1969-12-24,N/A,Isopterygium pulchellum (Brid.) Jaeg.,Isopterygium pulchellum,R. Ochyra,1996,N/A,Argentina,Tierra del Fuego,N/A,Ushuaia,Valle del río Pipo,Valle del rio Pipo,suelo humoso húmedo en el pendiente del río bastante copiosamente,300 m s.m.,54°46'S 68°20'W,C2079596F,Typed,no type status
https://fm-digital-assets.fieldmuseum.org/2542/842/C2079597F.jpg,C2079597F,E. P. Killip & A. C. Smith,E. P. Killip,A. C. Smith,14871,"November 29, 1926",1926-11-29,N/A,Isopterygium stigmocarpum (C. M.) Par.,Isopterygium tenerum,R. R. Ireland,1988,N/A,Colombia,Santander,N/A,N/A,"Dept. Santander, between Puerto Wilches and Puerto Santos",Between Puerto Wilches and Puerto Santos,N/A,alt. 110-115 m.,N/A,104009,Typed,no type status
https://fm-digital-assets.fieldmuseum.org/2542/844/C2079598F.jpg,C2079598F,RICHARD EVANS SCHULTES,R. E. Schultes,N/A,1110,"Dec., 1950",1950-12-00,N/A,Isopterygium tenerum (Sw.) Mitt.,Isopterygium tenerum,D. Griffin III,N/A,N/A,Colombia,Meta,N/A,Villavicencio,alrededores de Villavicencio,[precise locality unknown],N/A,Alt. 500 m.,N/A,1055473,Typed,no type status
https://fm-digital-assets.fieldmuseum.org/2542/846/C2079599F.jpg,C2079599F,D. C. Geijskes,D. C. Geijskes,N/A,s.n.,29 - 9 - 1952,1952-09-29,N/A,Isopterygium tenerum (Sw.) Mitt.,Isopterygium tenerum,H. R. Zielman,N/A,N/A,Suriname,N/A,N/A,N/A,Juroka River Amima falls,Juroka River Amima falls,Rainforest On roots and rocks on bank of river,N/A,N/A,1073518,Typed,no type status
https://fm-digital-assets.fieldmuseum.org/2542/848/C2079600F.jpg,C2079600F,Ynes Mexia,Y. Mexia,N/A,4842,July 6 1930,1930-07-06,N/A,Isopterygium brachyneuron (C M) Mitt ex p p Bartram,Isopterygium tenerum,R. R. Ireland,1988,N/A,Brazil,Minas Gerais,N/A,Vicosa,Agricultural College land Horticultural Hill Out over woods near base,Agricultural College land Horticultural Hill Out over woods near base,On rotting log Abundant,Alt 670 m,N/A,1039979,Typed,no type status
https://fm-digital-assets.fieldmuseum.org/2542/851/C2079601F.jpg,C2079601F,Ynes Mexia,Y. Mexia,N/A,4888,"July 21, 1930",1930-07-21,N/A,Isopterygium laxum (Hpe.) Broth.,Isopterygium tenerum,Bertram,N/A,N/A,Brazil,Minas Gerais,N/A,N/A,Vicosa Agricultural College lands. Corriga Ribero.,Vicosa Agricultural College lands. Corriga Ribero.,Shady streambank. On rotten wood.,Alt. 675 m.,N/A,873365,Typed,no type status
https://fm-digital-assets.fieldmuseum.org/2542/853/C2079602F.jpg,C2079602F,Ynes Mexia,Y. Mexia,N/A,5386,"Dec. 6, 1930",1930-12-06,N/A,Isopterygium brachypus (C. Mull.) Mitt.,Isopterygium tenerum,R. R. Ireland,1988,N/A,Brazil,Minas Gerais,N/A,Viçosa,Road to São Miguel About km 4.8,Road to São Miguel About 4.8 kilometers,Dense forest On rotten log In fruit,Alt. 710 m.,N/A,870841,Typed,no type status
https://fm-digital-assets.fieldmuseum.org/2542/855/C2079603F.jpg,C2079603F,Ynes Mexia,Y. Mexia,N/A,5441,"Dec. 23, 1930",1930-12-23,N/A,Isopterygium laxum (Hpe.) Broth.,Isopterygium tenerum,N. L. Dartram,N/A,N/A,Brazil,Minas Gerais,N/A,N/A,Vicosa Agricultural College lands Base of Horticultural Hill,Vicosa Agricultural College lands Base of Horticultural Hill,On rotting logs in woods Abundant,Alt. 670 m.,N/A,870823,Typed,no type status
https://fm-digital-assets.fieldmuseum.org/2542/857/C2079604F.jpg,C2079604F,H S Irwin R M Harley G L Smith,H. S. Irwin,R. M. Harley | G. L. Smith,31332,2 March 1971,1971-03-02,N/A,Isopterygium tenerum (Sw.) Mitt.,Isopterygium tenerum,R. R. Ireland,1988,Coccoloba sp.,Brazil,Bahia,N/A,N/A,Valley of the Rio das Ondas ca. 10km W. of Barreiras,Valley of the Rio das Ondas approximately 10 kilometers west of Barreiras,On the bark and exposed roots of Coccoloba sp. and on adjacent soil at river bank Cut-over gallery forest and adjacent cerrado,ca. 500m,N/A,1059328,Typed,no type status
https://fm-digital-assets.fieldmuseum.org/2542/863/C2079606F.jpg,C2079606F,Ynes Mexia,Y. Mexia,N/A,4884,"July 21, 1929",1929-07-21,N/A,Isopterygium tenerum (Sw.) Mitt.,Isopterygium tenerum,E. Bartram,N/A,N/A,Brazil,Minas Gerais,N/A,N/A,Vicosa Agricultural College lands. Corrego Ribeiro,Vicosa Agricultural College lands. Corrego Ribeiro,Shady streambank on rotten log. Abundant,Alt. 675 m,N/A,870845,Typed,no type status
https://fm-digital-assets.fieldmuseum.org/2542/865/C2079607F.jpg,C2079607F,Ynes Mexia,Y. Mexia,N/A,4698,"May 14, 1930",1930-05-14,N/A,Isopterygium curvicollum (C. M.) Mitt. ex p.,Isopterygium tenerum,E. Bartram,N/A,N/A,Brazil,Minas Gerais,N/A,Viçosa,Fazenda de Cresiuma,Fazenda de Cresiuma,Wood on slope On rotten log,Alt. 700 m.,N/A,870839,Typed,no type status
https://fm-digital-assets.fieldmuseum.org/2542/868/C2079608F.jpg,C2079608F,Ynes Mexia,Y. Mexia,N/A,4884,"July 21, 1930",1930-07-21,N/A,Isopterygium curvicollum (C. M.) Mitt.,Isopterygium tenerum,N/A,N/A,N/A,Brazil,Minas Gerais,N/A,N/A,Viçosa Agricultural College lands Corriga Riberro,Viçosa Agricultural College lands Corriga Riberro,Shady streambank on rotten log,Alt. 675 m.,N/A,1039977,Typed,no type status
https://fm-digital-assets.fieldmuseum.org/2542/870/C2079609F.jpg,C2079609F,Ynes Mexia,Y. Mexia,N/A,4545,"March 31, 1930",1930-03-31,N/A,Isopterygium curvifolium (C. M.) Mitt.,Isopterygium tenerum,E. B. Bartram | R. R. Ireland,1988,N/A,Brazil,Minas Gerais,N/A,Viçosa,"Road to São Miguel Near stream ""Turca"" Cut over woods on slope On rotting tree trunk",Road to São Miguel Near stream Turca,Cut over woods on slope On rotting tree trunk,Alt. 710 m.,N/A,1039978,Typed,no type status
https://fm-digital-assets.fieldmuseum.org/2542/875/C2079611F.jpg,C2079611F,leg. V. Schiffner,V. Schiffner,N/A,2898,m. Jul. fr.,00-07-00,N/A,Isopterygium aurantiacum (C. M.) Broth.,Isopterygium tenerum,V. F. Brotherus | R. R. Ireland,1988,N/A,Brazil,Sao Paulo,N/A,N/A,prope urbem Cerqueira-Cesar in palude c. 600 m s. m.,near the city Cerqueira Cesar in marsh,in palude,c. 600 m s. m.,N/A,1012176,Mix of Handwritten and Typed,no type status
https://fm-digital-assets.fieldmuseum.org/2542/877/C2079856F.jpg,C2079856F,Ynes Mexia,Y. Mexia,N/A,4841,"July 6, 1930",1930-07-06,N/A,Isopterygium brachyneuron (C. Muell.) Mitt. ex. Paris,Isopterygium tenerum,E. Bartram,N/A,N/A,Brazil,Minas Gerais,N/A,N/A,Vicosa Agricultural College lands,Vicosa Agricultural College lands,Cut over woods near base On rotting log Abundant,Alt. 670 m,N/A,870887,Typed,no type status
https://fm-digital-assets.fieldmuseum.org/2542/879/C2079858F.jpg,C2079858F,R. S. Williams,R. S. Williams,N/A,2095,"Nov. 29, 1901",1901-11-29,N/A,Isopterygium tenerum (Sw.) Mitt.,Isopterygium tenerum,R. R. Ireland,1988,N/A,Bolivia,N/A,N/A,N/A,"San Buena Ventura, 190 meters, on rock",San Buena Ventura,on rock,190 meters,N/A,1039993,Mix of Handwritten and Typed,no type status
https://fm-digital-assets.fieldmuseum.org/2542/881/C2079859F.jpg,C2079859F,Collected by R. S. Williams 1901-1902,R. S. Williams,N/A,2038,1901-1902,1901-00-00,1902-00-00,Isopterygium tenerum (Sw.) Mitt. Tumucasa,Isopterygium tenerum,R. S. Williams,23 Jan 1902,N/A,Bolivia,N/A,N/A,N/A,Tumucasa,Tumucasa,N/A,N/A,N/A,1017412,Mix of Handwritten and Typed,no type status
https://fm-digital-assets.fieldmuseum.org/2550/919/C2010970F.jpg,C2010970F,leg. Hagen,I. Hagen,N/A,s.n.,27/7 1907,1907-07-27,N/A,Pycnolium rugosum (R) var. elimbat (Welw.),Pycnolium rugosum,unsure and check,Dec 1951,N/A,Norway,Nordland,Vefsn,N/A,Gpbl. Vælfjeld,Gpbl. Vælfjeld,N/A,altit. mtr. 700,N/A,C0201099F,Mix of Handwritten and Typed,no type status
https://fm-digital-assets.fieldmuseum.org/2550/921/C2010972F.jpg,C2010972F,N/A,N/A,N/A,s.n.,s.d.,0000-00-00,N/A,Pogonatum urnigerum Brid,Pogonatum urnigerum,N/A,N/A,N/A,England,N/A,N/A,N/A,England,[precise locality unknown],N/A,N/A,N/A,C2010972F,Mix of Handwritten and Typed,no type status
https://fm-digital-assets.fieldmuseum.org/2550/925/C2000534F.jpg,C2000534F,N/A,N/A,N/A,s.n.,1878,1878-00-00,N/A,Pogonatum urnigerum,Pogonatum urnigerum,N/A,N/A,N/A,France,N/A,N/A,N/A,Gorge de Jeret,Gorge de Jeret,N/A,1500,N/A,N/A,Mix of Handwritten and Typed,no type status
https://fm-digital-assets.fieldmuseum.org/2550/927/C2000536F.jpg,C2000536F,N/A,N/A,N/A,s.n.,N/A,0000-00-00,N/A,Pogonatum urnigerum,Pogonatum urnigerum,N/A,N/A,N/A,England,Sussex,N/A,N/A,Sussex England,[precise locality unknown],N/A,N/A,N/A,1096014,Typed,no type status
https://fm-digital-assets.fieldmuseum.org/2550/929/C2000538F.jpg,C2000538F,W. W. Calkins,W. W. Calkins,N/A,s.n.,N/A,0000-00-00,N/A,Pogonatum urnigerum,Pogonatum urnigerum,N/A,N/A,N/A,United States,Illinois,Cook,Chicago,N/A,[precise locality unknown],N/A,N/A,N/A,1182972,Mix of Handwritten and Typed,no type status
https://fm-digital-assets.fieldmuseum.org/2550/933/C2000542F.jpg,C2000542F,leg. Jeanpert,E. Jeanpert,N/A,s.n.,23/10/94,1894-10-23,N/A,Pogonatum urnigerum,Pogonatum urnigerum,N/A,N/A,N/A,France,N/A,N/A,N/A,Villers le Sec,Villers le Sec,"rock de lierre, moissons",N/A,N/A,1058477,Handwritten,no type status
https://fm-digital-assets.fieldmuseum.org/2550/935/C2000932F.jpg,C2000932F,C. Müller Frib.,C. Müller,N/A,476,Sept. 1905,1905-09-00,N/A,Pogonatum urnigerum (L.) Pal. Beauv. e. fr.,Pogonatum urnigerum,E. Bauer,Nov. 10. 1909,N/A,Germany,Baden-Württemberg,N/A,N/A,auf Erde in Felstriemen zwischen Rinken und Seebrick am Feldberg,[precise locality unknown],auf Erde in Felstriemen,etwa 1250 m s. m.,N/A,1194391,Mix of Handwritten and Typed,no type status
https://fm-digital-assets.fieldmuseum.org/2550/937/C2000934F.jpg,C2000934F,leg. Zd. Pilous,Z. Pilous,N/A,s.n.,V. 1946,1946-05-00,N/A,Pogonatum urnigerum P. B.,Pogonatum urnigerum,N/A,N/A,N/A,Czech Republic,Bohemia,Krkonoše,N/A,Montes Krkonoše In declivis graminosis silvaticis prope pagum Hořejí Vrchlabí ca 580 m,Montes Krkonoše near the village Hořejí Vrchlabí,In declivis graminosis silvaticis,ca 580 m,N/A,1270015,Typed,no type status
https://fm-digital-assets.fieldmuseum.org/2550/939/C2000936F.jpg,C2000936F,Collected in 1843 by James Thompson,J. Thompson,N/A,s.n.,1843,1843-00-00,N/A,Pogonatum urnigerum,Pogonatum urnigerum,N/A,N/A,N/A,Scotland,N/A,N/A,N/A,N/A,[precise locality unknown],N/A,N/A,N/A,1230979,Mix of Handwritten and Typed,no type status
https://fm-digital-assets.fieldmuseum.org/2550/941/C2000938F.jpg,C2000938F,leg Philippe,Philippe,N/A,s.n.,N/A,0000-00-00,N/A,Hypnum vernigerum,Hypnum vernigerum,N/A,N/A,N/A,Costa Rica,N/A,N/A,N/A,Costa de Ricas,Costa de Ricas,N/A,N/A,N/A,1058446,Handwritten,no type status
https://fm-digital-assets.fieldmuseum.org/2550/943/C2000940F.jpg,C2000940F,N/A,N/A,N/A,s.n.,N/A,0000-00-00,N/A,Pogonatum urnigerum Bruch,Pogonatum urnigerum,N/A,N/A,N/A,Germany,N/A,N/A,N/A,Germany,[precise locality unknown],N/A,N/A,N/A,1159295,Handwritten,no type status
https://fm-digital-assets.fieldmuseum.org/2550/946/C2000943F.jpg,C2000943F,C Jensen,C. Jensen,N/A,s.n.,25/10 1901,1901-10-25,N/A,Pogonatum urnigerum (Hedw.) P. B.,Pogonatum urnigerum,C. Jensen,N/A,N/A,Denmark,Sjælland,N/A,N/A,Magistratskoven by Hvalsø in a gravel-pit,Magistratskoven by Hvalsø in a gravel pit,in a gravel pit,N/A,N/A,C200004345,Typed,no type status
https://fm-digital-assets.fieldmuseum.org/2550/948/C2000945F.jpg,C2000945F,N/A,N/A,N/A,s.n.,15 Octobre 1913,1913-10-15,N/A,Syntrichia norvegica,Syntrichia norvegica,N/A,N/A,N/A,France,N/A,N/A,N/A,Environs de la Ville de Vittel,Vittel,N/A,N/A,N/A,1058475,Mix of Handwritten and Typed,no type status
https://fm-digital-assets.fieldmuseum.org/2550/950/C2000947F.jpg,C2000947F,Rostan,N/A,N/A,1976,N/A,0000-00-00,N/A,Andreaeum crassinervum Duby,Andreaeum crassinervum,N/A,N/A,N/A,France,N/A,N/A,N/A,Briancon,[precise locality unknown],N/A,N/A,N/A,1058481,Handwritten,no type status
https://fm-digital-assets.fieldmuseum.org/2550/952/C2000949F.jpg,C2000949F,ex herb. George E. Hunt,G. E. Hunt,N/A,s.n.,s.d.,0000-00-00,N/A,Sphagnum subsecundum,Sphagnum subsecundum,unsure and check,unsure and check,N/A,Scotland,N/A,N/A,N/A,Bield,Bield,N/A,N/A,N/A,1182976,Mix of Handwritten and Typed,no type status
https://fm-digital-assets.fieldmuseum.org/2550/954/C2010614F.jpg,C2010614F,Leg. M. Conrad,M. Conrad,N/A,76.1.8693,Le 18.07.1976,1976-07-18,N/A,"Pogonatum urnigerum J. Beauv., Schimp.",Pogonatum urnigerum,M. Conrad,N/A,Polytrichum urnigerum,Switzerland,Valais,Val d'Hérens,La Forclaz,Sur talus éboulis alt. ca. 1750 m,Sur talus éboulis,N/A,alt. ca. 1750 m,N/A,1050871,Mix of Handwritten and Typed,no type status
https://fm-digital-assets.fieldmuseum.org/2550/956/C2010616F.jpg,C2010616F,M. Onraedt,M. Onraedt,N/A,70.5.1880,Le 29.07.1976,1976-07-29,N/A,Pogonatum urnigerum P. Beauv. (Schimp.),Pogonatum urnigerum,J. Lewin,N/A,N/A,Switzerland,Valais,N/A,N/A,Cote du Palais Val d'Herens entre St. Martin et Mase,Cote du Palais Val d'Herens entre St. Martin et Mase,talus forestier,alt. 1600m,N/A,1050867,Mix of Handwritten and Typed,no type status
https://fm-digital-assets.fieldmuseum.org/2550/958/C2010618F.jpg,C2010618F,Barnes legit,N/A,N/A,s.n.,Feb. 1840,1840-02-00,N/A,Pogonatum urnigerum Brid.,Pogonatum urnigerum,N/A,N/A,N/A,United Kingdom,England,Westmorland,N/A,Westmorland,[precise locality unknown],N/A,N/A,N/A,C2010618F,Mix of Handwritten and Typed,no type status
https://fm-digital-assets.fieldmuseum.org/2550/960/C2010620F.jpg,C2010620F,Jack,Jack,N/A,986A b,25 August 1850,1850-08-25,N/A,Pogonatum urnigerum (L.) Pal. Beauv.,Pogonatum urnigerum,N/A,N/A,N/A,Germany,Baden-Württemberg,N/A,Salem,b. An Waldgraben bei Salem,An Waldgraben near Salem,N/A,N/A,N/A,1058838,Typed,no type status
https://fm-digital-assets.fieldmuseum.org/2550/962/C2010622F.jpg,C2010622F,Dr. Hepp,D. Hepp,N/A,986,17. October 1862,1862-10-17,N/A,Pogonatum urnigerum (L.) Pal. Beauv.,Pogonatum urnigerum,unsure and check,N/A,N/A,Germany,Baden-Württemberg,N/A,Degerfelden,An einem Waldrande auf dem rothen Sandsteinbruche oberhalb Degerfelden,[precise locality unknown],An einem Waldrande auf dem rothen Sandsteinbruche,N/A,N/A,1054981,Typed,no type status
https://fm-digital-assets.fieldmuseum.org/2550/964/C2010624F.jpg,C2010624F,"Jack, Leiner u. Stizenberger",N/A,N/A,9863 d,September 1862,1862-09-00,N/A,Pogonatum urnigerum (L.) Pal. Beauv.,Pogonatum urnigerum,N/A,N/A,N/A,Switzerland,N/A,N/A,N/A,In Hohlwegen bei Schaffhausen,In Hohlwegen bei Schaffhausen,N/A,N/A,N/A,1055060,Typed,no type status
https://fm-digital-assets.fieldmuseum.org/2550/966/C2010626F.jpg,C2010626F,Coll. and determ. C. Jensen,C. Jensen,N/A,104,"November 21, 1904",1904-11-21,N/A,Pogonatum urnigerum (Hedw.) P. B. c. fr.,Pogonatum urnigerum,C. Jensen,N/A,N/A,Denmark,Zealand,N/A,N/A,sandy soil in Magistratskovene south of Hvalsø,Magistratskovene south of Hvalsø,sandy soil,N/A,N/A,N/A,Typed,no type status
https://fm-digital-assets.fieldmuseum.org/2550/968/C2010974F.jpg,C2010974F,P. Allorge,P. Allorge,N/A,49,22 VIII 1927,1927-08-22,N/A,"Pogonatum urnigerum (Linde) Spr. Plant. II p. 1109 N. 3 1733, sub Polytricho Palisot de Beauvois Prodr. p. 81 1805 C.",Pogonatum urnigerum,N/A,N/A,Blasia pusilla | Pellia epiphylla | Aulacomnion androgynum | Dicranella heteromalla,Spain,Navarra,N/A,N/A,Puerto de Ibañeta,Puerto de Ibañeta,Calcifuge mesophytic scapiule Frequent sur les talus siliceux frais récemment dénudés,Alt. ca. 1050 m,N/A,1200429,Typed,no type status
https://fm-digital-assets.fieldmuseum.org/2550/970/C2010976F.jpg,C2010976F,leg. Zdeněk Pilous,Z. Pilous,N/A,s.n.,VII.1949,1949-07-00,N/A,1025. Pogonatum urnigerum Pal. var. humile Brid.,Pogonatum urnigerum var. humile,N/A,N/A,N/A,Slovakia,Nízke Tatry,N/A,N/A,In terra montis Ďumbier ca 1840 m,In terra montis Ďumbier,N/A,ca 1840 m,N/A,1350887,Typed,no type status
https://fm-digital-assets.fieldmuseum.org/2550/990/C1042257F.jpg,C1042257F,S. Churchill et al. 22853,S. Churchill,H. Huaylla | R. Lozano | M. Serrano,22853,12 May 2004,2004-05-12,N/A,Neckera scabridens C. Müller,Neckera scabridens,S. Churchill,Jun 2004,N. chilensis | Prumnopitys exigua | Podocarpus | Myrcianthes,Bolivia,Chuquisaca,Belisario Boeto,N/A,Monte Grande ca. 32 km de Villa Serrano,Monte Grande approximately 32 kilometers from Villa Serrano,Bosque montano de yungas Musgo sobre rama de árbol,2740 m,"18°43'43""S 64°29'07""W",1183467,Typed,no type status
https://zenodo.org/record/1486506/files/K000931304.jpg,K000931304,C. E. Córdula | Y. Melo | K. Pinheiro,C. E. Córdula,Y. Melo | K. Pinheiro,49243,23/VI/2007,2007-06-23,N/A,Vigna peduncularis (Kunth) Fawc. & Rendle,Vigna peduncularis,G. P. Lewis,12.2012,N/A,Brazil,Pernambuco,N/A,Mirandiba,Serra das Umburanas (afloramento rochoso),Serra das Umburanas,Arbusto denso solo derivado de embasamento cristalino,Alt. 457 m,Lat. 8°12' S Long. 38°32' W,K000931304,Mix of Handwritten and Typed,no type status
https://zenodo.org/record/1485174/files/EIG.6763.jpg,EIG.6763,Ilkka Kukkonen 11003,I. Kukkonen,N/A,11003,13. Sept. 1981,1981-09-13,N/A,Arthropteris tenella (Forst. f.) J. Sm.,Arthropteris tenella,J. Sarvela,1982,N/A,Australia,Queensland,Atherton Tableland,N/A,Lamin's Hill E. of Malanda,Lamin's Hill East of Malanda,Patch of rain forest Fern climbing on tree stems,N/A,N/A,EIG.6763,Mix of Handwritten and Typed,no type status
https://zenodo.org/record/1486594/files/K001046329.jpg,K001046329,G. Pabst 5121,G. Pabst,N/A,5121,7.9.60,1960-09-07,N/A,Avicennia tomentosa,Avicennia tomentosa,A. P. Duarte,23.9.60,N/A,Brazil,Guanabara,N/A,N/A,Mangue próximo ao Jóquei Club da Ilha do Governador,Mangue próximo ao Jóquei Club da Ilha do Governador,Arbusto e pequenas árvores de flores brancas,N/A,N/A,K001046329,Typed,no type status
https://zenodo.org/record/1486540/files/K000964719.jpg,K000964719,W. Hoehne,W. Hoehne,N/A,10228,13/8/33,1933-08-13,N/A,Cestrum corymbosum Schlecht.,Cestrum corymbosum,M. Kuhlmann,N/A,N/A,Brazil,São Paulo,N/A,N/A,Cantareiras. São Paulo,Cantareiras,N/A,Alt.: . . . m,N/A,K000964719,Typed,no type status
https://zenodo.org/record/1485130/files/EIG.5460.jpg,EIG.5460,H. Eggert,H. Eggert,N/A,s.n.,17. Mai 79,1879-05-17,N/A,Cystopteris bulbifera (L.) Bernh.,Cystopteris bulbifera,unsure and check,N/A,N/A,United States,Illinois,N/A,N/A,Randolph,Randolph,N/A,N/A,N/A,1126455,Handwritten,no type status
https://zenodo.org/record/1485102/files/EIG.435.jpg,EIG.435,Ilkka Kukkonen 12608,I. Kukkonen,N/A,12608,8.XI.1982,1982-11-08,N/A,Dryopteris inaequalis (Schltdl.) O. Kuntze,Dryopteris inaequalis,J. Sarvela,1987,Juniperus procera,Ethiopia,Bale,N/A,N/A,Saneti plateau and Mount Batu 0655'N 3940'E c. 4000-4200 m,Saneti plateau and Mount Batu,In alpine belt dominated by Festuca schaefferi Euryops prostrata Anthemis tigresis Steep forested slope of a river canyon Pastured slope,Alt. c. 3400 m,0655'N 3940'E,H 1489739,Mix of Handwritten and Typed,no type status
https://zenodo.org/record/1484126/files/E00570050.jpg,E00570050,Vallejo-Marin M. 11-LED-seed-2.14,M. Vallejo-Marin,N/A,11-LED-seed-2.14,23 March 2012,2012-03-23,N/A,Mimulus peregrinus sp. nov.,Mimulus peregrinus,N/A,N/A,Mimulus x robertsii,Scotland,South Lanarkshire,N/A,N/A,British Isles vc 77 Shortcleuch Water Leadhills,Shortcleuch Water Leadhills,Occurring on the banks of a stream on a substrate of sand and shingle,360 m,N 55 25.437 W 3 43.749,E00570050,Mix of Handwritten and Typed,Holotype
https://zenodo.org/record/1485964/files/K000773283.jpg,K000773283,B. T. Lownes,B. T. Lownes,N/A,45,Aug. 9th 1902,1902-08-09,N/A,Monotropa Hypopitys,Monotropa hypopitys,Bentham,N/A,N/A,United Kingdom,Surrey,N/A,N/A,N/A,N/A,N/A,N/A,N/A,648,Mix of Handwritten and Typed,no type status
https://zenodo.org/record/1480969/files/BR0000006918378.jpg,BR0000006918378,Bart Van de Vijver,B. Van de Vijver,N/A,s.n.,25/04/2007,2007-04-25,N/A,Ophrys oestrifera subsp. garganensis Van de Vijver & W. Van Looken,Ophrys oestrifera,unsure and check,N/A,Cistus | Pinus,Italy,Apulia,N/A,N/A,Promontorio del Gargano Madonna di Loreto Behind the Chapel of Madonna di Loreto,Behind the Chapel of Madonna di Loreto,macchia-shrub with Cistus and Pinus,N/A,N/A,691 837,Mix of Handwritten and Typed,no type status
https://zenodo.org/record/1486710/files/K001207911.jpg,K001207911,G. Hatschbach 20590,G. Hatschbach,N/A,20590,09/11/1968,1968-11-09,N/A,Pfaffia glabrataides Ssgth.,Pfaffia glabrataides,I. M. Pedersen,971,N/A,Brazil,Parana,Curitiba,N/A,Rio Iguacu prox a barra do Perdido,Rio Iguacu near the mouth of Perdido,Erva 1m terreno arenoso margens de rio,N/A,N/A,K001207911,Typed,no type status
https://zenodo.org/record/1485807/files/K000263710.jpg,K000263710,J.J. de Wilde Sosef K. van Nek,J. J. de Wilde,Sosef | K. van Nek,10130,22-1-1991,1991-01-22,N/A,Rhynchosia gabonensis Jongkind,Rhynchosia gabonensis,N/A,N/A,N/A,Gabon,N/A,N/A,N/A,About 10 km. on the road from Tchimbélé to Assok,About 10 kilometers on the road from Tchimbélé to Assok,Vine 7 meters long in tree in roadside,Alt. ± 580 m.,0 04 N. 10 23 E.,K000263710,Typed,Isotype
https://zenodo.org/record/1480461/files/BM000934757.jpg,BM000934757,WILHELM SUKSDORF,W. Suksdorf,N/A,12045,3. Aug. 1926,1926-08-03,N/A,Solanum triflorum Nutt.,Solanum triflorum,T. Särkinen | M. Nee,2014 | 2005,N/A,United States,Washington,Klickitat,Bingen,High sandy river-bank at Bingen,High sandy river-bank,N/A,N/A,N/A,BM000994757,Typed,no type status
https://zenodo.org/record/1485887/files/K000536956.jpg,K000536956,COLL. J. FRANCIS MACBRIDE,J. F. Macbride,N/A,5234,"AUG. 27-SEPT. 1, 1923",1923-08-27,1923-09-01,Isotype of Tococa undabunda J. F. Macbr.,Tococa undabunda,F. A. Michelangeli,20.08,N/A,Peru,N/A,N/A,La Merced,La Merced Hacienda Schunke,Hacienda Schunke,Montaña slope,About 4000 feet,N/A,K000536956,Mix of Handwritten and Typed,Isotype
https://zenodo.org/record/1479535/files/B%2010%200375227.jpg,B 10 0375227,"X. Cornejo, C. Bonifaz",X. Cornejo,C. Bonifaz,5822,"Oct. 27, 1997",1997-10-27,N/A,Capparis sclerophylla Iltis nov. sp.,Capparis sclerophylla,unsure and check,19 Jul 2010,C. heterophylla | C. scabrida | C. lanceolata | C. crotonoides,Ecuador,Manabí,N/A,Bahía de Caráquez,"Alrededores de Universidad Católica. Bosque seco tropical deciduo, fuertemente intervenido",Alrededores de Universidad Católica,"Bosque seco tropical deciduo, fuertemente intervenido",30 m,LATITUD -00.45 LONGITUD -80.32,B 10 0375227,Typed,Isotipo
https://zenodo.org/record/1479341/files/B%2010%200185601.jpg,B 10 0185601,M. l'abbé Delavay,M. Delavay,N/A,s.n.,2 avril 1887,1887-04-02,N/A,Gentiana albescens Franch.,Gentiana albescens,unsure and check,N/A,N/A,China,Yunnan,N/A,N/A,in collibus prope Mo-so-yn,[precise locality unknown],N/A,N/A,N/A,B 10 0185601,Mix of Handwritten and Typed,no type status
https://zenodo.org/record/1479171/files/B%2010%200030508.jpg,B 10 0030508,Winfried Meier y Silvia Llamozas,W. Meier,S. Llamozas,3685,16-17 de abril 1993,1993-04-16,1993-04-17,Klarobelia subglobosa Chatrou,Klarobelia subglobosa,P. J. M. Maas,1994,N/A,Venezuela,Distrito Federal,Estado Miranda,N/A,Cordillera de la Costa en: cuenca Guatire-Caucagua ruta: Fila Juan Torres-Rio Brazo Grande-Fila Maestra-Rio Caruao-poblacion San Jorge de Caruao,Cordillera de la Costa en cuenca Guatire-Caucagua ruta Fila Juan Torres-Rio Brazo Grande-Fila Maestra-Rio Caruao-poblacion San Jorge de Caruao,arbol caido secado Fila Jabilllar en selva,500 m,lat. 10°34' N long. 66°23' O,B 10 0030508,Mix of Handwritten and Typed,Isotypus
https://zenodo.org/record/1479203/files/B%2010%200069251.jpg,B 10 0069251,Kessler 283,M. Kessler,N/A,283,21.12.1988,1988-12-21,N/A,Mallotus paniculatus,Mallotus paniculatus,M. Kessler,18. MRZ 1994,N/A,Malaysia,Sarawak,N/A,N/A,Sarawak 1st Division Base of Gunung Pueh,Base of Gunung Pueh,Secondary vegetation along road,Alt. up to 200 m,N/A,B 10 0069251,Typed,no type status
https://zenodo.org/record/1479479/files/B%2010%200279821.jpg,B 10 0279821,M. Jacobs,M. Jacobs,N/A,5005,Aug. 1,1958-08-01,N/A,Piptospatha grabowskii (Engl.) Engl. (Syn. P. havilandii (Engl.) Engl.),Piptospatha grabowskii,N/A,N/A,N/A,Malaysia,Sarawak,N/A,N/A,N. slopes of Mount Penrissen (S. of Kuching),North slopes of Mount Penrissen South of Kuching,In very moist sandstone gorge on rocks. Inflorescence sheath violet tip olive-greenish. Male and female flowers sordidly pale yellow. Frequent on the spot. Pollinated by small blue-glossy beetles,c. 700-900 m,approx. 1°5' N. 110°15' E.,B 10 0027824,Typed,no type status
https://zenodo.org/record/1479168/files/B%2010%200030420.jpg,B 10 0030420,"P. J. M. & H. Maas, L. Kollmann",P. J. M. Maas,H. Maas | L. Kollmann,8833,16 Feb 1999,1999-02-16,N/A,Pseudoxandra spiritus-sancti Maas,Pseudoxandra spiritus-sancti,P. J. M. Maas,"Utrecht, 2001",N/A,Brazil,Espírito Santo,Santa Teresa,N/A,"Est. Espírito Santo, Municipio de Santa Teresa, Estação Biológica de Santa Lúcia",Estação Biológica de Santa Lúcia,"High forest, on brown sand; vegetation with many Palmae and terrestrial and epiphytic Bromeliaceae",800 m,19°58'S 40°32'W,B 10 0030420,Typed,Isotype
https://zenodo.org/record/1479553/files/B%2010%200385068.jpg,B 10 0385068,"R. Berazaín, J. Bisse, M. A. Díaz, H. Dietrich, L. González Gijépel, J. Gutiérrez, K. Kohler, L. Lepper, U. Rändel, H. Schaarschmidt",R. Berazaín,J. Bisse | M. A. Díaz | H. Dietrich | L. González Gijépel | J. Gutiérrez | K. Kohler | L. Lepper | U. Rändel | H. Schaarschmidt,1671,09-11-1979,1979-11-09,N/A,Hieracium pallidum K. Dietr.,Hieracium pallidum,H. Manitz,2007,N/A,Cuba,Guantánamo,San Antonio del Sur,N/A,"Abra de Mariana, loma al oeste del barranco","Abra de Mariana, loma al oeste del barranco",N/A,1671 [5/7]0 m,Coordenadas de la cuadrícula (Cuba 1:250000): 1671 [5/7]0,HFC 39098,Mix of Handwritten and Typed,Isotype