accessURI,catalogNumber,verbatimCollectors,collectedBy,secondaryCollectors,recordNumber,verbatimEventDate,minimumEventDate,maximumEventDate,verbatimIdentification,latestScientificName,identifiedBy,verbatimDateIdentified,associatedTaxa,country,firstPoliticalUnit,secondPoliticalUnit,municipality,verbatimLocality,locality,habitat,verbatimElevation,verbatimCoordinates,otherCatalogNumbers,originalMethod,typeStatus,Image
https://fm-digital-assets.fieldmuseum.org/2433/459/V0573776F.jpg,V0573776F,"Dr. EDGAR A. MEARNS, Collector",E. A. Mearns,N/A,2832,"Jan. 10 to Feb. 2, 1910",1910-01-10,1910-02-02,Cyperus callistus Ridley,Cyperus maculatus,J. Raynal,19.10.1971,N/A,Democratic Republic of the Congo,Lado Enclave,Bahr el Jebel,N/A,"""Rhino Camp,"" Bahr el Jebel, Lado Enclave, Congo Free State","""Rhino Camp""",N/A,N/A,N/A,468360,Mix of Handwritten and Typed,no type status,
https://fm-digital-assets.fieldmuseum.org/2437/184/V0576008F.jpg,V0576008F,COLL. F. G. OVERLAET,F. G. Overlaet,N/A,s.n.,1923-4,1923-01-00,1924-12-00,Habenaria,Habenaria,B. Pettersson,1984,N/A,Democratic Republic of the Congo,N/A,N/A,N/A,N/A,[precise locality unknown],N/A,N/A,N/A,752356,Typed,no type status,
https://fm-digital-assets.fieldmuseum.org/2433/678/V0576279F.jpg,V0576279F,Leg. R. A. Maas Geesteranus,R. A. Maas Geesteranus,N/A,4924,14-VI 1949,1949-06-14,N/A,Pycreus segmentatus C.B.Cl.,Pycreus segmentatus,N/A,N/A,Dombeya mastersii | Olea hochstetteri,Kenya,Nyanza Province,Londiani,N/A,"Tinderet Forest Reserve, Camp I, lat. 0° 5' S., long. 35° 27' E.","Tinderet Forest Reserve, Camp I","glade surrounded by rather open, tall forest, containing a.o. Dombeya mastersii and Olea hochstetteri",2260 m s.m.,"lat. 0° 5' S., long. 35° 27' E.",1447352,Mix of Handwritten and Typed,no type status,
https://fm-digital-assets.fieldmuseum.org/2437/413/V0577013F.jpg,V0577013F,J. M. et B. Reitsma,J. M. Reitsma,B. Reitsma,2013,3-3-86,1986-03-03,N/A,Bulbophyllum scaberulum (Rolfe) Bolus var. scaberulum,Bulbophyllum scaberulum var. scaberulum,O. Kosovsky,2011,N/A,Gabon,Woleu-Ntem,N/A,Oyem,"ca 6 km NW of Oyem, chantier Rougier Océan","approximately 6 kilometers northwest of Oyem, chantier Rougier Océan","Primary rain forest, epiphytic orchid, growing in big clumps together, flower greenish-yellow, leaves hard, succulent",N/A,0 41 N x 11 07 E,2310219,Mix of Handwritten and Typed,no type status,
https://fm-digital-assets.fieldmuseum.org/2434/201/V0577892F.jpg,V0577892F,Carvalho 2102,J. Carvalho,N/A,2102,26-VII-1986,1986-07-26,N/A,Mariscus alternifolius Vahl,Mariscus alternifolius,C. Cebolla | M. A. Rivas Ponce,1995,N/A,Equatorial Guinea,Bioko,N/A,Malabo,"finca las Carboneras, 32NMK7415, 8 m. Bosque secundario y terrenos incultos. Herbácea, 20-30 cm",finca las Carboneras,Bosque secundario y terrenos incultos,8 m,32NMK7415,2201108,Mix of Handwritten and Typed,no type status,
https://fm-digital-assets.fieldmuseum.org/2437/617/V0578553F.jpg,V0578553F,Fernández Casas,F. Casas,N/A,11206,5-II-1989,1989-02-05,N/A,Agrostis manii (Hooker fil.) Stapf,Agrostis manii,C. Cebolla | M. A. Rivas Ponce,1993,N/A,Equatorial Guinea,Bioko,N/A,N/A,"cumbre del pico Basilé, 32NMJ7396, 2870 m, márgenes de la pista","summit of Pico Basilé, 32NMJ7396, margins of the track",N/A,2870 m,32NMJ7396,2200806,Typed,no type status,
https://fm-digital-assets.fieldmuseum.org/2441/863/V0574052F.jpg,V0574052F,COLL. F. G. OVERLAET,F. G. Overlaet,N/A,s.n.,1923-4,1923-01-01,1924-12-31,Scirpus macrostachyus,Scirpus macrostachyus,A. Reith | A. Reith,1960,N/A,Democratic Republic of the Congo,N/A,N/A,N/A,N/A,[precise locality unknown],N/A,N/A,N/A,752378,Mix of Handwritten and Typed,no type status,
https://fm-digital-assets.fieldmuseum.org/2446/122/V0577681F.jpg,V0577681F,C.J.P. Seegeler,C. J. P. Seegeler,N/A,2806,23 October 1972,1972-10-23,N/A,Vernonia abyssinica Sch.Bip.,Vernonia abyssinica,G. J. H. Amshoff,1982,N/A,Ethiopia,Shewa,N/A,Metahara,"c. 3 km from Metahara, on road to Nazareth",approximately 3 kilometers from Metahara on road to Nazareth,In full sun on lava rock,Alt: 925m,"c. 8°56' N, 39°55' E",2302805,Mix of Handwritten and Typed,no type status,
https://fm-digital-assets.fieldmuseum.org/2442/190/V0597557F.jpg,V0597557F,N/A,N/A,N/A,48,05.08.2003,2003-08-05,N/A,Carduus leptacanthus FRES,Carduus leptacanthus,N/A,N/A,N/A,Democratic Republic of the Congo,Sud-Kivu,Kabare,Musisi,Musisi,Musisi,N/A,N/A,N/A,2257689,Typed,no type status,
https://fm-digital-assets.fieldmuseum.org/2452/643/V0594376F.jpg,V0594376F,J.M. Fay,J. M. Fay,N/A,8017,25 May 1987,1987-05-25,N/A,Burkea africana Hook.,Burkea africana,J. M. Fay,N/A,N/A,Central African Republic,N/A,N/A,N/A,Park Manovo-Gounda-St. Floris. Vicinity of Camp Koumbala.,"Park Manovo-Gounda-St. Floris, vicinity of Camp Koumbala",N/A,elev: 600 m,08°29'N 21°12'E,No 1999188,Mix of Handwritten and Typed,no type status,
https://fm-digital-assets.fieldmuseum.org/2453/856/V0597275F.jpg,V0597275F,P.C.M. Jansen,P. C. M. Jansen,N/A,5996,14 April 1976,1976-04-14,N/A,Cirsium vulgare (Savi) Ten.,Cirsium vulgare,C. C. H. Jongkind,1987,N/A,Ethiopia,Harerge,N/A,Damata Village,"around Damata Village, near Alemaya. Between chat and Sorghum fields.","around Damata Village, near Alemaya, between chat and Sorghum fields","Herb, c. 1 meters high. Stem whitish green. Leaves dark green above, whitish green beneath. Spines yellow. Involucre dark green. Disc flowers only, lilac red.",Alt: 2000m,"c. 9°24' N, 42°01' E",2302849,Mix of Handwritten and Typed,no type status,
https://fm-digital-assets.fieldmuseum.org/2454/013/V0597626F.jpg,V0597626F,"Amanda Koch, Wilson Sakuda, AK61, October 22, 2003",A. Koch,W. Sakuda,AK61,"October 22, 2003",2003-10-22,N/A,Acacia reficiens misera (Vatke) Brenan,Acacia reficiens misera,P. Mutiso,"November 02, 2003",N/A,Kenya,Kajiado,N/A,N/A,Oloisobibor,Oloisobibor,Dry bushland,N/A,N/A,2309478,Mix of Handwritten and Typed,no type status,
https://fm-digital-assets.fieldmuseum.org/2454/080/V0597688F.jpg,V0597688F,"Coll. J. Lebrun, Mart 1931",J. Lebrun,N/A,E 2409,Mart 1931,1931-03-00,N/A,Albizzia gummifera (Gmel.),Albizzia gummifera,C. A. Smith,N/A,N/A,Democratic Republic of the Congo,N/A,N/A,N/A,Congo Belge. Lebr. (Itin. Itinér.),[precise locality unknown],N/A,N/A,N/A,867368,Mix of Handwritten and Typed,no type status,
https://fm-digital-assets.fieldmuseum.org/2460/308/V0588237F.jpg,V0588237F,Verdcourt,B. Verdcourt,N/A,2077,25. 12. 1957.,1957-12-25,N/A,Digitaria pernaka (Hochst.) Chov.,Digitaria pernaka,unsure and check,N/A,N/A,Kenya,N/A,N/A,N/A,"Tsavo - Kitui Andei, Kenya",Tsavo - Kitui Andei,N/A,N/A,N/A,V0588237F,Mix of Handwritten and Typed,no type status,
https://fm-digital-assets.fieldmuseum.org/2460/430/V0580026F.jpg,V0580026F,H. Callens,H. Callens,N/A,209,Juillet 1958,1958-07-00,N/A,Gaertnera paniculata,Gaertnera paniculata,H. Callens,1/9/58,N/A,Democratic Republic of the Congo,Kongo Central,N/A,Kisantu,Origine: Kisantu,Kisantu,foret secondaire,N/A,N/A,1732587,Mix of Handwritten and Typed,no type status,
https://fm-digital-assets.fieldmuseum.org/2464/177/V0580516F.jpg,V0580516F,N/A,N/A,N/A,4333,19/2/1956,1956-02-19,N/A,"CICHORIUM, Mikania cordata (Burm. f.) B.L. ROBINSON",Mikania cordata,N/A,N/A,N/A,Democratic Republic of the Congo,Kivu,Kalehe,N/A,"Vers le 130, route Kavumu-Kalonge, forêt secondaire, février 1956","Vers le 130, route Kavumu-Kalonge",Forêt secondaire,C. environ 1540 m.,N/A,1543353,Typed,no type status,
https://fm-digital-assets.fieldmuseum.org/2466/373/V0574490F.jpg,V0574490F,Gordon McPherson,G. McPherson,N/A,13781,20 Mars 1989,1989-03-20,N/A,Corynanthe mayumbensis (R. Good) N. Hallé,Corynanthe mayumbensis,J. Wilks | G. McPherson,1989,N/A,Gabon,Ogooue-Ivindo,N/A,N/A,"Réserve de la Lopé, au sud d'Ayem; chantier SOFORGA","Réserve de la Lopé, south of Ayem, SOFORGA worksite",N/A,c. 200 m,0°25'S 11°30'E,LF:Q66-S-0223-G | BK:Q66-S-0224-H | WD:Q66-S-0225-I,Mix of Handwritten and Typed,no type status,
https://fm-digital-assets.fieldmuseum.org/2472/873/V0574226F.jpg,V0574226F,J. M. Fay,J. M. Fay,N/A,8294,4 March 1988,1988-03-04,N/A,Millettia zechiana Harms,Millettia zechiana,A. Assi,1988,Guibourtia demeusei | Berlinia | Bombax,Cameroon,N/A,N/A,N/A,On the Sangha River across from Ndakan gorilla study area,On the Sangha River across from Ndakan gorilla study area,"In seasonally flooded forest with Guibourtia demeusei, Berlinia sp., Bombax sp.",385 m,02°20'N 16°08'E,067B/0546-H | 067B/0547-I | 067B/0548-J | NCI# Leaves Q67B/0545-C,Mix of Handwritten and Typed,no type status,
https://fm-digital-assets.fieldmuseum.org/2473/141/V0580728F.jpg,V0580728F,Coll. F.A. Melville,F. A. Melville,N/A,199,29.vii.1959,1959-07-29,N/A,Phaseolus lunatus L.,Phaseolus lunatus,N/A,N/A,N/A,Equatorial Guinea,Annobón,N/A,N/A,"South west of Crater Lake. Clearing in wood, scrambling over herbage.",South west of Crater Lake,"Clearing in wood, scrambling over herbage","Alt. 1,500ft.",N/A,1624518,Mix of Handwritten and Typed,no type status,
https://fm-digital-assets.fieldmuseum.org/2473/209/V0578764F.jpg,V0578764F,R. L. PIEMEISEL L. W. KEPHART Collectors,R. L. Piemeisel,L. W. Kephart,2,"June 28, 1927",1927-06-28,N/A,N/A,N/A,N/A,N/A,N/A,Kenya,Nairobi,N/A,Muthaiga,"Kenya: Muthaiga, near Nairobi; alt. 1,700 meters","Muthaiga, near Nairobi",N/A,"1,700 meters",N/A,2074762,Mix of Handwritten and Typed,no type status,
https://fm-digital-assets.fieldmuseum.org/2474/564/V0594158F.jpg,V0594158F,COLL. A. Léonard,A. Léonard,N/A,3149,19/2 1959,1959-02-19,N/A,Oxyanthus speciosus DC. subsp. indet.,Oxyanthus speciosus subsp. indet.,B. Sonké,1989,N/A,Democratic Republic of the Congo,Nord-Kivu,Masisi,N/A,Masisi,Masisi,Vieille forêt secondaire,1900m,N/A,N/A,Mix of Handwritten and Typed,no type status,
https://fm-digital-assets.fieldmuseum.org/2477/449/V0573054F.jpg,V0573054F,"récolté par le R. P. KLAIN Donné par M. L. PIERRE, le 25 Mars 1901",R. P. Klain,M. L. Pierre,s.n.,le 25 Mars 1901,1901-03-25,N/A,Klaineanthus Jabourin fruit et arille rouge,Klaineanthus jabourin,unsure and check,N/A,N/A,Gabon,Estuaire,N/A,Libreville,Herbier des environs de LIBREVILLE,environs de Libreville,N/A,N/A,N/A,3200 | 781173,Mix of Handwritten and Typed,no type status,
https://fm-digital-assets.fieldmuseum.org/2478/115/V0601010F.jpg,V0601010F,James T. Allen,J. T. Allen,N/A,41,"September 23, 1996",1996-09-23,N/A,Dissotis rotundifolia (Sm.) Triana,Dissotis rotundifolia,N/A,N/A,N/A,Ghana,Volta Region,N/A,Larteh,Center for Scientific Research into Plant Medicine (CSRPM) farm,Center for Scientific Research into Plant Medicine farm,"Anti-asthmatic; treating coughs and colds; antipyretic, for dysentery. Applied topically-arthritis",N/A,N/A,2200652,Mix of Handwritten and Typed,no type status,
https://fm-digital-assets.fieldmuseum.org/2478/233/V0602418F.jpg,V0602418F,J.E. Andoh,J. E. Andoh,N/A,5632,March 1952,1952-03-00,N/A,Chrysophyllum perpulchrum Mildbr.,Chrysophyllum perpulchrum,N/A,N/A,N/A,Ghana,Ashanti,Kumasi,Kumasi,Kumasi Township Forest Reserve,Kumasi Township Forest Reserve,Medium sized tree 30 feet high and 2 feet girth Planted in 1933,N/A,N/A,N/A,Typed,no type status,
https://fm-digital-assets.fieldmuseum.org/2478/305/V0604513F.jpg,V0604513F,J. Nemba & D.W. Thomas,J. Nemba,D. W. Thomas,520,15 June 1987,1987-06-15,N/A,Donella welwitschii Pierre ex Engl.,Donella welwitschii,D. W. Thomas,1987,N/A,Cameroon,Southwest,N/A,N/A,Secondary growth and old growth forest along Kumba-Mamfe road at mile 14 Lkiliwindi,Kumba-Mamfe road at mile 14 Lkiliwindi,Secondary growth and old growth forest,200 m,04°44'N 09°29'E,2041320,Mix of Handwritten and Typed,no type status,
https://fm-digital-assets.fieldmuseum.org/2479/474/V0572217F.jpg,V0572217F,J. Deaw,J. Deaw,N/A,Sp 283,4/19/71,1971-04-19,N/A,Eugenia coronata,Eugenia coronata,A. A. Enti,N/A,N/A,Ghana,N/A,N/A,Accra,Accra,Accra,A shrub about 6 feet high Flowering pedicels fascicled Fruit ellipsoid calyx persistent at the apex,N/A,N/A,1753421 | 71 | 19,Mix of Handwritten and Typed,no type status,
https://fm-digital-assets.fieldmuseum.org/2487/523/V0602609F.jpg,V0602609F,collecti G. Schweinfurth et D. Riva,G. Schweinfurth,D. Riva,1814,Januar 1892,1892-01-00,N/A,Rumex nervosus V,Rumex nervosus,N/A,N/A,N/A,Eritrea,N/A,N/A,Paganciti,"Paganciti, pente du Nord au-dessous d'Addi-Abbour","Paganciti, north slope below Addi-Abbour",N/A,Altitude 2300/2100 m,N/A,71238,Typed,no type status,
https://fm-digital-assets.fieldmuseum.org/2487/806/V0606178F.jpg,V0606178F,Coll. R.B. & A.J. Faden 77/711,R. B. Faden,A. J. Faden,77/711,7 March 1977,1977-03-07,N/A,Toddaliopsis sansibarensis (Engl.) Engl. confirmed J.O. Kokwaro,Toddaliopsis sansibarensis,J. O. Kokwaro,N/A,Combretum schumannii,Kenya,Kwale,N/A,N/A,"Kenya, K7, Kwale District, Chale Peninsula, ca. 4°26'3""S, 39°32'30""E",Chale Peninsula,Coral rag dry forest with Combretum schumannii dominant,Alt 0-5 m,"4°26'3""S, 39°32'30""E",2153520,Mix of Handwritten and Typed,no type status,
https://fm-digital-assets.fieldmuseum.org/2487/920/V0603038F.jpg,V0603038F,F. SZAFRANSKI,F. Szafranski,N/A,1378,5.2.1988,1988-02-05,N/A,Floscopa glomerata (Roem. et Schult.) Hassk.,Floscopa glomerata,N/A,N/A,N/A,Democratic Republic of the Congo,Haut-Uele,Isiro,N/A,"Haut-Zaïre, S-Rég. Haut-Uele, Isiro",near the road in the vicinity of the SOCODIA factory,bas fond marécageux près de la route aux environs de l'usine SOCODIA,N/A,N/A,2084694,Mix of Handwritten and Typed,no type status,
https://fm-digital-assets.fieldmuseum.org/2491/969/V0606676F.jpg,V0606676F,Coll. F.H.H. Migeod.,F. H. H. Migeod,N/A,394,26. 1. 1928.,1928-01-26,N/A,Solanum aculeatissimum Jacq.,Solanum aculeatissimum,M. Nee,"Dec. 3, 1977",N/A,Cameroon,Northwest,Bamenda,N/A,"AFRICA. Bamenda, British Cameroons.",Bamenda,Shrub very thorny and spinous Flower not seen Fruit pale yellow 1 in. diameter soft,"Alt. 5,500 ft.",N/A,1441275 | 394,Mix of Handwritten and Typed,no type status,
https://fm-digital-assets.fieldmuseum.org/2491/991/V0601406F.jpg,V0601406F,T.C. Wrigley and F.A. Melville,T. C. Wrigley,F. A. Melville,52,18 July 1959,1959-07-18,N/A,Cassipourea annobonensis Mildbr. ex Alston.,Cassipourea annobonensis,A. W. Exell,1961,N/A,Equatorial Guinea,Annobón,N/A,N/A,Ridge west of Crater Lake.,Ridge west of Crater Lake,Open woodland,1200ft. Alt.,N/A,1624568,Mix of Handwritten and Typed,no type status,
https://fm-digital-assets.fieldmuseum.org/2493/436/V0604673F.jpg,V0604673F,William Burger,W. Burger,N/A,1767,27 May 1962,1962-05-27,N/A,Rubus apetalus Poir,Rubus apetalus,W. Burger,N/A,N/A,Ethiopia,Harar,N/A,N/A,"Near G. Ades ±18 km. E. of Hirna along new hwy, steep slopes with remnant Podocarpus & juniperous forest Alt. 9200 feet (9°17'N 41°13'E)","Near G. Ades approximately 18 kilometers east of Hirna along new highway, steep slopes with remnant Podocarpus and Juniperous forest",steep slopes with remnant Podocarpus and Juniperous forest,9200 feet,9°17'N 41°13'E,1825230,Mix of Handwritten and Typed,no type status,
https://fm-digital-assets.fieldmuseum.org/2499/501/V0565514F.jpg,V0565514F,"J.D. Sauer, no. 3914. 15 June 1963",J. D. Sauer,N/A,3914,15 June 1963,1963-06-15,N/A,Aerva lanata (L.) Juss.,Aerva lanata,N/A,N/A,N/A,Kenya,Coast Province,Kwale District,Mombasa,"Bumburri Beach, N of Mombasa","Bumburri Beach, north of Mombasa","Beach ridge, shallow open coast",N/A,N/A,V0565514F,Mix of Handwritten and Typed,no type status,
https://fm-digital-assets.fieldmuseum.org/2499/556/V0565977F.jpg,V0565977F,C. Vigine | C. Vigne,C. Vigine,C. Vigne,1408 | 4086,N/A,0000-00-00,N/A,Enantia polycarpa Engl. + Diels | Enantia polycarpa Engl. & Diels,Enantia polycarpa,N/A,N/A,N/A,Ghana,N/A,N/A,N/A,Gold Coast,Gold Coast,N/A,N/A,N/A,839434 | 4086 | 1408,Mix of Handwritten and Typed,no type status,
https://fm-digital-assets.fieldmuseum.org/2499/686/V0566108F.jpg,V0566108F,Eman Addo,E. Addo,N/A,1026,1999,1999-00-00,N/A,Uvaria versicolor Pierre,Uvaria versicolor,N/A,N/A,N/A,Ghana,N/A,N/A,N/A,N/A,[precise locality unknown],N/A,N/A,N/A,V0566108F,Typed,no type status,
https://fm-digital-assets.fieldmuseum.org/2500/629/V0567164F.jpg,V0567164F,A. A. Enti,A. A. Enti,N/A,Sp 398,22 11 71,1971-11-22,N/A,Pergularia daemia,Pergularia daemia,A. A. Enti,1971,N/A,Ghana,Central,N/A,N/A,Awutu - Winneba Road.,Awutu - Winneba Road,"A climber among grasses. Flower white, conspicuous. Latex present.",N/A,N/A,1753348 | WAX348,Mix of Handwritten and Typed,no type status,
https://fm-digital-assets.fieldmuseum.org/2501/420/V0591661F.jpg,V0591661F,D.W. Thomas,D. W. Thomas,N/A,6850,1987,1987-00-00,N/A,Cola flavovelutinia K. Schum.,Cola flavovelutinia,D. W. Thomas,1987,N/A,Cameroon,Southwest,N/A,N/A,PROV. SOUTHWEST: Korup National Park.,Korup National Park,Primary rain forest,60 m,05°02'N 08°50'E,2041255,Mix of Handwritten and Typed,no type status,
https://fm-digital-assets.fieldmuseum.org/2504/891/V0567306F.jpg,V0567306F,Sue A. Thompson,S. A. Thompson,N/A,1522,9 July 1984,1984-07-09,N/A,Impatiens macroptera Hook.f.,Impatiens macroptera,N/A,N/A,N/A,Cameroon,Sud-Ouest,Fako,Bakingili,"Bakingili; 4°04'N, 9°02'E. Alt. 50-250 m. Trail up Mt. Cameroon.",Trail up Mount Cameroon,"Erect herb up to 70 centimeters tall, growing on wet rocks; flowers purple",Alt. 50-250 m.,"4°04'N, 9°02'E",V0567306F,Mix of Handwritten and Typed,no type status,
https://fm-digital-assets.fieldmuseum.org/2505/266/V0606921F.jpg,V0606921F,D. Wiens,D. Wiens,N/A,4484,16-12-71,1971-12-16,N/A,Englerina tenuifolia (Engl.) Gilli,Englerina tenuifolia,unsure and check,N/A,N/A,Kenya,Kitui,N/A,N/A,4 km n. of Kangondi on road to Embu,4 kilometers north of Kangondi on road to Embu,Thorn shrub,Alt. 4500',N/A,1864166,Mix of Handwritten and Typed,no type status,
https://fm-digital-assets.fieldmuseum.org/2506/309/V0605928F.jpg,V0605928F,Sue A. Thompson 1333 & John E. Rawlins,S. A. Thompson,J. E. Rawlins,1333,3 June 1984,1984-06-03,N/A,Avicennia africana P. Beauv.,Avicennia africana,N/A,N/A,N/A,Cameroon,Sud-Ouest,Fako,Bakingili,"Bakingili; 4°04′N, 9°02′E. Alt. 0 m. Seaside.",Bakingili,Seaside,Alt. 0 m.,"4°04′N, 9°02′E",N208807,Mix of Handwritten and Typed,no type status,
https://fm-digital-assets.fieldmuseum.org/2511/134/V0605675F.jpg,V0605675F,G. Troupin,G. Troupin,N/A,6347,18.2.1958,1958-02-18,N/A,TILIAC. Glyphaea brevis (SPRENG.) MONACHINO,Glyphaea brevis,unsure and check,N/A,N/A,Democratic Republic of the Congo,Kivu,Kalehe,N/A,"Vers Km 110 route Kavumu-Walikale; Irangi, réserve IRSAC.",Vers Kilometer 110 route Kavumu-Walikale; Irangi; réserve IRSAC,forêt ombrophile,850 - 900 m.,N/A,1543374 | TROUTIN 6347,Mix of Handwritten and Typed,no type status,
https://fm-digital-assets.fieldmuseum.org/2511/772/V0571550F.jpg,V0571550F,Legit: A. Pappi,A. Pappi,N/A,2627,14-15.VIII.1902,1902-08-14,1902-08-15,Lavandula pubescens Decaisne,Lavandula pubescens,T. M. Upson,2/4/1996,N/A,Eritrea,unsure and check,unsure and check,unsure and check,ASSAORTA - LUNGO IL TORRENTE HADDAS,Assaorta along the Haddas stream,N/A,N/A,N/A,V0571550F,Mix of Handwritten and Typed,no type status,
https://fm-digital-assets.fieldmuseum.org/2512/575/V0607392F.jpg,V0607392F,William Burger,W. Burger,N/A,1453,"14 Feb, 1962",1962-02-14,N/A,Juniperus procera Hochst. ex Endl.,Juniperus procera,W. D. | W. Burger,N/A,N/A,Ethiopia,Harar,N/A,N/A,N.W. face of Gara Mulatta Mtn. i.e. 50 km due W of Harar 9°16'N + 41°43'E alt 2500-3000m.,N.W. face of Gara Mulatta Mountain 50 kilometers due west of Harar,on steep slopes in mixed forest,± 8600 feet alt 2500-3000m.,9°16'N + 41°43'E,"1632855 | 3000, 12-63",Mix of Handwritten and Typed,no type status,
https://fm-digital-assets.fieldmuseum.org/2513/815/V0570163F.jpg,V0570163F,G.B.D. & team No. 1,G. B. D.,team,1,10/12/1972,1972-12-10,N/A,Terminalia glaucescens,Terminalia glaucescens,N/A,1972,N/A,Ghana,Volta Region,Ho,N/A,"HO, VOLTA REGION GHANA",Ho,"A tree, to 40 feet high, 6 feet girth, wood yellow or brownish yellow",N/A,N/A,2007210,Mix of Handwritten and Typed,no type status,
https://fm-digital-assets.fieldmuseum.org/2514/094/V0570543F.jpg,V0570543F,leg. Schimper.,G. W. Schimper,N/A,s.n.,24.11.65,1865-11-24,N/A,Ipomoea sinensis Chois.,Ipomoea sinensis,N/A,N/A,N/A,Ethiopia,N/A,N/A,N/A,Abyssinia.,[precise locality unknown],N/A,N/A,N/A,373793 | 1467,Mix of Handwritten and Typed,no type status,
https://fm-digital-assets.fieldmuseum.org/2514/378/V0607965F.jpg,V0607965F,D.W. Thomas & M. Etuge.,D. W. Thomas,M. Etuge,6988,18 May 1987,1987-05-18,N/A,Tapura africana Oliv.,Tapura africana,D. W. Thomas,1987,N/A,Cameroon,Southwest,Kumba,Barombi Kang,"Degraded forest at Barombi Kang, Kumba.",Barombi Kang,Degraded forest,150 m,04°36'N 09°27'E,2040825,Mix of Handwritten and Typed,no type status,
https://fm-digital-assets.fieldmuseum.org/2514/765/V0570471F.jpg,V0570471F,"Dr. EDGAR A. MEARNS, Collector",E. A. Mearns,N/A,1114,"September 6 and 7, 1909",1909-09-06,1909-09-07,Evolvulus alsinoides L.,Evolvulus alsinoides,N/A,N/A,N/A,Kenya,N/A,N/A,Thika,"Vicinity of Thika, British East Africa; altitude about 1530 meters",Vicinity of Thika,N/A,altitude about 1530 meters,N/A,V0570471F,Mix of Handwritten and Typed,no type status,
https://fm-digital-assets.fieldmuseum.org/2514/997/V0570108F.jpg,V0570108F,COLLECTED BY G. MacNaughton,G. MacNaughton,N/A,580,N/A,0000-00-00,N/A,Combretum Schumannii Engl. & Diels,Combretum schumannii,N/A,N/A,N/A,Kenya,N/A,N/A,N/A,N/A,[precise locality unknown],N/A,N/A,N/A,N/A,Mix of Handwritten and Typed,no type status,
https://fm-digital-assets.fieldmuseum.org/2515/000/V0570110F.jpg,V0570110F,J. M. Fay,J. M. Fay,N/A,8271,28 February 1988,1988-02-28,N/A,Combretum smeathmannii G. Don,Combretum smeathmannii,A. Assi,1988,Irvingia smithii | Guibourtia demeusei | Berlinia,Cameroon,N/A,N/A,N/A,"Along the Sangha River adjacent to the island of Kilona. In riparian forest adjacent to seasonally flooded forest with Irvingia smithii, Guibourtia demeusei, Berlinia sp.",Along the Sangha River adjacent to the island of Kilona,"In riparian forest adjacent to seasonally flooded forest with Irvingia smithii, Guibourtia demeusei, Berlinia sp.",385 m,02°21'N 16°09'E,2041248 | NCI Sten 067/0466-T | Leaves 067/0467-U,Mix of Handwritten and Typed,no type status,
https://fm-digital-assets.fieldmuseum.org/2522/077/V0590787F.jpg,V0590787F,Coll. D.D. Soejarto,D. D. Soejarto,N/A,4793,"April 1, 1978",1978-04-01,N/A,Diospyros tricolor Hiern.,Diospyros tricolor,N/A,N/A,Thespesia populnea | Sophora occidentalis,Ghana,Greater Accra,N/A,Bortianor,"20 km. West of Accra, sea coast","20 kilometers West of Accra, sea coast","Straggling shrub, in association with Thespesia populnea and Sophora occidentalis Fruits green Forming clumps just behind beach, on sandy soil Common",N/A,N/A,1842606,Typed,no type status,
https://fm-digital-assets.fieldmuseum.org/39/558/V0040586F.jpg,V0040586F,Narciso Reyna R. 40,N. Reyna,N/A,40,15 diciembre 1967,1967-12-15,N/A,Guatteria scalarinervia D.R. Simpson,Guatteria scalarinervia,D. R. Simpson,1975,N/A,Peru,Loreto,Maynas,Alto Nanay,"Santa María, Río Nanay, distr. Alto Nanay, dept. Loreto, prov. Maynas","Santa María, Río Nanay",bosque húmedo tropical,Alt. 150 m,N/A,1731405 | 56344,Mix of Handwritten and Typed,Holotype,
https://fm-digital-assets.fieldmuseum.org/613/620/V0081497F.jpg,V0081497F,M. O. Dillon & D. Dillon,M. O. Dillon,D. Dillon,3776,1 Nov 1983,1983-11-01,N/A,Galvezia elisensii M.O. Dillon & Quipuscoa,Galvezia elisensii,unsure and check,N/A,N/A,Peru,Arequipa,Caraveli,N/A,"Lomas of Atiquipa, ca. 10.5 km N of turn-off to Atiquipa. KM 584 S of Lima. ca. 150-200 m.","Lomas of Atiquipa, approximately 10.5 kilometers north of turn-off to Atiquipa, kilometer 584 south of Lima","Erect, glutinous shrub to 0.75 meters; flowers red",ca. 150-200 m.,N/A,NP 1940835,Mix of Handwritten and Typed,holotype,
https://fm-digital-assets.fieldmuseum.org/40/414/V0042484F.jpg,V0042484F,Poepp.,E. F. Poepp.,N/A,f. A. 7,1830,1830-00-00,N/A,Tetrorchidium rubrivenium Prepp. et Müll. genuinum Müll. Arg. det. F. Pax.,Tetrorchidium rubrivenium,F. Pax.,N/A,N/A,Peru,Huabaza,N/A,Jocach,"Jocach. Huabaza, 1830.",Jocach,N/A,N/A,N/A,875422 | 60787,Mix of Handwritten and Typed,Isosyntype,
https://fm-digital-assets.fieldmuseum.org/281/725/V0092855F.jpg,V0092855F,J. Campos & O. Diaz,J. Campos,O. Diaz,2490,9 Febrero 1996,1996-02-09,N/A,Amorimia camporum W.R. Anderson,Amorimia camporum,W. R. Anderson,2006,N/A,Peru,Cajamarca,San Ignacio,Distrito Chirinos,Entre La Catagua y Tablón.,Entre La Catagua y Tablón,Trepadora; flor amarilla,550-650 m,05°19'S 078°47'W,2296033,Mix of Handwritten and Typed,isotype,
https://fm-digital-assets.fieldmuseum.org/155/067/V0078059F.jpg,V0078059F,Tafalla collected with and for Ruiz & Pavon,J. Tafalla,H. Ruiz | J. Pavon,s.n.,1778-1788,1778-00-00,1788-00-00,Nolana spathulata R & P,Nolana spathulata,N/A,N/A,N/A,Peru,N/A,N/A,N/A,N/A,[precise locality unknown],N/A,N/A,N/A,V0078059F,Mix of Handwritten and Typed,isolectotype,
https://fm-digital-assets.fieldmuseum.org/281/732/V0092864F.jpg,V0092864F,Camilo Díaz y Antonio Peña 8808,C. Díaz,A. Peña,8808,4 Diciembre 1996,1996-12-04,N/A,Symplocos ovata Ståhl,Symplocos ovata,B. Ståhl,2010,N/A,Peru,Amazonas,Luya,Camporredondo,"Camporredondo, Tullanya, Pascana ""Pajaro Tigre""","Tullanya, Pascana, ""Pajaro Tigre""",Liana con frutos verdes Pedúnculos largos,2250-2360 m,N/A,2296023,Mix of Handwritten and Typed,Isotype,
https://fm-digital-assets.fieldmuseum.org/283/142/V0092900F.jpg,V0092900F,Ruiz et Pavón,H. Ruiz,J. A. Pavón,9/58,(1778-1788),1778-00-00,1788-00-00,Bomarea purpurea (Ruiz & Pavón) Herb.,Bomarea purpurea,F. Hofreiter,2007,Alstroemeria purpurea,Peru,N/A,N/A,Pillao,Pillao,Pillao,N/A,N/A,N/A,29201 | BOP 9/58,Mix of Handwritten and Typed,isotype,
https://fm-digital-assets.fieldmuseum.org/283/147/V0092906F.jpg,V0092906F,"V. Quipuscoa S., A. Sagástegui A., S. Leiva G., G. M. Bejarano C.",V. Quipuscoa,A. Sagástegui | S. Leiva | G. M. Bejarano,1378,20 agosto 1999,1999-08-20,N/A,"Lithospermum leymebambense WEND. & NURK, sp. nov. ined.",Lithospermum leymebambense,M. Weigend,September 2006,N/A,Peru,Amazonas,Chachapoyas,Leymebamba,"Carretera a Celendín, entre Ishpingo - Pomacocha. Bosque montano fragmentado. Distrito: Leymebamba.","Carretera a Celendín, between Ishpingo and Pomacocha",Bosque montano fragmentado,N/A,N/A,2211679,Mix of Handwritten and Typed,Isotype,
https://fm-digital-assets.fieldmuseum.org/283/156/V0092915F.jpg,V0092915F,COLL. LLEWELLYN WILLIAMS,L. Williams,N/A,6999,"JAN.-FEB., 1930",1930-01-00,1930-02-00,Norantea curviflora Macbr.,Marcgraviastrum mixtum,D. Giraldo-Cañas | H. G. Bedell,2010 | XI 1982,N/A,Peru,San Martin,N/A,San Roque,SAN ROQUE DEPT. SAN MARTIN,San Roque,Vine forest,ALT. 1350-1500 M.,N/A,624474 | F. No. 6999 | 65813,Mix of Handwritten and Typed,holotype,
https://fm-digital-assets.fieldmuseum.org/283/160/V0092918F.jpg,V0092918F,Ruiz et Pavón,H. Ruiz,J. Pavón,s.n.,1778-1788,1778-00-00,1788-00-00,Norantea obovata (R&P) G. Don,Marcgraviastrum obovatum,D. Giraldo-Cañas | H. G. Bedell,2010 | Utrecht VIII 1982,N/A,Peru,N/A,N/A,Chachapoi,Chachapoi,[precise locality unknown],N/A,N/A,N/A,V0092918F,Mix of Handwritten and Typed,Isotype,
https://fm-digital-assets.fieldmuseum.org/283/163/V0092921F.jpg,V0092921F,RODRIGUEZ,Rodriguez,N/A,s.n.,anno 1824,1824-00-00,N/A,Marcgraviastrum obovatum (G. Don) Bedell,Marcgraviastrum obovatum,J. Giraldo-Cañas | H. G. Bedell,2010 | Utrecht VIII 1982,Norantea obovata,Peru,N/A,N/A,N/A,"Hl. Peru, ined. Ex Herbario N. Peans.",Hl. Peru,N/A,N/A,N/A,V0092921F,Mix of Handwritten and Typed,Isotype,
https://fm-digital-assets.fieldmuseum.org/679/934/V0190732F.jpg,V0190732F,Robin B. Foster,R. B. Foster,N/A,8752,13 Sept. 1982,1982-09-13,N/A,Acidoton venezolanus (Pax. & Hoffm.) Webster,Acidoton venezolanus,M. J. Huft,1983,N/A,Peru,Huánuco,Pachitea,Puerto Inca,Puerto Inca to Sungaro. Foot trail between Río Pachitea and Río Sungaro. Forested low hills and ravines.,Foot trail between Río Pachitea and Río Sungaro,Forested low hills and ravines,Alt. 250-300 m,"75°00'W, 9°18'S",1921102,Mix of Handwritten and Typed,no type status,
https://fm-digital-assets.fieldmuseum.org/791/904/V0277652F.jpg,V0277652F,José Schunke Vigo,J. Schunke Vigo,N/A,6505,27 May 1964,1964-05-27,N/A,Sp. Tontelea attenuata Miers,Tontelea attenuata,J. A. Lombardi,IX 1999 2000,N/A,Peru,San Martín,N/A,N/A,"Quebrada Huicte (río Huallaga), in tall forest, 529 m alt.","Quebrada Huicte, río Huallaga",in tall forest,529 m alt.,N/A,1751666,Mix of Handwritten and Typed,no type status,
https://fm-digital-assets.fieldmuseum.org/586/997/V0152152F.jpg,V0152152F,Manuel Rimachi Y.,M. Rimachi,N/A,4268,"February 8, 1979",1979-02-08,N/A,Endlicheria anomala (Nees) Mez,Endlicheria anomala,A. Chanderbali,2001,Nectandra krukovii,Peru,Loreto,Requena,Saquena,"Rio Ucayali, Quebrada de Aucayacu, above Genaro Herrera, marginal forest, ""muena,"" 8 m, fr. green","Rio Ucayali, Quebrada de Aucayacu, above Genaro Herrera",marginal forest,8 m,N/A,2058606,Mix of Handwritten and Typed,no type status,
https://fm-digital-assets.fieldmuseum.org/802/677/V0277223F.jpg,V0277223F,SALVADOR FLORES P.,S. Flores,N/A,95(P1-2),Julio/82,1982-07-00,N/A,N.C. Poraqueiba Sericea Tul.,Poraqueiba sericea,T. Plowman,1985,N/A,Peru,Loreto,Maynas,N/A,AMPIYACU-PEVAS,Ampiyacu-Pevas,BOSQUE SECUNDARIO 35 Años,100 m.s.n.m.,N/A,V0277223F,Mix of Handwritten and Typed,no type status,
https://fm-digital-assets.fieldmuseum.org/694/649/V0195906F.jpg,V0195906F,Percy Núñez & S. Walsh,P. Núñez,S. Walsh,6330,29 October 1986,1986-10-29,N/A,Euphorbia heterophylla L.,Euphorbia heterophylla,M. J. Huft | Mark H. Mayfield,1987 | Oct. 1995,N/A,Peru,Cuzco,La Convención,Quillabamba,Salaspampa,Salaspampa,Herb 0.6 meters; fruits green,Alt. 1110 m.,N/A,V0195906F,Mix of Handwritten and Typed,no type status,
https://fm-digital-assets.fieldmuseum.org/904/057/V0290180F.jpg,V0290180F,Jose Schunke,J. Schunke,N/A,9560,30 Mayo 1977,1977-05-30,N/A,Hamelia patens Jacq.,Hamelia patens,J. Dwyer,1980,N/A,Peru,San Martin,Lamas,Alonso de Alvarado,"San Juan de Pacaiapa, km. 72 carretera Tarapoto-Moyobamba","San Juan de Pacaiapa, kilometer 72 carretera Tarapoto-Moyobamba","Arbusto de 1.5-2 m.; flores strong reddish orange, sepalos dark red, frutos dark red, de 1 cm. de largo, por 7 mm. de diametro, carnoso. En bosque secundario, con abundante luz solar",Alt. 1000-1050 m.,N/A,1872133,Mix of Handwritten and Typed,no type status,
https://fm-digital-assets.fieldmuseum.org/674/331/V0201636F.jpg,V0201636F,"G. Moore, L. Luna, J. Ruiz",G. Moore,L. Luna | J. Ruiz,138,18-8-81,1981-08-18,N/A,Ficus maxima P. Miller,Ficus maxima,W. C. Burger,1982,N/A,Peru,Loreto,N/A,N/A,"Quistococha, 14km north of Iquitos","Quistococha, fourteen kilometers north of Iquitos","Tree of twenty meters Important medicinal plant The ""milk"" from the bark is drunk",600m elev,UTM grid: 18-8-81,1923146,Mix of Handwritten and Typed,no type status,
https://fm-digital-assets.fieldmuseum.org/786/584/V0251887F.jpg,V0251887F,E. P. Killip A. C. Smith,E. P. Killip,A. C. Smith,26721,"July 20, 21, 1929",1929-07-20,1929-07-21,Psychotria racemosa (Aubl.) Willd.,Psychotria racemosa,N/A,N/A,N/A,Peru,Junín,N/A,N/A,"Cahuapanas, on Río Pichis; alt. about 340 meters; dense forest",Cahuapanas on Río Pichis,dense forest,alt. about 340 meters,N/A,607534,Mix of Handwritten and Typed,no type status,
https://fm-digital-assets.fieldmuseum.org/750/898/V0243915F.jpg,V0243915F,M. O. Dillon and I. Sánchez V.,M. O. Dillon,I. Sánchez V.,6310,22 Jul 1991.,1991-07-22,N/A,Wissadula grandifolia Baker ex Rusby,Wissadula grandifolia,P. Fryxell,1993,N/A,Peru,Piura,Huancabamba,Canchaque,ca. 2 km N of Canchaque. ca. 1450 m alt. [5°24'S; 79°36'W],approximately 2 kilometers north of Canchaque,Shrubs to 1 meter flowers yellow,ca. 1450 m alt.,[5°24'S; 79°36'W],2119563,Mix of Handwritten and Typed,no type status,
https://fm-digital-assets.fieldmuseum.org/678/428/V0187051F.jpg,V0187051F,COLL. J. FRANCIS MACBRIDE,J. F. Macbride,N/A,4806,"JUNE 23, 1923",1923-06-23,N/A,Croton Baillonianus,Croton Baillonianus,N/A,N/A,N/A,Peru,Central Andes,Estacion near Pozuzo,Cueva Grande,CUEVA GRANDE ESTACION NEAR POZUZO,Cueva Grande Estacion near Pozuzo,Sunny brushy slope Open brushy 4-5 feet shrub,ABOUT 3500 FEET,N/A,V0187051F,Typed,no type status,
https://fm-digital-assets.fieldmuseum.org/776/646/V0258426F.jpg,V0258426F,Ar. Sagástegui A.,A. Sagástegui,N/A,3820,19 Junio 1962,1962-06-19,N/A,Geranium chilloense Kunth,Geranium chilloense,C. Aedo | B. Halfdan-Nielsen,2007 | 1993,N/A,Peru,Cajamarca,Contumazá,Luque | Trinidad,"Luque, Trinidad, Prov. Contumaza, Dpto. Cajamarca","Luque, Trinidad",Ladera abierta,"3,250 m.s.m.",N/A,1684365,Mix of Handwritten and Typed,no type status,
https://fm-digital-assets.fieldmuseum.org/686/796/V0193750F.jpg,V0193750F,Leg. J. Mostacero L. S. Leiva G. F. Mejía C. F. Peláez P. J. Guevara B.,J. Mostacero,S. Leiva | F. Mejía | F. Peláez | J. Guevara,1640,14-XI-1986,1986-11-14,N/A,Dalechampia aristolochiifolia Kunth,Dalechampia aristolochiifolia,M. J. Huft,1992,N/A,Peru,Cajamarca,Cutervo,Sócota,La Pucarilla Sócota San Andrés,La Pucarilla San Andrés,Laderas al borde de carretera,2450 m.s.m.,N/A,199382,Mix of Handwritten and Typed,no type status,
https://fm-digital-assets.fieldmuseum.org/738/306/V0228073F.jpg,V0228073F,"SPICHIGER, R. & P.-A. LOIZEAU",R. Spichiger,P.-A. Loizeau,3012,10-4-86,1986-04-10,N/A,Pourouma guianensis ssp. guianensis,Pourouma guianensis ssp. guianensis,N/A,N/A,N/A,Peru,Loreto,N/A,Jenaro Herrera,"Centre de Recherche de Jenaro Herrera, Loreto, Pérou (73° 45'W-4° 55'S)",Centre de Recherche de Jenaro Herrera,"Bosque de terraza alta, suelo arenoso",Alt. 125 m.,(73° 45'W-4° 55'S),2027582,Mix of Handwritten and Typed,no type status,
https://fm-digital-assets.fieldmuseum.org/494/920/V0100062F.jpg,V0100062F,"G. KLUG, Collector",G. Klug,N/A,660,"Dec. October November, 1929",1929-10-00,1929-12-00,Batesia floribunda Benth.,Batesia floribunda,H. Harms,N/A,N/A,Peru,Loreto,N/A,Iquitos,"Mishuyacu, near Iquitos, alt. 100 meters; forest","Mishuyacu, near Iquitos",forest,alt. 100 meters,N/A,789,Mix of Handwritten and Typed,no type status,
https://fm-digital-assets.fieldmuseum.org/655/199/V0198402F.jpg,V0198402F,"coll. T. R. Dudley, 12063",T. R. Dudley,N/A,12063,24 Aug. 1968,1968-08-24,N/A,Dendrophthora sp. not D. mesembryanthemifolia Det. Job Kuijt 15 Dec. 1984,Dendrophthora sp.,J. Kuijt,15 Dec. 1984,N/A,Peru,Ayacucho,La Mar,N/A,"eastern Massif of the Cordillera Central opposing the Cordillera Vilcabamba between Tambo San Miguel, Ayna, and the Hacienda Luisiana, c. 73°53'W; 12°45'S","eastern Massif of the Cordillera Central opposing the Cordillera Vilcabamba between Tambo San Miguel, Ayna, and the Hacienda Luisiana","Parasitic; foliage yellowish-green; calyx bright orange; fr. translucent pink, waxy in dense and isolated, 40 to 50 feet high elfin hepatic forest at timberline",3220 meters,c. 73°53'W; 12°45'S,1721727,Mix of Handwritten and Typed,no type status,
https://fm-digital-assets.fieldmuseum.org/675/982/V0225274F.jpg,V0225274F,"G. KLUG, Collector",G. Klug,N/A,1595,April 11 1931.,1931-04-11,N/A,Ficus llewelynii Standl.,Ficus trigona,M. Vásquez Avila,Utrecht 1983,N/A,Peru,Loreto,N/A,Iquitos,"Mishuyacu, near Iquitos, alt. 100 meters; forest","Mishuyacu, near Iquitos",forest,alt. 100 meters,N/A,V0225274F,Mix of Handwritten and Typed,no type status,
https://fm-digital-assets.fieldmuseum.org/736/767/V0224820F.jpg,V0224820F,Mildred E. Mathias Dermot Taylor,M. E. Mathias,D. Taylor,5576,18 July 1961,1961-07-18,N/A,"MALPIGHIACEAE, BUT I CANNOT NAME IT STERILE, NOT EVEN TO GENUS.",Malpighiaceae,W. R. Anderson,1983,N/A,Peru,Loreto,N/A,Requena,vicinity of Requena,vicinity of Requena,N/A,N/A,N/A,1733057,Mix of Handwritten and Typed,no type status,
https://fm-digital-assets.fieldmuseum.org/939/013/V0304780F.jpg,V0304780F,José Schunke Vigo,J. Schunke Vigo,N/A,6677,17 Dec. 1964,1964-12-17,N/A,Paullinia bracteosa Radlk.,Paullinia bracteosa,D. R. Simpson,"Oct., 1970",N/A,Peru,Loreto,N/A,N/A,"Quebrada de Maquia, (Contamana) in tall forest, 220 m alt.","Quebrada de Maquia, Contamana",tall forest,220 m alt.,N/A,1717601,Mix of Handwritten and Typed,no type status,
https://fm-digital-assets.fieldmuseum.org/785/493/V0238260F.jpg,V0238260F,COLL. LLEWELLYN WILLIAMS,L. Williams,N/A,3363,SEPT.-OCT. 1929,1929-09-00,1929-10-00,Payplotria viridis R.E.P.,Payplotria viridis,N/A,N/A,N/A,Peru,Loreto,N/A,N/A,ALTO RIO ITAYA,Alto Rio Itaya,Forest of Panias,ALT. 145 M.,N/A,614121,Mix of Handwritten and Typed,no type status,
https://fm-digital-assets.fieldmuseum.org/736/994/V0225047F.jpg,V0225047F,"Coll. T. Plowman, A. Sagástegui A., J. Mostacero L., F. R. Mejía & F. Peláez",T. Plowman,A. Sagástegui A. | J. Mostacero L. | F. R. Mejía | F. Peláez,14242,12 July 1986,1986-07-12,N/A,Abutilon mollissimum (Cav.) Sweet dup. det. P. Fryxell 1987.,Abutilon mollissimum,P. Fryxell,1987,N/A,Peru,Cajamarca,Jaén,N/A,"Road from Pucará to Chamaya, km. 21 east of Pucará, along Río Huancabamba","Road from Pucará to Chamaya, twenty one kilometers east of Pucará, along Río Huancabamba",Dry scrub forest on steep slopes,Alt. 700 m.,N/A,V0225047F,Mix of Handwritten and Typed,no type status,
https://fm-digital-assets.fieldmuseum.org/738/506/V0239614F.jpg,V0239614F,Magda Chanco with Michelle McMahon and Larry Hufford,M. Chanco,M. McMahon | L. Hufford,s.n.,14 April 2003,2003-04-14,N/A,Abutilon sp.,Abutilon sp.,N/A,N/A,N/A,Peru,Cajamarca,N/A,N/A,Chilete-San Pablo road about 15 km from Chilete,Chilete-San Pablo road about 15 kilometers from Chilete,N/A,3614 feet elevation,S7° 10.554' W78° 49.665',2253555,Mix of Handwritten and Typed,no type status,
https://fm-digital-assets.fieldmuseum.org/1611/031/V0414961F.jpg,V0414961F,Marcos Rios Tony Mori Nigel Pitman Luis Torres Corine Vriesendorp,M. Rios,T. Mori | N. Pitman | L. Torres | C. Vriesendorp,4399,13 octubre 2014,2014-10-13,N/A,Andira macrothyrsa Ducke,Andira macrothyrsa,unsure and check,N/A,N/A,Peru,Loreto,Requena,Soplín,"Quebrada Yanayacu- Rio Blanco. Campamento Wiswincho del inventario rápido #27, de la región Tapiche-Blanco.",Quebrada Yanayacu Rio Blanco Campamento Wiswincho del inventario rápido number 27 de la región Tapiche-Blanco,Bosque de Planicie inundable de aguas blancas,Alt. 90-110 m. / Alt. 90-110 msnm.,"05°48'33.5""S 73°51'53.8""W",2318558,Mix of Handwritten and Typed,no type status,
https://fm-digital-assets.fieldmuseum.org/1611/032/V0414962F.jpg,V0414962F,Marcos Ríos Tony Mori Nigel Pitman Luis Torres Corine Vriesendorp,M. Ríos,T. Mori | N. Pitman | L. Torres | C. Vriesendorp,4399,13 octubre 2014,2014-10-13,N/A,Andira macrothyrsa Ducke,Andira macrothyrsa,N/A,N/A,N/A,Peru,Loreto,Requena,Soplín,"Quebrada Yanayacu- Río Blanco. Campamento Wiswincho del inventario rápido #27, de la región Tapiche-Blanco",Quebrada Yanayacu- Río Blanco Campamento Wiswincho del inventario rápido number 27 de la región Tapiche-Blanco,Bosque de Planicie Inundable de aguas blancas,Alt. 90-110 msnm,"05°48'33.5""S 73°51'53.8""W",V0414962F,Mix of Handwritten and Typed,no type status,
https://fm-digital-assets.fieldmuseum.org/1743/655/V0462893F.jpg,V0462893F,Ynes Mexia,Y. Mexia,N/A,8265,"Oct. 9, 1936",1936-10-09,N/A,Piper callosum Ruiz & Pavon,Piper callosum,W. Trelease,N/A,N/A,Peru,Huanuco,Huanuco,N/A,Near confluence Rio Cayumba with Huallaga; forested slope above road,Near confluence Rio Cayumba with Huallaga; forested slope above road,"forested slope above road; perennial herb 0.8-2 meters high; stems weak; often forms small thickets; leaf blade joins petiole at angle, so often hangs perpendicular, shedding rain; abundant",Alt. 805 m.,N/A,V0462893F,Mix of Handwritten and Typed,no type status,
https://fm-digital-assets.fieldmuseum.org/1743/657/V0462895F.jpg,V0462895F,Ynes Mexia,Y. Mexia,N/A,6157,"Nov. 24, 1931",1931-11-24,N/A,Piper callosum Ruiz & Pav.,Piper callosum,W. Trelease,N/A,N/A,Peru,Loreto,N/A,N/A,Above Pongo de Manseriche,Above Pongo de Manseriche right bank of mouth of Rio Santiago,Dense forest,Alt. 200 m.,N/A,872277,Typed,no type status,
https://fm-digital-assets.fieldmuseum.org/1743/506/V0441679F.jpg,V0441679F,"Coll. Donald R. Simpson 565 January 4, 1968 & José Schunke V.",D. R. Simpson,J. Schunke V.,565,"January 4, 1968",1968-01-04,N/A,"Ipomoea carnea Jacq. (det. D. Simpson, Jan. 1969)",Ipomoea carnea,D. R. Simpson,Jan. 1969,N/A,Peru,Tumbes,Tumbes,Pampas de Hospital,"Bosque Nacional de Tumbes: Región de ""bosque muy seco tropical"" (sensu Tosi, 1960) cerca de El Caucho o entre El Caucho y Pampas de Hospital",Bosque Nacional de Tumbes region near El Caucho or between El Caucho and Pampas de Hospital,"Common from the dry, deciduous forest zone, downward into the very dry thorn-scrub",N/A,N/A,1897948,Mix of Handwritten and Typed,no type status,
https://fm-digital-assets.fieldmuseum.org/1743/504/V0441677F.jpg,V0441677F,Coll. T. Plowman & P. M. Jørgensen 6 December 1981 | Coll. T. Plowman & P. M. Rury 6 December 1981,T. Plowman,P. M. Jørgensen | P. M. Rury,11105,6 December 1981,1981-12-06,N/A,Ipomoea carnea Jacq. det. A. McDonald 1983.,Ipomoea carnea,A. McDonald,1983,N/A,Peru,Huánuco,Huánuco,Huánuco,8 km. northeast of Huánuco on road to Tingo María,8 kilometers northeast of Huánuco on road to Tingo María,Scandent shrub on roadside near houses Stem with milky sap Fls pink,Alt. 1750 m.,"Approx. 9°52'S., 76°11'W.",1896900,Mix of Handwritten and Typed,no type status,
https://fm-digital-assets.fieldmuseum.org/1684/390/V0401892F.jpg,V0401892F,Robin B. Foster 4240,R. B. Foster,N/A,4240,"Aug. 19, 1978",1978-08-19,N/A,Aechmea corymbosa (Mart. ex Schult. & Schult.f.) Mez,Aechmea corymbosa,E. J. Gouda,2018-02-05,N/A,Peru,Loreto,Maynas,N/A,Rio Nanay Caseria Mishana 30KM SW of Iquitos,Rio Nanay Caseria Mishana 30 kilometers southwest of Iquitos,Terrestrial in white sand scrub bracts bright red-pink flowers white Forested hills on white or brown sand soils,N/A,N/A,1852637,Mix of Handwritten and Typed,no type status,
https://fm-digital-assets.fieldmuseum.org/1766/135/V0460617F.jpg,V0460617F,"J. Farfán, L. Valenzuela, I. Huamantupa, A. Carazas, W. Argandoña",J. Farfán,L. Valenzuela | I. Huamantupa | A. Carazas | W. Argandoña,1262,23 Octubre 2006,2006-10-23,N/A,Anthurium clavigerum Poepp.,Anthurium clavigerum,T. B. Croat,2008,N/A,Peru,Cusco,La Convención,Vilcabamba,"Chuanquiri camino a Riobamba, Bosque secundario","Chuanquiri on the road to Riobamba, secondary forest","Bosque Secundario. Epífita, hasta 70 cm, espádice rojo, espata verde",1009 m,"12°47'15""S 073°10'10""W",2315782,Mix of Handwritten and Typed,no type status,
https://fm-digital-assets.fieldmuseum.org/1826/292/V0469643F.jpg,V0469643F,Thomas B. Croat,T. B. Croat,N/A,18210,"July 18, 1972",1972-07-18,N/A,Agave americana L.,Agave americana,N/A,N/A,N/A,Peru,Loreto,N/A,N/A,Sandy area 12.5 km. SW of Iquitos on road to Lago Quisto-cocha,12.5 kilometers southwest of Iquitos on road to Lago Quisto-cocha,Sandy area,N/A,N/A,1759629,Mix of Handwritten and Typed,no type status,
https://fm-digital-assets.fieldmuseum.org/227/821/V0075820F.jpg,V0075820F,"coll. T. R. Dudley,",T. R. Dudley,N/A,10783,4 July 1968,1968-07-04,N/A,Thelypteris dudleyi A. R. Smith,Thelypteris dudleyi,A. R. Smith,Date 1989,N/A,Peru,Cuzco,La Convencion,N/A,"just above the cloud forest, between camp 4 & 5; almost to Camp 5; at c. 2825 m","just above the cloud forest, between camp 4 and 5, almost to Camp 5","Common, terrestrial type with bright green foliage and purplish-black and glossy petioles; saxatile on almost vertical rock faces; in full sun on old open landslide; one of the commonest colonizers of landslide",at c. 2825 m,12° 37'; 73° 32',65658,Mix of Handwritten and Typed,isotype,
https://fm-digital-assets.fieldmuseum.org/227/835/V0075836F.jpg,V0075836F,S. Knapp,S. Knapp,N/A,5881,4 July 1982,1982-07-04,N/A,TRICHIPTERIS PINNATA Stolze,Trichipteris pinnata,R. G. Stolze,1984,N/A,Panama,Colón,N/A,N/A,"Santa Rita Ridge road, 21-26 km from Transisthmian Highway. Tropical wet forest. 500-550 m. 9°25'N, 79°37'W","Santa Rita Ridge road, 21 to 26 kilometers from Transisthmian Highway",Tropical wet forest. terrestrial. Sori brown,500-550 m,"9°25'N, 79°37'W",1932768,Mix of Handwritten and Typed,Isotype,
https://fm-digital-assets.fieldmuseum.org/1121/693/C0616676F.jpg,C0616676F,COLJ. DORANTES | COL. J. DORANTES,J. Dorantes,N/A,455,01/01/1972,1972-01-01,N/A,WOODWARDIA SPINULOSA MART. & GAL.,Woodwardia spinulosa,N/A,N/A,N/A,Mexico,Veracruz,Jalapa,Xico,LTO DEL GATO.,Lto del Gato,BOSQUE CADUCIFOLIO SUELO ROJO ARCILLOSO MUY ABUNDANTE PERENNE HELECH VEG. RIPARIA VEG.PRIMARIA,N/A,MAPA 38.5 29.0,1730602 | P005051,Mix of Handwritten and Typed,no type status,
https://fm-digital-assets.fieldmuseum.org/1086/214/C0644079F.jpg,C0644079F,"A. Monteagudo, C. Mateo, G. Ortiz. 4909",A. Monteagudo,C. Mateo | G. Ortiz,4909,10 Abril 2003,2003-04-10,N/A,Blechnum occidentalis L.,Blechnum occidentalis,H. van der Werff,2005,N/A,Peru,Pasco,Oxapampa,Distrito Pozuzo,"Parque Nacional Yanachaga Chemillen Pozuzo Sector Pan de Azúcar, Zona de Recuperación. Bosque ribereño.","Parque Nacional Yanachaga Chemillen Pozuzo Sector Pan de Azúcar, Zona de Recuperación","Bosque ribereño Helecho terrestre adpreso a la roca, soros marrones",1100-1250m,10°15'S 75°13'W,C0644079F | 2287355,Mix of Handwritten and Typed,no type status,
https://fm-digital-assets.fieldmuseum.org/1098/449/C0658238F.jpg,C0658238F,Ynes Mexia,Y. Mexia,N/A,8066,"May 14, 1936",1936-05-14,N/A,Adiantum pulverulentum L.,Adiantum pulverulentum,E. B. Copeland,N/A,N/A,Peru,Cuzco,La Convencion,N/A,upper valley of Rio Sambray; western affluent of Vilcanota; along stream in virgin forest,upper valley of Rio Sambray; western affluent of Vilcanota; along stream,virgin forest,Alt. about 1800 m,N/A,C0658238F,Mix of Handwritten and Typed,no type status,
https://fm-digital-assets.fieldmuseum.org/1079/847/C0637474F.jpg,C0637474F,J.I. Calzada,J. I. Calzada,N/A,5759,11-enero-1980,1980-01-11,N/A,Diplazium francens Liehm.,Diplazium francens,R. G. Stolze,1983,Liquidambar styraciflua | Quercus sp | Alnus sp,Mexico,Veracruz,Xico,N/A,Rancho de Coatitilan,Rancho de Coatitilan,Bosque Caducifolio Muy húmedo Café arcilloso,1820 m.s.n.m.,19° 29' N 97° 04' W,1894963 | C0637474F,Mix of Handwritten and Typed,no type status,
https://fm-digital-assets.fieldmuseum.org/1079/274/C0636906F.jpg,C0636906F,Antonio Molina R.,A. Molina,N/A,1427,"Nov. 4, 1948",1948-11-04,N/A,Thelypteris piloso-hispida (Hook) Morton,Thelypteris rudis,A. R. Smith,1974,N/A,Honduras,Morazan,N/A,N/A,"norte de la Mt. Uyuca, caminos Tatumbla, Labranza y Quebrada El Granadillo, sobre la Mt. Uyuca, Drainage of the Río Yeguare, at about Longitude 87° W. and Latitude 14° N.","north of Mount Uyuca, Tatumbla, Labranza and Quebrada El Granadillo, on Mount Uyuca, drainage of the Rio Yeguare",Helecho arboreo. Bosque lluvioso,Alt. 1800 m.,at about Longitude 87° W. and Latitude 14° N.,1394536 | C0636906F,Mix of Handwritten and Typed,no type status,
https://fm-digital-assets.fieldmuseum.org/1072/569/C0665739F.jpg,C0665739F,"B.León, K.Young & N.Huapaya",B. León,K. Young | N. Huapaya,2911,10 setiembre 1991,1991-09-10,N/A,Thelypteris euchlora (Sod.) Reed,Thelypteris euchlora,R. G. Stolze,1992,N/A,Peru,Cuzco,Paucartambo,N/A,"Bosque de Nubes, Río La Unión. En ladera.","Bosque de Nubes, Río La Unión, on slope","Hierba, rizoma masivo rastrero, hojas 1.5 m largo, pinnas reducidas base nectarios presentes",1700-1800 m,N/A,C0665739F,Mix of Handwritten and Typed,no type status,
https://fm-digital-assets.fieldmuseum.org/1137/337/C0626158F.jpg,C0626158F,"Louis O. Williams, Antonio Molina R., Terua P. Williams, Dorothy N. Gibson, and Chester Laskowski",L. O. Williams,A. Molina R. | T. P. Williams | D. N. Gibson | C. Laskowski,27621,"January 15, 1965",1965-01-15,N/A,Polypodium blepharodes Maxon,Grammitis blepharodes,R. Stolze,1965,N/A,Nicaragua,Matagalpa,N/A,Sta. María de Ostuma,"Disparate de Potter, Sta. María de Ostuma, Cordillera Central de Nicaragua, Department of Matagalpa","Disparate de Potter, Cordillera Central de Nicaragua","Epiphyte on mossy tree Montane rain forest, or cloud forest",alt. 1600 m.,N/A,1626179,Mix of Handwritten and Typed,no type status,
https://fm-digital-assets.fieldmuseum.org/1072/487/C0665657F.jpg,C0665657F,Ken Young & Mark Eisenberg 265,K. Young,M. Eisenberg,265,20 April 1981,1981-04-20,N/A,Thelypteris (subg. Amauropelta) cheilanthoides (Kunze) Proctor,Thelypteris cheilanthoides,A. R. Smith,1989,N/A,Peru,Cuzco,La Convencion,N/A,"Just east of Quillabamba. Finca Chichina; cocoa, coffee, yuca, mangoes, bananas, corn crops grown.",Just east of Quillabamba Finca Chichina,"cocoa, coffee, yuca, mangoes, bananas, corn crops grown Terrestrial",Alt. 1300-1400 m.,N/A,2038794 | C0665657F,Mix of Handwritten and Typed,no type status,
https://fm-digital-assets.fieldmuseum.org/330/762/C0045536F.jpg,C0045536F,Thomas G. Lammers,T. G. Lammers,N/A,10674,9 May 1998,1998-05-09,N/A,Dryopteris carthusiana (Vill.) H.P. Fuchs,Dryopteris carthusiana,N/A,N/A,N/A,United States of America,Illinois,Cook,Palos,"Swallow Cliffs Woods Forest Preserve, southwest of the jct. of US Hwy 45 and State Hwy 83","Swallow Cliffs Woods Forest Preserve, southwest of the junction of United States Highway 45 and State Highway 83",Local in mesic maple-basswood forest on steep slopes of deep ravine south of toboggan run,N/A,N/A,C0045536F,Mix of Handwritten and Typed,no type status,
https://fm-digital-assets.fieldmuseum.org/1139/892/C0627900F.jpg,C0627900F,Louis O. Williams Antonio Molina R. Albertina R. Molina,L. O. Williams,A. Molina R. | A. R. Molina,12562,"Mayo 22, 1963",1963-05-22,N/A,Polypodium montigenum Maxon,Polypodium montigenum,A. Molina R.,N/A,N/A,El Salvador,Santa Ana,N/A,N/A,Epifita. Bosque abierto de Montaña Montecristo,Montaña Montecristo,Epifita. Bosque abierto de Montaña,Alt. 2000 m.,N/A,1661895 | C0627900F,Mix of Handwritten and Typed,no type status,
https://fm-digital-assets.fieldmuseum.org/217/945/V0082645F.jpg,V0082645F,M. O. Dillon,M. O. Dillon,N/A,5376,21 Dec 1987,1987-12-21,N/A,Notholaena mollis Kunze,Notholaena mollis,unsure and check,N/A,N/A,Chile,Antofagasta,Antofagasta,Taltal,"Cerro Perales, ca. 5 km E of Taltal","Cerro Perales, approximately 5 kilometers east of Taltal","Terrestrial, growing in rock crevices",600-850 m alt.,"(25° 25' S, 70° 25' W)",2010984,Mix of Handwritten and Typed,no type status,
https://fm-digital-assets.fieldmuseum.org/1073/191/C0666362F.jpg,C0666362F,ROLLA M. & ALICE F. TRYON,R. M. Tryon,A. F. Tryon,6566,23 October 1965,1965-10-23,N/A,"Thelypteris rufa (Poir.) A.R.Smith, ined.",Thelypteris rufa,A. R. Smith,"1979, 1989",Thelypteris lindigii,Peru,Ancash,N/A,N/A,"Road from Huaras to Cusma, west valley.","Road from Huaras to Cusma, west valley",damp shaded rocks,2800 m.,N/A,C0666362F | C83306B,Mix of Handwritten and Typed,no type status,
https://fm-digital-assets.fieldmuseum.org/1073/037/C0666207F.jpg,C0666207F,E. P. Killip Collector No. 29724 A. C. Smith,E. P. Killip,A. C. Smith,29724,"Sep 20-22, 1929",1929-09-20,1929-09-22,Thelypteris pennata (Poiret) C. Morton,Thelypteris pennata,A. R. Smith,1989,N/A,Peru,Loreto,N/A,Soledad,"Soledad, on Rio Itaya, at about 130 meters; dense forest",Soledad on Rio Itaya,dense forest,about 130 meters,N/A,1520068 | C0666207F,Mix of Handwritten and Typed,no type status,
https://fm-digital-assets.fieldmuseum.org/1073/036/C0666206F.jpg,C0666206F,F. P. KILLIP Collectors A. C. SMITH,F. P. Killip,A. C. Smith,29437,"September 18, 1929",1929-09-18,N/A,Thelypteris pennata (Poiret) C. Morton,Thelypteris pennata,A. R. Smith,1989,N/A,Peru,Loreto,N/A,San Antonio,"San Antonio, on Rio Itaya alt. about 110 meters, dense forest",San Antonio on Rio Itaya,dense forest,alt. about 110 meters,N/A,1520667 | C0666206F,Mix of Handwritten and Typed,no type status,
https://fm-digital-assets.fieldmuseum.org/1073/033/C0666203F.jpg,C0666203F,COLL. MACBRIDE & FEATHERSTONE,J. F. Macbride,W. Featherstone,1622,"JULY 8-22, 1922",1922-07-08,1922-07-22,Thelypteris pavoniana (Klf.) Tryon,Thelypteris pavoniana,A. R. Smith,1979,N/A,Peru,N/A,N/A,Mito,MITO,Mito,Summit dirt ledges of the grass-shrub formation,ABOUT 9000 FT.,N/A,518129 | C0666203F,Mix of Handwritten and Typed,no type status,
https://fm-digital-assets.fieldmuseum.org/1073/032/C0666202F.jpg,C0666202F,"J. J. WURDACK No. 705 Collected in collaboration with the Museo de Historia Natural ""Javier Prado"", Lima, assisted by a grant from the National Science Foundation",J. J. Wurdack,"Museo de Historia Natural ""Javier Prado"" | National Science Foundation",705,1 June 1962,1962-06-01,N/A,Thelypteris (Thelypteris) pavoniana (Klotzsch),Thelypteris pavoniana,D. B. Lellinger | A. R. Smith,"1966 | 1979, 1989",N/A,Peru,Amazonas,Chachapoyas,N/A,Upper slopes of Puma-urcu east-southeast of Chachapoyas,Upper slopes of Puma-urcu east-southeast of Chachapoyas,"On banks, locally frequent",elev. 2700-3000 m,N/A,1647265 | C0666202F,Mix of Handwritten and Typed,no type status,
https://fm-digital-assets.fieldmuseum.org/1072/942/C0666112F.jpg,C0666112F,ROLLA M. TRYON & ALICE F. TRYON,R. M. Tryon,A. F. Tryon,5202,"Aug. 13, 1956",1956-08-13,N/A,Thelypteris opulenta (Kaulf.) Fosberg,Thelypteris opulenta,A. R. Smith,"1979, 1990",N/A,Peru,Loreto,Maynas,N/A,"Rio Itaya, 10 km. s. of Iquitos.","Rio Itaya, 10 kilometers south of Iquitos",In old banana planting,N/A,N/A,1587072 | C0666112F,Mix of Handwritten and Typed,no type status,
https://fm-digital-assets.fieldmuseum.org/1081/508/C0639123F.jpg,C0639123F,"Louis O. Williams, Antonio Molina R. and Terua P. Williams",L. O. Williams,A. Molina R. | T. P. Williams,23634,"January 8-15, 1963",1963-01-08,1963-01-15,Lycopodium clavatum L.,Lycopodium clavatum,C. V. Morton | D. B. Lellinger,1964,N/A,Nicaragua,Matagalpa,N/A,N/A,"Cloud forest area, Sta. María de Ostuma, Cordillera Central de Nicaragua between Matagalpa and Jinotega, Department of Matagalpa","Cloud forest area, Sta. María de Ostuma, Cordillera Central de Nicaragua between Matagalpa and Jinotega",Terrestrial on open bank,alt. 1300-1500 meters,N/A,1604338 | C0639123F,Mix of Handwritten and Typed,no type status,
https://fm-digital-assets.fieldmuseum.org/1748/926/C0675553F.jpg,C0675553F,"John T. Atwood, Jr.",J. T. Atwood,N/A,77105,8 Feb. 1977,1977-02-08,N/A,Adiantum trapeziforme L.,Adiantum crabera,M. R. McCarthy,2012,N/A,Nicaragua,Granada,N/A,N/A,Volcan Mombacho. Lower cloud forest near finca Cutirre.,Volcan Mombacho near finca Cutirre,Lower cloud forest,N/A,N/A,1868242,Mix of Handwritten and Typed,no type status,
https://fm-digital-assets.fieldmuseum.org/1749/002/C0675619F.jpg,C0675619F,H. et al.,H.,et al.,7644,4-21-36,1936-04-21,N/A,Adiantum eubrachium McCarthy & Hickey,Adiantum exuberans,M. R. McCarthy,2012,N/A,Mexico,México,Temascaltepec,Pantoja,"Locality Pantoja District Temascaltepec, Méx. Mexico.",Pantoja,dry barranca,N/A,N/A,954869,Mix of Handwritten and Typed,no type status,
https://fm-digital-assets.fieldmuseum.org/1751/323/C0355438F.jpg,C0355438F,Leg. R.A. Maas Geesteranus no. 5744 d.d. 12-VIII-1949,R. A. Maas Geesteranus,N/A,5744,12-VIII-1949,1949-08-12,N/A,Asplenium sandersonii Hook.,Asplenium sandersonii,R. Faden,1976,Conopharyngia holstii,Kenya,Nyanza Province,Kericho,N/A,"South Western Mau Forest Reserve, camp 8","South Western Mau Forest Reserve, camp 8","riparian-woodland along the river Itare, among others with Conopharyngia holstii",1920 m s.m.,"lat. 0°36'30"" S., long. 35°18'20"" E.",1445440 | C0355438F,Mix of Handwritten and Typed,no type status,
https://fm-digital-assets.fieldmuseum.org/1824/625/C0359489F.jpg,C0359489F,"M. Véliz con J. M. Véliz, J. Charco, H. Sains, J. Lopez y R. Esteban",M. Véliz,J. M. Véliz | J. Charco | H. Sains | J. Lopez | R. Esteban,MV 16199,22/XI/2005,2005-11-22,N/A,Lophosoria quadripinnata (J.F. Gmel.) C. Chr. var quadripinnata,Lophosoria quadripinnata var quadripinnata,M. Véliz,24/XI/2005,Quercus sp,Guatemala,Jalapa,N/A,Aldea San Raymundo,"Aldea San Raymundo, rio Manzanillos","Aldea San Raymundo, rio Manzanillos","Helecho muy frecuente, con frondes compuestos, glaucos en el envés, creciendo dentro de bosque de Quercus sp",Altitud 2308 msnm,"14° 33' 43.7"" N, 90° 06' 19.70"" O",2298970 | C0359489F,Mix of Handwritten and Typed,no type status,
https://fm-digital-assets.fieldmuseum.org/1752/612/C0662895F.jpg,C0662895F,"CHAS. F. MILLSPAUGH, M. D.",C. F. Millspaugh,N/A,893,JAN. 28-FEB. 6.,1899-01-28,1899-02-06,Asplenium dentatum L.,Asplenium dentatum,N/A,N/A,N/A,Jamaica,N/A,N/A,Port Antonio,PORT ANTONIO; JAN. 28-FEB. 6.,Port Antonio,N/A,N/A,N/A,C0662895F,Typed,no type status,
https://fm-digital-assets.fieldmuseum.org/1847/286/C0363828F.jpg,C0363828F,T. G. YUNCKER,T. G. Yuncker,N/A,"17,429","Nov. 17, 1957",1957-11-17,N/A,Lycopodium cernuum L.,Lycopodium cernuum,N/A,N/A,N/A,Jamaica,St. Andrew,N/A,N/A,near Bellevue,near Bellevue,"Scrambling over side of cut, along trail",Alt. 3000-4000 ft.,N/A,C0363828F,Mix of Handwritten and Typed,no type status,
https://fm-digital-assets.fieldmuseum.org/1847/445/C0363985F.jpg,C0363985F,Carvalho,Carvalho,N/A,2092,25-VII-1986,1986-07-25,N/A,Lycopodiella cernua (L.) Pic.-Serm.,Lycopodiella cernua,J. Fernández Casas,1991,N/A,Equatorial Guinea,Bioko,N/A,Malabo,"Malabo - Basile, km 13, cerca de Basile, 32NMK7808, 390 m, márgenes de la carretera",kilometer 13 near Basile margins of the road,Postrada Forma pequeñas colonias dispersas,390 m,32NMK7808,C0363985F,Mix of Handwritten and Typed,no type status,
https://fm-digital-assets.fieldmuseum.org/1847/568/C0363442F.jpg,C0363442F,Henk van der Werff,H. van der Werff,N/A,11699,12 June 1990,1990-06-12,N/A,Diplazium assimile (Endl.) Bedl.,Diplazium assimile,H. van der Werff,1991,N/A,Australia,Queensland,N/A,N/A,"Boonjee logging area, at base of Mt. Bartle Frere.","Boonjee logging area, at base of Mount Bartle Frere",Rainforest,N/A,145°43'E 17°25'S,2094887 | C0363442F,Mix of Handwritten and Typed,no type status,
https://fm-digital-assets.fieldmuseum.org/2128/136/C0378283F.jpg,C0378283F,M. Tagawa & K. Iwatsuki,M. Tagawa,K. Iwatsuki,1150,"July 28, 1955",1955-07-28,N/A,Diplazium amabile (Tag.) Tag.,Diplazium amabile,N/A,N/A,N/A,Japan,Kagoshima,N/A,Kanoya City,"western slope of Mt. Hoyoshi, south of Kanoya City","western slope of Mount Hoyoshi, south of Kanoya City",Wet rocky slope in densely wooded ravine,N/A,N/A,1475055 | C0378283F,Mix of Handwritten and Typed,no type status,
https://fm-digital-assets.fieldmuseum.org/1862/027/C0364726F.jpg,C0364726F,W. Takeuchi & J. Wiakabu,W. Takeuchi,J. Wiakabu,9366,"February 5, 1994",1994-02-05,N/A,Blechnum ledermannii Brause,Blechnum ledermannii,N/A,N/A,N/A,Papua New Guinea,New Ireland,N/A,N/A,Hans Meyer Range. Site 4 on the expedition report.,Hans Meyer Range Site 4,Pristine submontane forest dominated by bryophytic and ferny growth,c. 1800 m,4°25'S X 152°59'E,2158436 | 0FCZ0683-A,Mix of Handwritten and Typed,no type status,
https://fm-digital-assets.fieldmuseum.org/1864/937/C0366013F.jpg,C0366013F,Tagawa & Iwatsuki,M. Tagawa,K. Iwatsuki,888,"May 20, 1956",1956-05-20,N/A,Dryopteris crassirhizoma Nakai,Dryopteris crassirhizoma,N/A,N/A,N/A,Japan,N/A,N/A,N/A,JAPAN,[precise locality unknown],N/A,N/A,N/A,1479001 | C0366013F,Mix of Handwritten and Typed,no type status,
https://fm-digital-assets.fieldmuseum.org/1863/394/C0366453F.jpg,C0366453F,"Coll. J. Ohwi, April 1951",J. Ohwi,N/A,s.n.,April 1951,1951-04-00,N/A,Polystichum tripteron Presl,Polystichum tripteron,N/A,N/A,N/A,Japan,Kanagawa,N/A,Zushi,Hondo: Jinmuji in Sagami,Jinmuji in Sagami,N/A,N/A,N/A,1464206 | ASN. No. 202 | NSM. No. 202,Mix of Handwritten and Typed,no type status,
https://fm-digital-assets.fieldmuseum.org/1862/882/C0364207F.jpg,C0364207F,Father Morice Vanoverbergh,M. Vanoverbergh,N/A,3591,April 13,0000-04-13,N/A,Asplenium contiguum Kaulf.,Asplenium contiguum,N/A,N/A,N/A,Philippines,Luzon,Bontoc Subprovince,N/A,"Bontoc Subprovince, Luzon",[precise locality unknown],N/A,N/A,N/A,393429 | C0364207F,Mix of Handwritten and Typed,no type status,
https://fm-digital-assets.fieldmuseum.org/1897/625/C0376117F.jpg,C0376117F,R.B. & A.J. Faden,R. B. Faden,A. J. Faden,77/53,5 Jan. 1977,1977-01-05,N/A,Pyrrosia lanceolata (L.) Farw.,Pyrrosia lanceolata,D. B. Lellinger,1979,N/A,Sri Lanka,North Western Province,Kurunegala,N/A,"Doluwakanda Hill, ca. 7°37'N, 80°24'30""E.",Doluwakanda Hill,Forest. Locally common. Lithophyte. Rhizome creeping; fronds widely spaced.,600 m,"ca. 7°37'N, 80°24'30""E.",C0376117F,Mix of Handwritten and Typed,no type status,
https://fm-digital-assets.fieldmuseum.org/1904/108/C0377881F.jpg,C0377881F,"By Albert N. Steward, C. Y. Chiao, and H. C. Cheo",A. N. Steward,C. Y. Chiao | H. C. Cheo,344,"Sept. 4, 1931",1931-09-04,N/A,Dryopteris esquirolii Christ,Dryopteris esquirolii,N/A,N/A,N/A,China,Guizhou,N/A,N/A,Ta Ho Yen FAN CHING SHAN,"Ta Ho Yen, Fan Ching Shan",Moist brushy slope,alt. 980 m.,N/A,C0377881F,Mix of Handwritten and Typed,no type status,
https://fm-digital-assets.fieldmuseum.org/1909/756/C0382365F.jpg,C0382365F,J.F. Barcelona,J. F. Barcelona,N/A,48,November 1989,1989-11-00,N/A,Selaginella cf. repanda,Selaginella philippina,J. F. Barcelona | J. F. Barcelona,Nov. 1989 | 13 Sept. 2005,N/A,Philippines,Western Visayas,Antique,Sibalom,"Egaña along a moist places | Egaña on shaded & moist areas | Egaña - on shaded & moist areas | ""Gaña Abana""",Egaña,along riverbank | in shaded & moist places | on shaded & moist areas,above sea level meters | above the sea meters,N/A,190135 | 190235 | 018274-1 | 2210265,Mix of Handwritten and Typed,no type status,
https://fm-digital-assets.fieldmuseum.org/1896/920/C0368029F.jpg,C0368029F,Col. L. & A. Fay,L. Fay,A. Fay,1206,11 Apr 1985,1985-04-11,N/A,FERN Drynaria laurentii (Christ.) Hieron.,Drynaria laurentii,N/A,N/A,N/A,Liberia,N/A,N/A,N/A,Cuttington University College. Alt. 250 m.,Cuttington University College,On tree trunk about 10 feet from ground common in groves of rubber trees on trunks,Alt. 250 m.,N/A,2111378,Mix of Handwritten and Typed,no type status,
https://fm-digital-assets.fieldmuseum.org/1990/120/C0356535F.jpg,C0356535F,Coll. H. St. John,H. St. John,N/A,16662,"Aug. 26, 1934",1934-08-26,N/A,Humata banksii Alston,Humata banksii,E. B. Copeland,N/A,N/A,French Polynesia,Austral Islands,Rurutu,N/A,"Northwest slope of Teape, Teti woods, on mossy tree limb, altitude 350 meters","Northwest slope of Teape, Teti woods",on mossy tree limb Epiphyte Fronds mostly pendent coriaceous,altitude 350 meters,N/A,1435764,Mix of Handwritten and Typed,no type status,
https://fm-digital-assets.fieldmuseum.org/1995/841/C0383576F.jpg,C0383576F,T. G. YUNCKER,T. G. Yuncker,N/A,"18,561","Mar. 30, 1958",1958-03-30,N/A,Selaginella plana (Desv.) Hieron.,Selaginella plana,N/A,N/A,N/A,Jamaica,Portland,N/A,N/A,"John Crow Mts., 1.5-2 miles southwest of Ecclesdown","John Crow Mountains, 1.5 to 2 miles southwest of Ecclesdown","On wet embankment along trail, rain forest",Alt. 1500-2500 ft.,N/A,C0383576F,Mix of Handwritten and Typed,no type status,
https://fm-digital-assets.fieldmuseum.org/1982/572/C0383180F.jpg,C0383180F,A. Carestia.,A. Carestia,N/A,s.n.,1871.,1871-00-00,N/A,LYCOPODIUM COMPLANATUM L.,Lycopodium complanatum,J. H. Wilce,1962,N/A,Italy,Piemonte,Vercelli,Scopello,Salita alla Boscarola presso Scopello in Valsesia,Salita alla Boscarola near Scopello in Valsesia,N/A,N/A,N/A,789,Mix of Handwritten and Typed,no type status,
https://fm-digital-assets.fieldmuseum.org/1991/498/C0358423F.jpg,C0358423F,coll. G.J. Chamberlain,G. J. Chamberlain,N/A,s.n.,"Oct. 15, 1911",1911-10-15,N/A,Trichomanes reniforme,Trichomanes reniforme,N/A,N/A,N/A,New Zealand,N/A,N/A,Ohakune,"Ohakune,",Ohakune,N/A,N/A,N/A,C0358423F,Typed,no type status,
https://fm-digital-assets.fieldmuseum.org/2116/918/C0662992F.jpg,C0662992F,"R. L. Wilbur no. 8185 E. L. Dunn, H. A. Hespenheide, D. R. Wiseman",R. L. Wilbur,E. L. Dunn | H. A. Hespenheide | D. R. Wiseman,8185,2 August 1964,1964-08-02,N/A,Cnemidaria grandifolia (Willd.) Proctor var. grandifolia,Cnemidaria grandifolia var. grandifolia,R. L. Wilbur,1966,N/A,Dominica,Saint Paul,N/A,N/A,Disturbed rainforest in the upper Layou Valley about 5 miles from Clarke Hall towards Pont Cassé,upper Layou Valley about 5 miles from Clarke Hall towards Pont Cassé,Disturbed rainforest,N/A,N/A,1670026,Mix of Handwritten and Typed,no type status,
https://fm-digital-assets.fieldmuseum.org/2128/029/C0377971F.jpg,C0377971F,R.B. & A.J. Faden,R. B. Faden,A. J. Faden,77/31,2 Jan 1977,1977-01-02,N/A,Trigonosporus obtusilobus Sledge,Trigonosporus obtusilobus,Sledge,N/A,N/A,Sri Lanka,Central Province,Nuwara Eliya District,N/A,between mile posts 45/3 and 46/4 on Nuwara Eliya-Kandy road,between mile posts 45/3 and 46/4 on Nuwara Eliya-Kandy road,Shady moist bank near stream Local and uncommon,ca 1980 m,"6°59'N, 80°45'E",2089703 | C0377971F,Mix of Handwritten and Typed,no type status,
https://fm-digital-assets.fieldmuseum.org/326/926/C0003693F.jpg,C0003693F,leg. HK.,H. K.,N/A,68/641,5.VII.1968,1968-07-05,N/A,Crucispora naucorioides HK. 1971 (Typus),Crucispora naucorioides,H. K.,1971,Cyathea dealbata | Cyathea smithii | Phyllocladus | Podocarpus,New Zealand,Waikato,Coromandel Peninsula,N/A,"Kauaeranga Valley, Coromandel Peninsula, N.Z.",Kauaeranga Valley,"in Humus unter Cyathea dealbata, C. smithii, Phyllocladus, Podocarpus, etc.",N/A,N/A,1017207 | C0003693F,Mix of Handwritten and Typed,Typus,
https://fm-digital-assets.fieldmuseum.org/407/128/C0004429F.jpg,C0004429F,Coll. Singer,R. Singer,N/A,B 7463,14 V 1973,1973-05-14,N/A,HYGROCYBE DIMORPHOBASIDIATA Sing.,Hygrocybe dimorphobasidiata,R. Singer,N/A,N/A,Ecuador,Napo,N/A,Lago Agrio,Lago Agrio,Lago Agrio,Ad terram in hylaea,N/A,N/A,1017827 | C0004429F,Mix of Handwritten and Typed,TYPUS,
https://fm-digital-assets.fieldmuseum.org/407/130/C0004430F.jpg,C0004430F,Coll. Singer M10517,R. Singer,N/A,M10517,23 II 1988,1988-02-23,N/A,HYGROCYBE FUEGIANA Sing. (= H. rosea sensu Horak),Hygrocybe fuegiana,R. Singer,N/A,Sphagnum spec. | Rubus geoides,Argentina,Tierra del Fuego,Ushuaia,N/A,"road Ushuaia-Lago Fagnano, SW of highest point","road Ushuaia to Lago Fagnano, southwest of highest point",Gregarious in bog margin with Sphagnum spec. and Rubus geoides,N/A,N/A,F1075922 | C0004430F,Mix of Handwritten and Typed,holotype,
https://fm-digital-assets.fieldmuseum.org/276/684/C0000578F.jpg,C0000578F,"John J. Engel, Matt von Konrat & John E. Braggins",J. J. Engel,M. von Konrat | J. E. Braggins,23773,12 February 2003,2003-02-12,N/A,Telaranea lindenbergii var. papillata Engel & Merr. c. per. + sporo,Telaranea lindenbergii var. papillata,unsure and check,N/A,Blechnum novae-zelandiae | Weinmannia | Dicksonia squarrosa | Leptospermum scoparium,New Zealand,Auckland,N/A,N/A,"NORTH ISLAND. AUCKLAND PROV.: Whareorino Forest, start of track to Leitch's Hut","Whareorino Forest, start of track to Leitch's Hut","Clay banks with Blechnum novae-zelandiae overhang, Weinmannia and Dicksonia squarrosa dominant canopy and occasional Leptospermum scoparium",280 m.,"38° 24.5' S., 174° 49.8' E.",1173554 | C0000578F,Mix of Handwritten and Typed,holotype,
https://fm-digital-assets.fieldmuseum.org/2535/382/C2079898F.jpg,C2079898F,Marko Lewis,M. Lewis,N/A,78-2684,21-22 November 1978,1978-11-21,1978-11-22,Kindbergia praelonga (Hedw.) Ochyra,Kindbergia praelonga,W. C. Steere,N/A,N/A,Ecuador,Imbabura,N/A,Cotacachi,"E. side of Cerro Cotacachi, NW of Cotacachi","east side of Cerro Cotacachi, northwest of Cotacachi",Wet bank of runoff ravine,3750 m.,"0°22'N., 78°20'W.",1065158 | C2079898F,Mix of Handwritten and Typed,no type status,
https://fm-digital-assets.fieldmuseum.org/2537/873/C2077559F.jpg,C2077559F,"Marko Lewis, no. 78-3163",M. Lewis,N/A,78-3163,8 December 1978,1978-12-08,N/A,Hedwigia ciliata (Hedw.) P. Beauv.,Hedwigia ciliata,E. De Luna | W. C. Steere,1992,N/A,Ecuador,Azuay,N/A,N/A,"Area Nacional de Recreación ""Cajas"", forested hill S. of ""Surrochucho"" (Laguna Llaviuco), SW of Sayausí, 2°55'S., 79°09'W.","Area Nacional de Recreación Cajas, forested hill south of Surrochucho, Laguna Llaviuco, southwest of Sayausí",Stone wall,3240 m.,"2°55'S., 79°09'W.",1065433 | C2077559F,Mix of Handwritten and Typed,no type status,
https://fm-digital-assets.fieldmuseum.org/2537/883/C2077563F.jpg,C2077563F,"Leg. R. Benoist, n° 4659 pp.",R. Benoist,N/A,4659,MAR 1952,1952-03-00,N/A,Hedwigia ciliata (Hedw.) P. Beauv.,Hedwigia ciliata,E. De Luna,1997,N/A,Ecuador,Pichincha,N/A,Quito,Equateur. environs de Quito.,environs de Quito,N/A,N/A,N/A,1689453 | 1089453 | C2077563F,Mix of Handwritten and Typed,no type status,
https://fm-digital-assets.fieldmuseum.org/2537/887/C2077564F.jpg,C2077564F,"Lég. R. Benoist, 27 mars 1930, n° 2279",R. Benoist,N/A,2279,27 mars 1930,1930-03-27,N/A,Hedwigia albicans (Web.) Lindb.,Hedwigia ciliata,E. De Luna,1992,N/A,Ecuador,Pichincha,N/A,Quito,Sur rocher d'andésite,on andesite rock,N/A,N/A,N/A,1089455 | C2077564F,Mix of Handwritten and Typed,no type status,
https://fm-digital-assets.fieldmuseum.org/2537/891/C2077565F.jpg,C2077565F,"COLLECTED BY R. S. WILLIAMS, 1901-1902",R. S. Williams,N/A,2850,"April 30, 1902",1902-04-30,N/A,Hedwigia albicans (Wett.) Lindb.,Hedwigia ciliata,E. De Luna,1992,N/A,Bolivia,La Paz,N/A,Pelechuco,"near Pelechuco, 3000 meters",near Pelechuco,N/A,3000 meters,N/A,1689454 | 1089454 | C2077565F,Mix of Handwritten and Typed,no type status,
https://fm-digital-assets.fieldmuseum.org/2537/895/C2077566F.jpg,C2077566F,"Marko Lewis, no. 79-1237A",M. Lewis,N/A,79-1237A,22 March 1979,1979-03-22,N/A,Hedwigia ciliata (Hedw.) P. Beauv.,Hedwigia ciliata,E. De Luna,1992,N/A,Bolivia,La Paz,Larecaja,N/A,"Near large red out-crop 2 mi. from Sorata down Río Consata, 15° 41' S., 68° 43' W.",Near large red out-crop 2 miles from Sorata down Río Consata,Bromeliad habitat Abundant on rock faces of exposed cliffs,2630 m.,"15° 41' S., 68° 43' W.",1032221 | C2077566F,Mix of Handwritten and Typed,no type status,
https://fm-digital-assets.fieldmuseum.org/2537/899/C2077567F.jpg,C2077567F,"Marko Lewis, no. 79-1232",M. Lewis,N/A,79-1232,22 March 1979,1979-03-22,N/A,Hedwigia ciliata (Hedw.) P. Beauv.,Hedwigia ciliata,E. De Luna,1992,N/A,Bolivia,La Paz,Larecaja,N/A,"Near large red out-crop 2 mi. from Sorata down Río Consata, 15° 41' S., 68° 43' W.",Near large red outcrop 2 miles from Sorata down Río Consata,Bromeliad-grass habitat on exposed cliffs,2630 m.,"15° 41' S., 68° 43' W.",1032219 | C2077567F,Mix of Handwritten and Typed,no type status,
https://fm-digital-assets.fieldmuseum.org/2537/903/C2077568F.jpg,C2077568F,"Marko Lewis, no. 79-1114",M. Lewis,N/A,79-1114,6 March 1979,1979-03-06,N/A,Hedwigia ciliata (Hedw.) P. Beauv.,Hedwigia ciliata,E. De Luna,1992,N/A,Bolivia,La Paz,Saavedra,N/A,"On mountain side directly N. of river, beneath Niño Karine, NNW of Chuma, 15° 08' S, 69° 03' W","On mountain side directly north of river, beneath Niño Karine, north-northwest of Chuma",Humid cliffs and steep slopes,3320 m,"15° 08' S, 69° 03' W",1032220 | C2077568F,Mix of Handwritten and Typed,no type status,
https://fm-digital-assets.fieldmuseum.org/2537/908/C2077569F.jpg,C2077569F,F. J. Hermann,F. J. Hermann,N/A,25152,"December 27, 1972",1972-12-27,N/A,Hedwigia ciliata (Hedw.) Beauv.,Hedwigia ciliata,E. De Luna,1992,N/A,Bolivia,Cochabamba,Cochabamba,N/A,"On conglomerate boulder on shrubby NW slope of Mt. Tunari, near Liriuni Aguas Termales Hotel, alt. ca. 2700 m., 28 km. NW.","On conglomerate boulder on northwestern slope of Mount Tunari, near Liriuni Aguas Termales Hotel, 28 kilometers northwest",On conglomerate boulder on shrubby northwestern slope,alt. ca. 2700 m.,N/A,1040675 | C2077569F,Mix of Handwritten and Typed,no type status,
https://fm-digital-assets.fieldmuseum.org/2537/555/C2077570F.jpg,C2077570F,Ynes Mexia,Y. Mexia,N/A,6204,"Dec. 2, 1931",1931-12-02,N/A,Pilosium subchlorophyllosum C. Muell.,Pilosium subchlorophyllosum,N. Bartram,N/A,N/A,Peru,Loreto,N/A,N/A,Above Pongo de Manseriche. Streamlet near mouth of Rio Santiago.,Above Pongo de Manseriche near mouth of Rio Santiago,On fallen log,Alt. 400 m.,N/A,1057692 | C2077570F,Mix of Handwritten and Typed,no type status,
https://fm-digital-assets.fieldmuseum.org/2537/556/C2077571F.jpg,C2077571F,Ynes Mexia,Y. Mexia,N/A,6804,"Dec. 2, 1931",1931-12-02,N/A,Pilosium subalorophyllum det. Bartram,Pilotrichum subchlorophyllosum,E. B. Bartram,N/A,N/A,Peru,Loreto,N/A,N/A,Above Pongo de Manseriche. Streamlet near mouth of Rio Santiago. On fallen log.,"Above Pongo de Manseriche, near mouth of Rio Santiago",On fallen log,Alt. 400 m.,N/A,C2077571F,Mix of Handwritten and Typed,no type status,
https://fm-digital-assets.fieldmuseum.org/2537/557/C2077572F.jpg,C2077572F,A. C. SMITH,A. C. Smith,N/A,2748,"Dec. 15-24, 1937",1937-12-15,1937-12-24,Pilotrichum flaccidum C. M.,Pilotrichum flaccidum,E. B. Bartram,N/A,N/A,Guyana,N/A,N/A,N/A,"Basin of Essequibo River, near mouth of Onoro Creek, lat. about 1°35' N.; dense forest","Basin of Essequibo River, near mouth of Onoro Creek","On decayed wood, in swamp",N/A,lat. about 1°35' N.,1023751 | C2077572F,Typed,no type status,
https://fm-digital-assets.fieldmuseum.org/2537/558/C2077573F.jpg,C2077573F,J. Florschütz-de Waard & R. Zielman,J. Florschütz-de Waard,R. Zielman,5135,d.d. 5 - 11 - 1981,1981-11-05,N/A,Pilosium chlorophyllum (Hornsch.) C. Müll. c. fr.,Pilosium chlorophyllum,R. Zielman,d.d. 5 - 11 - 1981,Cecropia,Suriname,Nickerie,N/A,N/A,"area of Kabalebo Dam project, distr. Nickerie, line NW from road km 39.5, p. 5N 58W qu. SE","area of Kabalebo Dam project, line northwest from road kilometer 39.5",Secondary wood with Cecropia (bospapaja) on rotting log,ALT. 0-50 m,5N 58W qu. SE,1073523 | C2077573F | 5315 Dupl.,Mix of Handwritten and Typed,no type status,
https://fm-digital-assets.fieldmuseum.org/2537/559/C2077574F.jpg,C2077574F,J. Florschütz-de Waard & R. Zielman,J. Florschütz-de Waard,R. Zielman,5254,3-11-1981,1981-11-03,N/A,Pilostoma chlorophyllum (Hornsch.) C. Müll.,Pilostoma chlorophyllum,R. Zielman,N/A,N/A,Suriname,Nickerie,N/A,N/A,"area of Kabalebo Dam project, distr. Nickerie, line NW from road km 39.5, p. 5N 56W qu. SE.","area of Kabalebo Dam project, line northwest from road kilometer 39.5, point 5 north 56 west quadrant southeast","Savanna forest, on rotting log",0-50 m.,p. 5N 56W qu. SE.,1073529 | 100107 | C2077574F,Mix of Handwritten and Typed,no type status,
https://fm-digital-assets.fieldmuseum.org/2537/560/C2077575F.jpg,C2077575F,J. Florschütz-de Waard & R. Zielman,J. Florschütz-de Waard,R. Zielman,5098,30-10-1981,1981-10-30,N/A,Pilosium chlorophyllum (Hornsch.) C. Müll.,Pilosium chlorophyllum,R. Zielman,N/A,N/A,Suriname,Nickerie,N/A,N/A,"Area of Kabalebo Dam project, distr. Nickerie, line W from road 34 km, p. 5N 58W qu. SE.","Area of Kabalebo Dam project, line west from road thirty-four kilometers, point five degrees north fifty-eight degrees west quadrant southeast","Rainforest, on rotting log",Alt.: 0-50 m.,p. 5N 58W qu. SE.,C2077575F,Mix of Handwritten and Typed,no type status,
https://fm-digital-assets.fieldmuseum.org/2537/561/C2077576F.jpg,C2077576F,"J.C. Lindeman, A.R.A. Görts-van Rijn, M.J. Jansen- Leg. Jacobi & A.M.C. Hetterscheid-Iollante",J. C. Lindeman,A. R. A. Görts-van Rijn | M. J. Jansen | Jacobi | A. M. C. Hetterscheid-Iollante,243 A,3-IX-1980,1980-09-03,N/A,Pilolium chlorophyllum (Hornsch.) C.Müll.,Pilolium chlorophyllum,D. R. Zielman,N/A,N/A,Suriname,Nickerie,N/A,N/A,"Area of Kabalebo Dam project, distr. Nickerie, 4°50' N, 57°30' 58° W. Forest S of km 28.7 Epiphyte on tree trunk.","Area of Kabalebo Dam project, Forest south of kilometer 28.7",Forest south of kilometer 28.7 Epiphyte on tree trunk,30 - 130 m.,"4°50' N, 57°30' 58° W",1073527 | C2077576F,Mix of Handwritten and Typed,no type status,
https://fm-digital-assets.fieldmuseum.org/2537/562/C2077577F.jpg,C2077577F,J. Florschütz-de Waard and R. Zielman,J. Florschütz-de Waard,R. Zielman,5141,31 October 1981,1981-10-31,N/A,PILOSIUM CHLOROPHYLLUM (Hornsch.) C. Müll.,Pilosium chlorophyllum,R. Zielman,N/A,Astrocaryum,Suriname,Nickerie,N/A,N/A,"Kabalebo river area, line W. from road km 34","Kabalebo river area, line west from road kilometer 34",On decaying log in marsh forest with Astrocaryum,alt. 0-50 m.,"5°N., 58°W.",C2077577F,Mix of Handwritten and Typed,no type status,
https://fm-digital-assets.fieldmuseum.org/2537/563/C2077578F.jpg,C2077578F,J. and P.A. Florschütz,J. Florschütz,P. A. Florschütz,4690,18 December 1975,1975-12-18,N/A,PILOSIUM CHLOROPHYLLUM (Hornsch.) C. Muell.,Pilosium chlorophyllum,R. Zijlmans | J. Florschütz-de Waard,N/A,N/A,Suriname,N/A,N/A,N/A,"Brownsberg, trail to Leo Val, alt. ca. 500 m.","Brownsberg, trail to Leo Val",On rotting log in rainforest,alt. ca. 500 m.,N/A,1065613 | C2077578F,Mix of Handwritten and Typed,no type status,
https://fm-digital-assets.fieldmuseum.org/2537/564/C2077579F.jpg,C2077579F,H. Cornelissen & S.R. Gradstein,H. Cornelissen,S. R. Gradstein,C076,8 March 1977,1977-03-08,N/A,Pilosium chlorophyllum (Hornsch.) C. Müll.,Pilosium chlorophyllum,J. Florschütz-de Waard,N/A,N/A,Guyana,N/A,N/A,N/A,"Mabura Hill, 180 km S of Georgetown, 5°20'N 58°40'W, alt. 0-50 m.","Mabura Hill, 180 kilometers south of Georgetown",On rotting tree base in mixed rain forest,alt. 0-50 m.,5°20'N 58°40'W,1091586 | C2077579F,Mix of Handwritten and Typed,no type status,
https://fm-digital-assets.fieldmuseum.org/2537/565/C2077580F.jpg,C2077580F,ex coll. R. Spruce,R. Spruce,N/A,321,N/A,0000-00-00,N/A,Stereophyllum chlorophyllum. Hornsch.,Pilosium chlorophyllum,R. R. Ireland | W. R. Buck,1992,N/A,Brazil,Pará,N/A,N/A,Fl. Amazon prope Para.,Amazon near Pará,N/A,N/A,N/A,C2077580F,Mix of Handwritten and Typed,no type status,
https://fm-digital-assets.fieldmuseum.org/2537/566/C2077581F.jpg,C2077581F,Richard Evans Schultes & Isidoro Cabrera,R. E. Schultes,I. Cabrera,17922,"Oct. 22, 1952.",1952-10-22,N/A,Pilotrichum chlorophyllum (Hornsch.) Jaeg.,Pilotrichum chlorophyllum,H. A. Crum,1956,N/A,Colombia,Vaupés,N/A,Mitú,Río Vaupés: Mitu and vicinity. Cerro Mitú,Cerro Mitú,On rotten log,N/A,"Lat. 1° N, Long. 70° 5' W",1055492 | C2077581F,Mix of Handwritten and Typed,no type status,
https://fm-digital-assets.fieldmuseum.org/2537/567/C2077582F.jpg,C2077582F,Richard Evans Schultes et Isidoro Cabrera,R. E. Schultes,I. Cabrera,14394,"October 4-6, 1951",1951-10-04,1951-10-06,Pilosium chlorophyllum (Hornsch.) C.M.,Pilosium chlorophyllum,H. A. Crum,1956,N/A,Colombia,Vaupés,N/A,N/A,"Rio Kudayari (affluent of Rio Vaupés), Yapobodi, quartzite savannah","Rio Kudayari, Yapobodi, quartzite savannah",On rotten logs,N/A,N/A,1055491 | C2077582F,Mix of Handwritten and Typed,no type status,
https://fm-digital-assets.fieldmuseum.org/2537/568/C2077583F.jpg,C2077583F,RICHARD EVANS SCHULTES,R. E. Schultes,N/A,12309,N/A,0000-00-00,N/A,PILOSIUM CHLOROPHYLLUM (HORNSCH.) C.M. in BROTH.,Pilosium chlorophyllum,D. Griffin III,June 1951,N/A,Colombia,Vaupés,N/A,N/A,"Rio Apaporis, Soratama","Rio Apaporis, Soratama",On trunks,N/A,N/A,1055490 | C2077583F,Mix of Handwritten and Typed,no type status,
https://fm-digital-assets.fieldmuseum.org/2537/569/C2077584F.jpg,C2077584F,RICHARD EVANS SCHULTES,R. E. Schultes,N/A,11128,Dec. 1950,1950-12-00,N/A,Pilosium chlorophyllum (Hedw.) C.M. in Broth.,Pilosium chlorophyllum,D. Griffin,N/A,N/A,Colombia,Guaviare,N/A,San Jose del Guaviare,San Jose del Guaviare,San Jose del Guaviare,N/A,N/A,N/A,1055489 | C2077584F,Mix of Handwritten and Typed,no type status,
https://fm-digital-assets.fieldmuseum.org/2537/570/C2077585F.jpg,C2077585F,Ynes Mexia,Y. Mexia,N/A,6014a,"Aug. 31, 1931",1931-08-31,N/A,Pilosum chlorophyllum (Hsch.) C.M.,Pilosum chlorophyllum,N. Bartram,N/A,N/A,Brazil,Pará,Acará,Thomé Assú,Thomé Assú; down Rio Acará 3 km. Districto Acará.,down Rio Acará 3 kilometers,On fallen log,Alt. 35 m.,N/A,C2077585F,Mix of Handwritten and Typed,no type status,
https://fm-digital-assets.fieldmuseum.org/2537/571/C2077586F.jpg,C2077586F,Ynes Mexia,Y. Mexia,N/A,5914,"July 16, 1931",1931-07-16,N/A,Pilosium Chlorophyllosum (Hsch.) C.M.,Pilosium chlorophyllosum,E. B. Bartram,N/A,N/A,Brazil,Pará,Acará,Thomé Assú,Districto Acará. Thomé Assú. Japanese Colony.,Japanese Colony,On rotting log in woods. Abundant.,Alt. about 30 m.,N/A,870829,Typed,no type status,
https://fm-digital-assets.fieldmuseum.org/2539/518/C2078862F.jpg,C2078862F,"leg. Dana Griffin, III Manuel López F.",D. Griffin,M. López F.,PV-1525,14 marzo 1985,1985-03-14,N/A,Brachythecium plumosum (Hedw.) BSG,Brachythecium plumosum,D. Griffin,N/A,Espeletia schultzii,Venezuela,Trujillo,N/A,Las Piedras,"páramo de Guirigay, arriba del pueblo de Las Piedras. Entre el río Burate y Peñas Blancas, con Espeletia schultzii","páramo de Guirigay, above the town of Las Piedras, between the Burate River and Peñas Blancas","Sobre roca húmeda, lecho de riachuelo, a sol",Alt. 3.200 m,N/A,C2078862F | 1064449,Mix of Handwritten and Typed,no type status,
https://fm-digital-assets.fieldmuseum.org/2539/519/C2078913F.jpg,C2078913F,P. Dusén,P. Dusén,N/A,5872,22 February 1897,1897-02-22,N/A,Brachythecium albicans (Hedw.) Schimp.,Brachythecium albicans,W. R. Buck,N/A,N/A,Chile,Patagonia occident.,N/A,N/A,Cerra Colorado,Cerra Colorado,N/A,N/A,N/A,1136354 | B11749 | C2078913F,Mix of Handwritten and Typed,no type status,
https://fm-digital-assets.fieldmuseum.org/2539/520/C2078924F.jpg,C2078924F,"Ynes Mexia, No. 8001",Y. Mexia,N/A,8001,"April 10, 1936",1936-04-10,N/A,Brachythecium subpilosum (H. f. & W.) Jaeg.,Brachythecium austro-glareosum,K. D. McFarland | Bartram,Sept 1987 | N/A,Nothofagus,Chile,Magallanes,Last Hope Inlet,Peninsula Antonio Varas,Last Hope Inlet; Peninsula Antonio Varas; openings in Nothofagus wood in moist earth,Last Hope Inlet Peninsula Antonio Varas,openings in Nothofagus wood in moist earth,Alt. 25 m.,N/A,1036758 | C2078924F,Mix of Handwritten and Typed,no type status,
https://fm-digital-assets.fieldmuseum.org/2539/521/C2078925F.jpg,C2078925F,"Marko Lewis, no.79-2108",M. Lewis,N/A,79-2108,25 May 1979,1979-05-25,N/A,Brachythecium calliergonoides Broth. in Herz.,Brachythecium calliergonoides,R. Ochyra,1982,N/A,Bolivia,Oruro,Sajama,N/A,"Río Junthuma Khuchu, 2 mi. down river from Aguas termales de Río Junthuma Khuchu","Río Junthuma Khuchu, 2 miles down river from Aguas termales de Río Junthuma Khuchu",In warmish creek,4350 m.,"18° 07' S., 69° 00' W.",C2078925F | 1049405,Mix of Handwritten and Typed,no type status,
https://fm-digital-assets.fieldmuseum.org/2539/522/C2078926F.jpg,C2078926F,Marko Lewis,M. Lewis,N/A,79-2109,25 May 1979,1979-05-25,N/A,Brachythecium calliergonoides Broth. in Herz. det. R. Ochyra 1982,Brachythecium calliergonoides,R. Ochyra,1982,N/A,Bolivia,Oruro,Sajama,N/A,"DEPTO. ORURO, PROV. SAJAMA: Río Junthuma Khuchu, 2 mi. down river from Aguas termales de Río Junthuma Khuchu, 4350 m., 18° 07' S., 69° 00' W. In warmish creek.","Río Junthuma Khuchu, 2 miles down river from Aguas termales de Río Junthuma Khuchu",In warmish creek,4350 m.,"18° 07' S., 69° 00' W.",C2078926F | 11049406,Mix of Handwritten and Typed,no type status,
https://fm-digital-assets.fieldmuseum.org/2539/523/C2078927F.jpg,C2078927F,Marko Lewis,M. Lewis,N/A,79-2112,25 May 1979,1979-05-25,N/A,"Brachythecium calliergonoides Broth. in Herz. det. R. Ochyra, 1982",Brachythecium calliergonoides,R. Ochyra,1982,N/A,Bolivia,Oruro,Sajama,N/A,"Rio Junthuma Khuchu, 2 mi. down river from Aguas termales de Rio Junthuma Khuchu","Rio Junthuma Khuchu, 2 miles down river from Aguas termales de Rio Junthuma Khuchu",In warmish creek,4350 m,"18° 07' S., 69° 00' W.",C2078927F | 1049407,Mix of Handwritten and Typed,no type status,
https://fm-digital-assets.fieldmuseum.org/2539/524/C2078928F.jpg,C2078928F,Marko Lewis,M. Lewis,N/A,79-2115,25 May 1979,1979-05-25,N/A,Brachythecium calliergonioides Broth. in Herz.,Brachythecium calliergonioides,R. Ochyra,1982,N/A,Bolivia,Oruro,Sajama,N/A,"Río Junthuma Khuchu, 2 mi. down river from Aguas termales de Río Junthuma Khuchu","Río Junthuma Khuchu, 2 miles down river from Aguas termales de Río Junthuma Khuchu",In warmish creek,4350 m.,"18° 07' S., 69° 00' W.",1049409,Mix of Handwritten and Typed,no type status,
https://fm-digital-assets.fieldmuseum.org/2539/525/C2078929F.jpg,C2078929F,Marko Lewis,M. Lewis,N/A,79-2117,25 May 1979,1979-05-25,N/A,Brachythecium calliergonoides Broth. in Herz.,Brachythecium calliergonoides,R. Ochyra,1982,N/A,Bolivia,Oruro,Sajama,N/A,"Río Junthuma Khuchu, 2 mi. down river from Aguas termales de Río Junthuma Khuchu","Río Junthuma Khuchu, 2 miles down river from Aguas termales de Río Junthuma Khuchu",In warmish creek,4350 m.,"18° 07' S., 69° 00' W.",C2078929F,Mix of Handwritten and Typed,no type status,
https://fm-digital-assets.fieldmuseum.org/2539/526/C2078930F.jpg,C2078930F,Marko Lewis,M. Lewis,N/A,79-2118,25 May 1979,1979-05-25,N/A,Brachythecium calliergonoides Broth. in Herz.,Brachythecium calliergonoides,R. Ochyra,1982,N/A,Bolivia,Oruro,Sajama,N/A,"Río Junthuma Khuchu, 2 mi. down river from Aguas termales de Río Junthuma Khuchu","Río Junthuma Khuchu, 2 miles down river from Aguas termales de Río Junthuma Khuchu",In warmish creek,4350 m.,"18° 07' S., 69° 00' W.",C2078930F,Mix of Handwritten and Typed,no type status,
https://fm-digital-assets.fieldmuseum.org/2539/527/C2078931F.jpg,C2078931F,Marko Lewis,M. Lewis,N/A,79-2107,25 May 1979,1979-05-25,N/A,Brachythecium calliergonoides Broth. in Herz.,Brachythecium calliergonoides,R. Ochyra,1982,N/A,Bolivia,Oruro,Sajama,N/A,"Río Junthuma Khuchu, 2 mi. down river from Aguas termales de Río Junthuma Khuchu","Río Junthuma Khuchu, 2 miles down river from Aguas termales de Río Junthuma Khuchu",In warmish creek,4350 m.,"18° 07' S., 69° 00' W.",1049404 | C2078931F | C2078933F,Mix of Handwritten and Typed,no type status,
https://fm-digital-assets.fieldmuseum.org/2539/529/C2078932F.jpg,C2078932F,Marko Lewis,M. Lewis,N/A,79-2119,25 May 1979,1979-05-25,N/A,Brachythecium calliergonioides Broth. in Herz.,Brachythecium calliergonioides,R. Ochyra,1982,N/A,Bolivia,Oruro,Sajama,N/A,"DEPTO. ORURO, PROV. SAJAMA: Río Junthuma Khuchu, 2 mi. down river from Aguas termales de Río Junthuma Khuchu","Río Junthuma Khuchu, 2 miles down river from Aguas termales de Río Junthuma Khuchu",In warmish creek,4350 m.,"18° 07' S., 69° 00' W.",1049412 | C2078932F,Mix of Handwritten and Typed,no type status,
https://fm-digital-assets.fieldmuseum.org/2539/889/C2079350F.jpg,C2079350F,Ynes Mexia,Y. Mexia,N/A,6149,"Nov. 23, 1931",1931-11-23,N/A,Vesicularia amphibola (Spr.) Broth.,Vesicularia amphibola,E. B. Bartram,N/A,N/A,Peru,Loreto,N/A,N/A,Above Pongo de Manseriche Left bank of Rio Santiago,Above Pongo de Manseriche Left bank of Rio Santiago,On stone in overflow forest,Alt. 200 m.,N/A,873368 | C2079350F,Mix of Handwritten and Typed,no type status,
https://fm-digital-assets.fieldmuseum.org/2539/890/C2079351F.jpg,C2079351F,Ynes Mexia,Y. Mexia,N/A,6160-a,"Nov. 25, 1931",1931-11-25,N/A,Vesicularia amphibola (Spr.) Broth.,Vesicularia amphibola,N. Bartram,N/A,N/A,Peru,Loreto,N/A,N/A,Above Pongo de Manseriche. Right bank of Rio Santiago.,"Above Pongo de Manseriche, right bank of Rio Santiago",Dense forest on log,Alt. 200 m.,N/A,873367 | C2079351F,Mix of Handwritten and Typed,no type status,
https://fm-digital-assets.fieldmuseum.org/2539/892/C2079352F.jpg,C2079352F,Ynes Mexia,Y. Mexia,N/A,6217-a,"Dec. 4, 1931.",1931-12-04,N/A,Vesicularia amphibola (Spr.) Broth.,Vesicularia amphibola,E. B. Bartram,N/A,N/A,Peru,Loreto,N/A,N/A,Above Pongo de Manseriche.,Above Pongo de Manseriche,Streamlet on right bank of Rio Santiago. On rocks wet by spray.,Alt. 250 m.,N/A,870879 | C2079352F,Mix of Handwritten and Typed,no type status,
https://fm-digital-assets.fieldmuseum.org/2539/893/C2079353F.jpg,C2079353F,Ynes Mexia,Y. Mexia,N/A,6259-a,"Dec. 12, 1931",1931-12-12,N/A,Vesicularia amphibola (Spr.) Broth.,Vesicularia amphibola,E. B. Bartram,N/A,N/A,Peru,Loreto,N/A,N/A,Above Pongo de Manseriche,Creek Carapisa above Pongo de Manseriche,Log in forest,Alt. 215 m.,N/A,870867 | C2079353F,Mix of Handwritten and Typed,no type status,
https://fm-digital-assets.fieldmuseum.org/2539/894/C2079354F.jpg,C2079354F,Ynes Mexia,Y. Mexia,N/A,6354-a,"Jan. 3, 1932",1932-01-03,N/A,Vesicularia amphibola (Spr.) Broth.,Vesicularia amphibola,E. B. Bartram,N/A,N/A,Peru,Loreto,N/A,N/A,Above Pongo de Manseriche. Creek Inche.,"Above Pongo de Manseriche, Creek Inche",On earth collected on inclined tree trunk,Alt. 215 m.,N/A,C2079354F | 873369,Mix of Handwritten and Typed,no type status,
https://fm-digital-assets.fieldmuseum.org/2539/895/C2079355F.jpg,C2079355F,Ynes Mexia,Y. Mexia,N/A,6375a,"Jan. 3, 1932",1932-01-03,N/A,Vesicularia amphibola (Spr.) Broth.,Vesicularia amphibola,E. B. Bartram,N/A,Taxithelium planum,Peru,Loreto,N/A,N/A,Above Pongo de Manseriche. Creek Inche.,"Above Pongo de Manseriche, Creek Inche",On rotten log. Sterile.,Alt. 215 m.,N/A,1039121 | C2079355F,Mix of Handwritten and Typed,no type status,
https://fm-digital-assets.fieldmuseum.org/2539/896/C2079356F.jpg,C2079356F,Ynes Mexia,Y. Mexia,N/A,6375-8,"Jan. 3, 1938.",1938-01-03,N/A,Vesicularia amphibola (Spr.) Broth.,Taxithelium planum,E. B. Bartram,N/A,N/A,Peru,Loreto,N/A,N/A,Above Pongo de Manseriche. Crook Inche.,Above Pongo de Manseriche Crook Inche,On rotten log,Alt. 215 m.,N/A,370880,Mix of Handwritten and Typed,no type status,
https://fm-digital-assets.fieldmuseum.org/2539/897/C2079357F.jpg,C2079357F,Ynes Mexia,Y. Mexia,N/A,6377,"Jan. 3, 1932.",1932-01-03,N/A,Vesicularia amphibia (Spr.) Broth.,Vesicularia amphibia,E. B. Bartram,N/A,N/A,Peru,Loreto,N/A,N/A,Above Pongo de Manseriche. Creek Inche.,"Above Pongo de Manseriche, Creek Inche",On rotten log,Alt. 215 m.,N/A,870873 | C2079357F,Mix of Handwritten and Typed,no type status,
https://fm-digital-assets.fieldmuseum.org/2539/898/C2079358F.jpg,C2079358F,Ynes Mexia,Y. Mexia,N/A,8070,"May 14, 1936",1936-05-14,N/A,Vesicularia amphibola (Spr.) Broth. in mixture,Vesicularia amphibola,E. B. Bartram,N/A,N/A,Peru,Cuzco,La Convencion,N/A,upper valley of the Sambray; affluent of the Vilcanota; on rotten logs in virgin forest,upper valley of the Sambray; affluent of the Vilcanota,on rotten logs in virgin forest,Alt. 1800 m,N/A,1068385 | 1036318 | C2077309F | C2079358F,Mix of Handwritten and Typed,no type status,
https://fm-digital-assets.fieldmuseum.org/2539/900/C2079359F.jpg,C2079359F,Ynes Mexia,Y. Mexia,N/A,8070,"May 14, 1936",1936-05-14,N/A,Vesicularia amphibola (Spr.) Broth. in mixture. det. Bartram,Vesicularia amphibola,E. B. Bartram,N/A,N/A,Peru,Cuzco,La Convencion,N/A,upper valley of the Sambray; affluent of the Vilcanota; on rotten logs in virgin forest,upper valley of the Sambray; affluent of the Vilcanota,on rotten logs in virgin forest,Alt. 1800 m.,N/A,1039122 | C2079359F,Mix of Handwritten and Typed,no type status,
https://fm-digital-assets.fieldmuseum.org/2539/901/C2079360F.jpg,C2079360F,R. Reitz,R. Reitz,N/A,2.222,20.9.1952,1952-09-20,N/A,Vesicularia vesicularis (Schwaegr.) Broth.,Vesicularia vesicularis,Bartram,N/A,N/A,Brazil,Santa Catarina,Brusque,Azambuja,"Azambuja, Brusque",Azambuja,"Epífito, da mata virgem",Altit. 50 msm,N/A,HBR 5.468,Mix of Handwritten and Typed,no type status,
https://fm-digital-assets.fieldmuseum.org/2539/902/C2079361F.jpg,C2079361F,F. J. Hermann,F. J. Hermann,N/A,25019,"December 19, 1972",1972-12-19,N/A,Vesicularia vesicularis (Schwaegr.) Broth.,Vesicularia vesicularis,H. Robinson,N/A,N/A,Colombia,Santander,N/A,N/A,"On base of tree trunk, Paraguitas, alt. ca. 4000 ft., 1/4 mile NW.","Paraguitas, 1/4 mile northwest",On base of tree trunk,alt. ca. 4000 ft.,N/A,4039101 | C2079361F,Mix of Handwritten and Typed,no type status,
https://fm-digital-assets.fieldmuseum.org/2539/903/C2079362F.jpg,C2079362F,"Legit: RICHARD EVANS SCHULTES Dec., 1950",R. E. Schultes,N/A,11107,"Dec., 1950",1950-12-00,N/A,Vesicularia vesicularis (Schwgr.) Broth.,Vesicularia vesicularis,D. Griffin III,N/A,N/A,Colombia,Meta,N/A,Villavicencio,alrededores de Villavicencio,surroundings of Villavicencio,N/A,Alt 500 m.,N/A,1055509 | C2079362F,Mix of Handwritten and Typed,no type status,
https://fm-digital-assets.fieldmuseum.org/2542/815/C2079715F.jpg,C2079715F,"leg.: J.-P. Frahm, P. Geissler, S.R. Gradstein, G. Philippi, W. Schultze-Motel",J.-P. Frahm,P. Geissler | S.R. Gradstein | G. Philippi | W. Schultze-Motel,875,4.9.1982,1982-09-04,N/A,Entodon jamesonii (Tayl.) Mitt.,Entodon jamesonii,W. Schultze-Motel,N/A,N/A,Peru,Amazonas,Chachapoyas,N/A,"Straße Chachapoyas-Cajamarca oberhalb Leimebamba km 417, s-exponierter Hang, hochandiner Regenwald auf Kalkstein",Chachapoyas-Cajamarca road above Leimebamba at kilometer 417,"s-exponierter Hang, hochandiner Regenwald auf Kalkstein",2800 msm.,N/A,1076822 | C2079715F,Mix of Handwritten and Typed,no type status,
https://fm-digital-assets.fieldmuseum.org/2542/817/C2079716F.jpg,C2079716F,PAUL C. HUTCHISON J. KENNETH WRIGHT,P. C. Hutchison,J. K. Wright,4806,1 April 1964,1964-04-01,N/A,Entodon jamesonii (Tayl.) Mitt.,Entodon jamesonii,H. Robinson,1966,N/A,Peru,Amazonas,Chachapoyas,N/A,"Cerros Calla Calla, east side, 5 km. above Leimebamba on the road to Balsas, at San Miguel (no buildings at this locality)","Cerros Calla Calla, east side, 5 kilometers above Leimebamba on the road to Balsas at San Miguel",N/A,Altitude 2400 m.,N/A,1012181 | 1012134,Mix of Handwritten and Typed,no type status,
https://fm-digital-assets.fieldmuseum.org/2542/820/C2079717F.jpg,C2079717F,"leg. Dana Griffin, III",D. Griffin,N/A,PV-966,20 febr. 1985,1985-02-20,N/A,Entodon jamesoni (tayl.) Broth.,Entodon jamesoni,D. Griffin,N/A,N/A,Venezuela,Merida,N/A,N/A,"páramo de Los Granates, finca de Los Granates, a lo largo del río de Los Granates y en las lomas cercanas","páramo de Los Granates, finca de Los Granates, along the river of Los Granates and in the nearby hills","Sobre roca seca, a sombra","Alt. 3,000-3,300 m",N/A,1064416 | C2079717F,Mix of Handwritten and Typed,no type status,
https://fm-digital-assets.fieldmuseum.org/2542/822/C2079718F.jpg,C2079718F,"Ynes Mexia, No. 5087",Y. Mexia,N/A,5087,"April 21, 1931",1931-04-21,N/A,Entodon lindbergii Hpe. det. Bartram,Entodon lindbergii,E. B. Bartram,N/A,N/A,Brazil,Minas Gerais,N/A,Corinto,Corinto. Fazenda do Diamante. Alt. 500 m. Campo Tiririca. Base of living tree in shade.,"Fazenda do Diamante, Campo Tiririca, base of living tree in shade",Base of living tree in shade,Alt. 500 m.,N/A,370818 | 870818 | C2079718F,Mix of Handwritten and Typed,no type status,
https://fm-digital-assets.fieldmuseum.org/2542/825/C2079719F.jpg,C2079719F,R. Spruce,R. Spruce,N/A,1023,N/A,0000-00-00,N/A,Entodon longisetus. Hook.,Entodon longisetus,W. Mitten,N/A,N/A,Ecuador,Tungurahua,N/A,Baños,Andes Quitenses. Baños.,Andes Quitenses Baños,N/A,N/A,N/A,1078203,Mix of Handwritten and Typed,no type status,
https://fm-digital-assets.fieldmuseum.org/2542/827/C2079720F.jpg,C2079720F,Marko Lewis,M. Lewis,N/A,79-590,8 February 1979,1979-02-08,N/A,Entodon cf. nano-climacium C.M. (= E. micans Herz.),Entodon nano-climacium,W. Buck,1980,N/A,Bolivia,Tarija,Méndez | Cercado | Avilés,N/A,"Canyon 5 mi. SW of Tablada, SW of Tarija","Canyon 5 miles southwest of Tablada, southwest of Tarija",Bank of creek,2160 m.,"21° 36' S., 64° 48' W.",1078758 | C2079720F,Mix of Handwritten and Typed,no type status,
https://fm-digital-assets.fieldmuseum.org/2542/829/C2079721F.jpg,C2079721F,"Marko Lewis, no. 79-1220",M. Lewis,N/A,79-1220,22 March 1979,1979-03-22,N/A,Entodon nano-climactum C.M. (= E. micans Herz.),Entodon nano-climactum,W. Buck,1980,N/A,Bolivia,La Paz,Larecaja,N/A,"Near large red outcrop 2 mi. from Sorata down Río Consata, 15° 41' S., 68° 43' W.",Near large red outcrop 2 miles from Sorata down Río Consata,Very shady ground along creek in humid shrubs,2600 m.,"15° 41' S., 68° 43' W.",1078799 | C2079721F | 10.46 RUS,Mix of Handwritten and Typed,no type status,
https://fm-digital-assets.fieldmuseum.org/2542/831/C2079722F.jpg,C2079722F,COLLECTED BY HARRY WARD FOOTE,H. W. Foote,N/A,s.n.,Sep. 3.,1911-09-03,N/A,Entodon platygyrioides C.M.,Entodon platygyrioides,N/A,N/A,N/A,Peru,N/A,N/A,San Miguel,On rocks above San Miguel,On rocks above San Miguel,On rocks,6000ft.,N/A,N/A,Mix of Handwritten and Typed,no type status,
https://fm-digital-assets.fieldmuseum.org/2542/835/C2079723F.jpg,C2079723F,Marko Lewis,M. Lewis,N/A,79-1346,1 April 1979,1979-04-01,N/A,cf. Entodon polycarpus,Entodon polycarpus,W. Buck,1980,N/A,Bolivia,La Paz,Larecaja,N/A,"Between Abra Huallata and waterfall at Millipaya, 15° 51' S., 68° 39' W.",Between Abra Huallata and waterfall at Millipaya,"Waterfall ravine, highest extension of shrubs",3780 m.,"15° 51' S., 68° 39' W.",1078757 | 1046746 | C2079723F,Mix of Handwritten and Typed,no type status,
https://fm-digital-assets.fieldmuseum.org/2542/837/C2079595F.jpg,C2079595F,H. Roivainen,H. Roivainen,N/A,2095,25.1.1970,1970-01-25,N/A,Isopterygium pulchellum (Hedw.) Jaeg.,Isopterygium pulchellum,R. Ochyra,1996,Nothofagus pumilio,Argentina,Tierra del Fuego,Ushuaia,Ushuaia,"Arroyo Grande (54°47'S, 68°17'W), en fisuras de roca y en raizes humoso-arcillosos de Nothofagus pumilio, en orilla de la cascada, 150 s.m., bastante copiosamente","Arroyo Grande, on the bank of the waterfall","in rock fissures and in humus-clayey roots of Nothofagus pumilio, on the bank of the waterfall, quite copiously",150 s.m.,"54°47'S, 68°17'W",1182417 | C2079595F,Mix of Handwritten and Typed,no type status,
https://fm-digital-assets.fieldmuseum.org/2542/839/C2079596F.jpg,C2079596F,H. Roivainen,H. Roivainen,N/A,1352,24.12.1969,1969-12-24,N/A,Isopterygium pulchellum (Brid.) Jaeg. det. R. Ochyra 1996,Isopterygium pulchellum,R. Ochyra,1996,N/A,Argentina,Tierra del Fuego,Ushuaia,N/A,"Valle del Río Pipo (54°46'S, 68°20'W), suelo humoso húmedo en el pendiente del río, 300 m s.m., bastante copiosamente",Valle del Río Pipo,"suelo humoso húmedo en el pendiente del río, bastante copiosamente",300 m s.m.,"54°46'S, 68°20'W",C2079596F | C207959,Mix of Handwritten and Typed,no type status,
https://fm-digital-assets.fieldmuseum.org/2542/842/C2079597F.jpg,C2079597F,leg. E. P. Killip & A. C. Smith,E. P. Killip,A. C. Smith,14871,"November 29, 1926",1926-11-29,N/A,Leptopterygium stigmosum (C.M.) Par.,Isopterygium tenerum,R. R. Ireland,1988,N/A,Colombia,Santander,N/A,N/A,between Puerto Wilches and Puerto Santos,between Puerto Wilches and Puerto Santos,N/A,alt. 110-115 m.,N/A,1040009,Mix of Handwritten and Typed,no type status,
https://fm-digital-assets.fieldmuseum.org/2542/844/C2079598F.jpg,C2079598F,RICHARD EVANS SCHULTES,R. E. Schultes,N/A,11110,"Dec., 1950",1950-12-00,N/A,Isopterygium tenerum (Sw.) Mitt.,Isopterygium tenerum,D. Griffin III | R. R. Ireland,1988,N/A,Colombia,Meta,N/A,Villavicencio,alrededores de Villavicencio,surroundings of Villavicencio,N/A,Alt. 500 m.,N/A,C2079598F,Mix of Handwritten and Typed,no type status,
https://fm-digital-assets.fieldmuseum.org/2542/846/C2079599F.jpg,C2079599F,D.C. Geijskes,D. C. Geijskes,N/A,s.n.,29-9-1952,1952-09-29,N/A,Isopterygium tenerum (Sw.) Mitt.,Isopterygium tenerum,H. R. Zielman,N/A,N/A,Suriname,N/A,N/A,N/A,Harowine River; Armina falls,Harowine River; Armina falls,"Rainforest On roots and rocks on bank of river, shade",N/A,N/A,1073518 | 1040096 | C2079599F,Mix of Handwritten and Typed,no type status,
https://fm-digital-assets.fieldmuseum.org/2542/848/C2079600F.jpg,C2079600F,"Ynes Mexia, No. 4841",Y. Mexia,N/A,4841,"July 6, 1930",1930-07-06,N/A,Isopterygium tenerum (Sw.) Mitt.,Isopterygium tenerum,R. R. Ireland,1988,N/A,Brazil,Minas Geraes,N/A,Vicosa,Agricultural College land. Horticultural hill. Cut over woods near base. On rotting log. Abundant.,Agricultural College land Horticultural hill Cut over woods near base On rotting log,Cut over woods near base On rotting log Abundant,Alt. 370 m.,N/A,C2079600F | C02079600F,Mix of Handwritten and Typed,no type status,
https://fm-digital-assets.fieldmuseum.org/2542/851/C2079601F.jpg,C2079601F,"Ynes Mexia, No. 4888",Y. Mexia,N/A,4888,"July 21, 1930",1930-07-21,N/A,Isopterygium laxum (Hpe.) Broth.,Isopterygium laxum,E. B. Bartram,N/A,N/A,Brazil,Minas Geraes,N/A,N/A,Viçosa Agricultural College lands. Corriga Riberro.,"Viçosa Agricultural College lands, Corriga Riberro",Shady streambank. On rotten wood.,Alt. 675 m.,N/A,82365 | 873365 | C2079601F,Mix of Handwritten and Typed,no type status,
https://fm-digital-assets.fieldmuseum.org/2542/853/C2079602F.jpg,C2079602F,"Ynes Mexia, No. 8380",Y. Mexia,N/A,8380,"Dec. 6, 1930",1930-12-06,N/A,Isopterygium brachyneuron (C. Müll.) Mitt.,Isopterygium tenerum,R. R. Ireland,1988,N/A,Brazil,Minas Gerais,N/A,Viçosa,Road to São Miguel,Road to São Miguel,Dense forest On rotten log In fruit,alt. 710 m.,N/A,C2079602 | 870841,Mix of Handwritten and Typed,no type status,
https://fm-digital-assets.fieldmuseum.org/2542/855/C2079603F.jpg,C2079603F,Ynes Mexia,Y. Mexia,N/A,5441,"Dec. 23, 1930",1930-12-23,N/A,Isopterygium tenerum (Sw.) Mitt.,Isopterygium tenerum,E. B. Bartram | R. R. Ireland,1988,N/A,Brazil,Minas Gerais,N/A,Viçosa,Viçosa Agricultural College lands. Base of Horticultural Hill.,Viçosa Agricultural College lands Base of Horticultural Hill,"On rotting log, in woods Abundant",Alt. 670 m.,N/A,17960 | C2079603F | 870823,Mix of Handwritten and Typed,no type status,
https://fm-digital-assets.fieldmuseum.org/2542/857/C2079604F.jpg,C2079604F,"H. S. Irwin, R. M. Harley, G. L. Smith",H. S. Irwin,R. M. Harley | G. L. Smith,31332,2 March 1971,1971-03-02,N/A,ISOPTERYGIUM TENERUM (Sw.) Mitt.,Isopterygium tenerum,R. R. Ireland,1988,Coccoloba sp,Brazil,Bahia,Barreiras,N/A,Valley of the Rio das Ondas ca. 10km W. of Barreiras,Valley of the Rio das Ondas approximately 10 kilometers west of Barreiras,On the bark and exposed roots of Coccoloba sp and on adjacent soil at river bank Cut-over gallery forest and adjacent cerrado,elev. ca. 500m,N/A,1059328 | C2079604F,Mix of Handwritten and Typed,no type status,
https://fm-digital-assets.fieldmuseum.org/2542/863/C2079606F.jpg,C2079606F,Ynes Mexia,Y. Mexia,N/A,4884,"July 21, 1935",1935-07-21,N/A,Isopterygium curvicollum (C.M.) Mitt.,Isopterygium tenerum,N. L. Bartram | R. R. Ireland,1988,N/A,Brazil,Minas Geraes,N/A,N/A,Viçosa Agricultural College lands Corrigo Riberro,Viçosa Agricultural College lands Corrigo Riberro,Shady streambank on rotten log Abundant,Alt. 675 m.,N/A,870845 | C2079606F,Mix of Handwritten and Typed,no type status,
https://fm-digital-assets.fieldmuseum.org/2542/865/C2079607F.jpg,C2079607F,"Ynes Mexia, No. 4698",Y. Mexia,N/A,4698,"May 14, 1930",1930-05-14,N/A,Isopterygiun curvicollum (C.M.) Mitt. ex p.,Isopterygium tenerum,R. R. Ireland | Bartram,1988,N/A,Brazil,Minas Geraes,N/A,Viçosa,Viçosa Alt. 700 m. Fazenda de Cresiuma. Wood on slope. On rotten log.,Fazenda de Cresiuma,Wood on slope On rotten log,Alt. 700 m.,N/A,6208839 | 870839 | C2079607F,Mix of Handwritten and Typed,no type status,
https://fm-digital-assets.fieldmuseum.org/2542/868/C2079608F.jpg,C2079608F,"Ynes Mexia, No. 4884",Y. Mexia,N/A,4884,"July 21, 1930",1930-07-21,N/A,Isopterygium curvicollum (C.M.) Mitt.,Isopterygium tenerum,E. B. Bartram | R. R. Ireland,1988,N/A,Brazil,Minas Geraes,N/A,N/A,Viçosa Agricultural College lands. Corrige Riberro.,Viçosa Agricultural College lands Corrige Riberro,Shady streambank on rotten log Abundant,Alt. 675 m.,N/A,1039977 | C2079608F,Mix of Handwritten and Typed,no type status,
https://fm-digital-assets.fieldmuseum.org/2542/870/C2079609F.jpg,C2079609F,"Ynes Mexia, No. 4545",Y. Mexia,N/A,4545,"March 31, 1930",1930-03-31,N/A,Isopterygium curvicollum (C.M.) Mitt.,Isopterygium curvicollum,N. Bartram,N/A,N/A,Brazil,Minas Geraes,N/A,Viçosa,"Viçosa. Alt. 710 m. Road to São Miguel. Near stream ""Turba."" Cut over woods on slope. On rotting tree trunk.",Road to São Miguel near stream Turba,Cut over woods on slope on rotting tree trunk,Alt. 710 m.,N/A,N/A,Mix of Handwritten and Typed,no type status,
https://fm-digital-assets.fieldmuseum.org/2542/875/C2079611F.jpg,C2079611F,leg. V. Schiffner,V. Schiffner,N/A,s.n.,m. Jul. fr.,unsure and check,N/A,Isopterygium aurantiacum (C. M.) Broth.,Isopterygium tenerum,R. R. Ireland,1988,N/A,Brazil,Sao Paulo,N/A,Cerqueira-Cesar,"prope urbem Cerqueira-Cesar, in palude, 500 m. s. m.",near the city Cerqueira-Cesar in a swamp,in palude,500 m. s. m.,N/A,1012176 | C2079611F,Mix of Handwritten and Typed,no type status,
https://fm-digital-assets.fieldmuseum.org/2542/877/C2079856F.jpg,C2079856F,"Ynes Mexia, No. 4841",Y. Mexia,N/A,4841,"July 6, 1930",1930-07-06,N/A,Isopterygium tenerum (Sw.) Mitt.,Isopterygium tenerum,R. R. Ireland,1988,N/A,Brazil,Minas Geraes,N/A,N/A,Viçosa Agricultural College lands Horticultural Hill Cut over woods near base On rotting log,Viçosa Agricultural College lands Horticultural Hill,Cut over woods near base On rotting log Abundant,Alt. 670 m.,N/A,870837 | C2079856F,Mix of Handwritten and Typed,no type status,
https://fm-digital-assets.fieldmuseum.org/2542/879/C2079858F.jpg,C2079858F,R. S. Williams,R. S. Williams,N/A,2095,"Jan. 29, 1902",1902-01-29,N/A,Isopterygium tenerum (Sw.) Mitt.,Isopterygium tenerum,R. R. Ireland,1988,N/A,Bolivia,N/A,N/A,San Buena Ventura,"San Buena Ventura, 1900 meters, on bark",San Buena Ventura,on bark,1900 meters,N/A,1039993 | C2079858F,Mix of Handwritten and Typed,no type status,
https://fm-digital-assets.fieldmuseum.org/2542/881/C2079859F.jpg,C2079859F,R. S. Williams,R. S. Williams,N/A,2059,1901-1902,1901-00-00,1902-00-00,Isopterygium tenerum (Sw.) Mitt.,Isopterygium tenerum,R. S. Williams | R. R. Ireland,23 Jan. 1902 | 1988,N/A,Bolivia,N/A,N/A,Tumupasa,Tumupasa,Tumupasa,N/A,N/A,N/A,1017412 | C2079859F,Mix of Handwritten and Typed,no type status,
https://fm-digital-assets.fieldmuseum.org/2550/919/C2010970F.jpg,C2010970F,leg. Hagen,I. Hagen,N/A,s.n.,27/7 1907,1907-07-27,N/A,Pogonatum urnigerum (L.) var. ab humile (Wahlenb.),Pogonatum urnigerum,unsure and check,N/A,N/A,Norway,Vestland,Stryn,N/A,"Indre Nordfjord amk, Opdal, Vårsiigæ","Opdal, Vårsiigæ",N/A,altit. mtr. 900,N/A,C2010970F,Mix of Handwritten and Typed,no type status,
https://fm-digital-assets.fieldmuseum.org/2550/921/C2010972F.jpg,C2010972F,Elihu Hall,E. Hall,N/A,s.n.,N/A,0000-00-00,N/A,Pogonatum urnigerum Brid.,Pogonatum urnigerum,N/A,N/A,N/A,United Kingdom,N/A,N/A,N/A,England,[precise locality unknown],N/A,N/A,N/A,C2010972F,Mix of Handwritten and Typed,no type status,
https://fm-digital-assets.fieldmuseum.org/2550/925/C2000534F.jpg,C2000534F,C. Fitzgerald,C. Fitzgerald,N/A,s.n.,1878,1878-00-00,N/A,Pogonatum urnigerum Polytrichum,Pogonatum urnigerum,unsure and check,N/A,Polytrichum,France,Occitanie,Hautes-Pyrénées,N/A,Pyrenées: Gorge de Jeret,Gorge de Jeret,N/A,N/A,N/A,C2000534F,Mix of Handwritten and Typed,no type status,
https://fm-digital-assets.fieldmuseum.org/2550/927/C2000536F.jpg,C2000536F,Wm. Mitten,W. Mitten,N/A,s.n.,19/5/ [Holle],unsure and check,N/A,Pogonatum urnigerum,Pogonatum urnigerum,N/A,N/A,N/A,United Kingdom,England,Sussex,N/A,Henley Hill Near Blackdown Mull,Henley Hill near Blackdown Mull,N/A,N/A,N/A,1096014,Mix of Handwritten and Typed,no type status,
https://fm-digital-assets.fieldmuseum.org/2550/929/C2000538F.jpg,C2000538F,Com. Gutz,Gutz,N/A,s.n.,1837,1837-00-00,N/A,Pogonatum unigerum,Pogonatum unigerum,Devr.,N/A,N/A,United States,California,N/A,N/A,Alparsl Cal.,Alparsl California,N/A,N/A,N/A,1182972 | C2000538F,Mix of Handwritten and Typed,no type status,
https://fm-digital-assets.fieldmuseum.org/2550/933/C2000542F.jpg,C2000542F,leg. Jeanpert,E. Jeanpert,N/A,s.n.,29/4/94,1894-04-29,N/A,Pogonatum urnigerum P. Beauv.,Pogonatum urnigerum,unsure and check,N/A,N/A,France,Aisne,Villers Cotterets,N/A,"route de Soissons, cassière. sable","route de Soissons, cassière",sable,N/A,N/A,1058477 | 02000542E,Mix of Handwritten and Typed,no type status,
https://fm-digital-assets.fieldmuseum.org/2550/935/C2000932F.jpg,C2000932F,C. Müller Frib.,C. Müller,N/A,s.n.,9. Sept. 1905,1905-09-09,N/A,Pogonatum urnigerum (L.) Pal. Beauv. c. fr.,Pogonatum urnigerum,N/A,N/A,N/A,Germany,Baden,N/A,N/A,auf Erde in Felsritzen zwischen Rinken und Seebruck am Feldberge,between Rinken and Seebruck at Feldberg,on soil in rock crevices,etwa 1250 m s. m.,N/A,1194391 | C2000932F,Mix of Handwritten and Typed,no type status,
https://fm-digital-assets.fieldmuseum.org/2550/937/C2000934F.jpg,C2000934F,leg. Zd. Pilous,Z. Pilous,N/A,214,V. 1946,1946-05-00,N/A,Pogonatum urnigerum P. B.,Pogonatum urnigerum,N/A,N/A,N/A,Czech Republic,Bohemia,Krkonoše,Hoření Vrchlabí,In declivis graminosis silvaticis prope pagum Hoření Vrchlabí ca 580 m,near the village Hoření Vrchlabí,on grassy wooded slopes,ca 580 m,N/A,1270015,Mix of Handwritten and Typed,no type status,
https://fm-digital-assets.fieldmuseum.org/2550/939/C2000936F.jpg,C2000936F,Collected in 1841-8 by James Thompson,J. Thompson,N/A,s.n.,Sept. 1843,1843-09-00,N/A,Pogonatum urnigerum,Pogonatum urnigerum,N/A,N/A,N/A,United Kingdom,Scotland,N/A,N/A,Clova Mts.,Clova Mountains,N/A,N/A,N/A,1230920,Mix of Handwritten and Typed,no type status,
https://fm-digital-assets.fieldmuseum.org/2550/941/C2000938F.jpg,C2000938F,leg. Philippe,Philippe,N/A,s.n.,N/A,0000-00-00,N/A,Pogonatum urnigerum,Pogonatum urnigerum,N/A,N/A,N/A,France,N/A,N/A,N/A,Peña de Lheris,Peña de Lheris,N/A,N/A,N/A,1058446,Mix of Handwritten and Typed,no type status,
https://fm-digital-assets.fieldmuseum.org/2550/943/C2000940F.jpg,C2000940F,Iroquois Coll.,Iroquois Coll.,N/A,s.n.,1848.,1848-00-00,N/A,"Pogonatum urnigerum, Breutel",Pogonatum urnigerum,N/A,N/A,N/A,Germany,N/A,N/A,N/A,Germany,[precise locality unknown],N/A,N/A,N/A,1159426,Mix of Handwritten and Typed,no type status,
https://fm-digital-assets.fieldmuseum.org/2550/946/C2000943F.jpg,C2000943F,Leg. C. Jensen,C. Jensen,N/A,s.n.,25/10 1901,1901-10-25,N/A,Pogonatum urnigerum (Hedw.) P. B.,Pogonatum urnigerum,C. Jensen,N/A,N/A,Denmark,Sjælland,N/A,Hvalsø,Magistratskov by Hvalsø in a gravel-pit,Magistratskov by Hvalsø in a gravel-pit,in a gravel-pit,N/A,N/A,N/A,Mix of Handwritten and Typed,no type status,
https://fm-digital-assets.fieldmuseum.org/2550/948/C2000945F.jpg,C2000945F,N/A,N/A,N/A,s.n.,s.d.,0000-00-00,N/A,N/A,N/A,N/A,N/A,N/A,N/A,N/A,N/A,N/A,N/A,[precise locality unknown],N/A,N/A,N/A,1058475,Mix of Handwritten and Typed,no type status,
https://fm-digital-assets.fieldmuseum.org/2550/950/C2000947F.jpg,C2000947F,1876 leg. Restoin,Restoin,N/A,s.n.,1876,1876-00-00,N/A,Pogonatum urnigerum P.B.,Pogonatum urnigerum,unsure and check,N/A,N/A,France,Manche,N/A,Sourdenal,Sourdenal (Manche),Sourdenal,N/A,N/A,N/A,1058481,Mix of Handwritten and Typed,no type status,
https://fm-digital-assets.fieldmuseum.org/2550/952/C2000949F.jpg,C2000949F,ex herb. George E. Hunt,G. E. Hunt,N/A,s.n.,MAY 1946,1946-05-00,N/A,Pogonatum urnigerum Bride,Pogonatum urnigerum,unsure and check,N/A,N/A,United Kingdom,Scotland,N/A,N/A,Scotland SCOTLAND,[precise locality unknown],N/A,N/A,N/A,1182976,Mix of Handwritten and Typed,no type status,
https://fm-digital-assets.fieldmuseum.org/2550/954/C2010614F.jpg,C2010614F,Leg. M. Onraedt,M. Onraedt,N/A,76.6.8693,Le 18.07.1976,1976-07-18,N/A,"Pogonatum urnigerum I. Beauv., Schimp. = Polytrichum urnigerum L.",Pogonatum urnigerum,M. Onraedt,N/A,Polytrichum urnigerum,Switzerland,Valais,Val d'Hérens,La Forclaz,"sur talus ensoleillé, alt. ca. 1750 m.",La Forclaz,sur talus ensoleillé,alt. ca. 1750 m.,N/A,2010614F | 06087,Mix of Handwritten and Typed,no type status,
https://fm-digital-assets.fieldmuseum.org/2550/956/C2010616F.jpg,C2010616F,Leg. M. Onraedt,M. Onraedt,N/A,76.5.1580,Le 24/07/1976,1976-07-24,N/A,Pogonatum urnigerum P. Beauv. Schimp.,Pogonatum urnigerum,Jus,N/A,N/A,Switzerland,Valais,Val d'Hérens,N/A,entre St Martin et Mass.,between St Martin and Mass,talus forestier,alt. 1600m,N/A,C2010616F,Mix of Handwritten and Typed,no type status,
https://fm-digital-assets.fieldmuseum.org/2550/958/C2010618F.jpg,C2010618F,Barnes legit.,Barnes,N/A,s.n.,Feb. 1868.,1868-02-00,N/A,Pogonatum urnigerum,Pogonatum urnigerum,N/A,N/A,N/A,United Kingdom,England,Westmorland,N/A,Westmorland.,[precise locality unknown],N/A,N/A,N/A,1058318 | C2010618F,Mix of Handwritten and Typed,no type status,
https://fm-digital-assets.fieldmuseum.org/2550/960/C2010620F.jpg,C2010620F,"Jack, Leiner u. Stizenberger",Jack,Leiner | Stizenberger,986A b,25. August 1850,1850-08-25,N/A,Pogonatum urnigerum (L.) Pal. Beauv.,Pogonatum urnigerum,unsure and check,N/A,N/A,Germany,Baden-Württemberg,N/A,Salem,An Waldgräben bei Salem,[precise locality unknown],N/A,N/A,N/A,1054838,Mix of Handwritten and Typed,no type status,
https://fm-digital-assets.fieldmuseum.org/2550/962/C2010622F.jpg,C2010622F,Dr. Hepp,Dr. Hepp,N/A,986 B,17. October 1862,1862-10-17,N/A,Pogonatum urnigerum (L.) Pal. Beauv.,Pogonatum urnigerum,unsure and check,N/A,N/A,Germany,Baden-Württemberg,N/A,Degerfelden,An einem Waldrande auf dem rothen Sandsteinbruche oberhalb Degerfelden,at a forest edge on the red sandstone quarry above Degerfelden,at a forest edge on the red sandstone quarry,N/A,N/A,1054981,Mix of Handwritten and Typed,no type status,
https://fm-digital-assets.fieldmuseum.org/2550/964/C2010624F.jpg,C2010624F,Schenk,Schenk,N/A,s.n.,September 1862,1862-09-00,N/A,Pogonatum urnigerum (L.) Pal. Beauv.,Pogonatum urnigerum,N/A,N/A,N/A,Switzerland,Schaffhausen,N/A,Rheinbergen,In Rheinbergen bei Schaffhausen,In Rheinbergen,N/A,N/A,N/A,1055069,Mix of Handwritten and Typed,no type status,
https://fm-digital-assets.fieldmuseum.org/2550/966/C2010626F.jpg,C2010626F,Coll. and determ. C. Jensen,C. Jensen,N/A,s.n.,"November 21, 1904",1904-11-21,N/A,Pogonatum urnigerum (Hedw.) P. Beauv. c. fr.,Pogonatum urnigerum,C. Jensen,N/A,N/A,Denmark,Zealand,N/A,Hvalsö,sandy soil in Magistratskoven south of Hvalsö,Magistratskoven south of Hvalsö,sandy soil,N/A,N/A,104,Typed,no type status,
https://fm-digital-assets.fieldmuseum.org/2550/968/C2010974F.jpg,C2010974F,P. Allorge leg. 22. VII. 1927.,P. Allorge,N/A,s.n.,22. VII. 1927.,1927-07-22,N/A,"Pogonatum urnigerum (Linné Sp. Plant. II, p. 1100, N° 3, 1753, sub Polytricho), Palisot de Beauvois Prodr., p. 88, 1805.",Pogonatum urnigerum,unsure and check,N/A,Blasia pusilla | Pellia epiphylla | Alicularia scalaris | Dichodontium pellucidum | Rhyttidiadelphus loreus,Spain,Navarra,N/A,N/A,"Puerto de Ibañeta (Navarra), talus argileux (schistes) avec Blasia pusilla L., Fedia epipactis (L.) Judson, Almeria scalaria Corda, Dichodontium pellucidum (L. pp.) Schimp., Rhytidiadelphus loreus (Dill., L.) Warnst.",Puerto de Ibañeta,"talus argileux (schistes) avec Blasia pusilla L., Fedia epipactis (L.) Judson, Almeria scalaria Corda, Dichodontium pellucidum (L. pp.) Schimp., Rhytidiadelphus loreus (Dill., L.) Warnst. Alt. ca 1.050 m. Calcifuge, mésophile, sciaphile. Fréquent sur les talus siliceux frais, récemment dénudés.",Alt. ca 1.050 m.,N/A,1200129,Mix of Handwritten and Typed,no type status,
https://fm-digital-assets.fieldmuseum.org/2550/970/C2010976F.jpg,C2010976F,leg. Zd. Pilous,Z. Pilous,N/A,1025,VII.1949,1949-07-00,N/A,Pogonatum urnigerum Pal. var. humile Brid.,Pogonatum urnigerum var. humile,N/A,N/A,N/A,Slovakia,Nízke Tatry,N/A,N/A,"Montes Nízké Tatry: In terra montis Ďumbier, ca 1840 m",[precise locality unknown],N/A,ca 1840 m,N/A,1350887 | C2010976F,Mix of Handwritten and Typed,no type status,
https://fm-digital-assets.fieldmuseum.org/2550/990/C1042257F.jpg,C1042257F,"S. Churchill et al. Con H. Huaylla, R. Lozano, M. Serrano",S. Churchill,H. Huaylla | R. Lozano | M. Serrano,22853,12 May 2004,2004-05-12,N/A,Neckera scabridens C. Müller,Neckera scabridens,S. Churchill,Jun 2004,Prumnopitys exigua | Podocarpus | Myrcianthes | N. chilensis,Bolivia,Chuquisaca,Belisario Boeto,N/A,"Monte Grande, ca. 32 km de Villa Serrano","Monte Grande, approximately 32 kilometers from Villa Serrano",Bosque montano de yungas Musgo sobre rama de árbol c.fr.,2740 m,"18°43'43""S 64°29'07""W",N/A,Mix of Handwritten and Typed,no type status,
https://zenodo.org/record/1486506/files/K000931304.jpg,K000931304,E. Cordula (309%) Y. Melo & L. Pinheiro,E. Cordula,Y. Melo | L. Pinheiro,309,23/VI/2007,2007-06-23,N/A,Ancistrotropis peduncularis (Fawcett & Rendle) A. Delgado (Phaseolus peduncularis Fawcett & Rendle) (Vigna peduncularis (Kunth) Fawcett & Rendle),Ancistrotropis peduncularis,G. P. Lewis,12.2012,N/A,Brazil,Pernambuco,Mirandiba,Mirandiba,Serra das Umburanas (afloramento rochoso),Serra das Umburanas,"Caatinga arbustiva, sobre embasamento cristalino",457m (base),Lat.: 8°12' S Long.: 38°32' W,K000931304 | 49243,Mix of Handwritten and Typed,no type status,
https://zenodo.org/record/1485174/files/EIG.6763.jpg,EIG.6763,Ilkka Kukkonen,I. Kukkonen,N/A,11003,13. Sept. 1981,1981-09-13,N/A,Arthropteris tenella (Forst. F.) J. Sm.,Arthropteris tenella,J. Sarvela,1982,N/A,Australia,Queensland,N/A,N/A,"Atherton Tableland Lamin's Hill, E. of Malanda","Atherton Tableland, Lamin's Hill, east of Malanda",Patch of rain forest Fern climbing on tree stems,N/A,UTM grid:,1459190 | EIG.6763,Mix of Handwritten and Typed,no type status,
https://zenodo.org/record/1486594/files/K001046329.jpg,K001046329,Cabral 5/21,Cabral,N/A,5/21,7-9-60,1960-09-07,N/A,Avicennia tomentosa,Avicennia tomentosa,A. P. Duarte,23-9-60,N/A,Brazil,Guanabara,N/A,N/A,mangue próximo ao Jóquei Club da Ilha do Governador,mangue próximo ao Jóquei Club da Ilha do Governador,Arbusto e pequenas árvores de flores brancas,N/A,N/A,2121 | K001046329,Mix of Handwritten and Typed,no type status,
https://zenodo.org/record/1486540/files/K000964719.jpg,K000964719,W. Hoehne,W. Hoehne,N/A,10228,13/9/33,1933-09-13,N/A,Cestrum corymbosum Schlecht.,Cestrum corymbosum,M. Kuhlmann,17.10.2013,N/A,Brazil,São Paulo,N/A,São Paulo,Cantareiras. São Paulo. Alt: -,Cantareiras,N/A,Alt: -,N/A,K000964719 | SPF 10228,Mix of Handwritten and Typed,no type status,
https://zenodo.org/record/1485130/files/EIG.5460.jpg,EIG.5460,N/A,N/A,N/A,N/A,N/A,N/A,N/A,N/A,N/A,N/A,N/A,N/A,N/A,N/A,N/A,N/A,N/A,[precise locality unknown],N/A,N/A,N/A,1126455,Typed,no type status,mask_94
https://zenodo.org/record/1485102/files/EIG.435.jpg,EIG.435,Ilkka Kukkonen 12608,I. Kukkonen,N/A,12608,8.XI.1982,1982-11-08,N/A,Dryopteris inaequalis (Schlechtend.) O. Kuntze,Dryopteris inaequalis,J. Sarvela,1987,Festuca schefflerii | Euryops prostrata | Anthemis tigrensis | Juniperus procera,Ethiopia,Oromia,Bale,N/A,"Bale Adm. Reg., Saneti plateau and Mount Batu, 06°55'N; 39°40'E, c. 4000-4200 m.",Saneti plateau and Mount Batu,"In alpine belt dominated by Festuca schefflerii, Euryops prostrata, Anthemis tigrensis. Steep forested slope of a river canyon, e.g. Juniperus procera. Pastured slope.",c. 4000-4200 m. Alt. c. 3400 m.,06°55'N; 39°40'E,H 44489739 | H 1489739 | H 459739 | EIG.435,Mix of Handwritten and Typed,no type status,
https://zenodo.org/record/1484126/files/E00570050.jpg,E00570050,"Vallejo-Marin, M. 11-LED-seed-2-14",M. Vallejo-Marin,N/A,11-LED-seed-2-14,23 Mar 2012,2012-03-23,N/A,Mimulus peregrinus sp. nov.,Mimulus peregrinus,N/A,N/A,Mimulus x robertsii,United Kingdom,Scotland,South Lanarkshire,Leadhills,"Site no. 77, Shottock Water, Leadhills, South Lanarkshire, Scotland, OS Grid reference NS 9029 1578, WGS84 coordinates: 55.423° N, 3.734° W","Site number 77, Shottock Water, Leadhills",Occurring on the banks of a stream on a substrate of sand and shingle,360 m.,"OS Grid reference NS 9029 1578, WGS84 coordinates: 55.423° N, 3.734° W",E0075090 | E00570050,Mix of Handwritten and Typed,holotype,
https://zenodo.org/record/1485964/files/K000773283.jpg,K000773283,B. T. Lowne,B. T. Lowne,N/A,s.n.,Aug. 9th 1902,1902-08-09,N/A,Monotropa Hypopitys,Monotropa hypopitys,N/A,N/A,N/A,United Kingdom,Surrey,N/A,N/A,"Reigate Hill, Surrey.",Reigate Hill,N/A,N/A,N/A,K000773283 | 45 | 266 | 1126 | 648,Mix of Handwritten and Typed,no type status,
https://zenodo.org/record/1480969/files/BR0000006918378.jpg,BR0000006918378,Bart Van de Vijver,B. Van de Vijver,N/A,s.n.,25/04/2007,2007-04-25,N/A,Ophrys oestrifera subsp. garganensis Van de Vijver & W. Van Looken,Ophrys oestrifera subsp. garganensis,N/A,N/A,Cistus | Pinus,Italy,Promontorio del Gargano,Madonna di Loreto,N/A,Behind the Chapel of Madonna di Loreto,Behind the Chapel of Madonna di Loreto,macchia-shrub with Cistus and Pinus,N/A,N/A,691 837 | 000006 91837 | 8,Mix of Handwritten and Typed,no type status,
https://zenodo.org/record/1486710/files/K001207911.jpg,K001207911,G. Hatschbach 26509,G. Hatschbach,N/A,26509,971,1971-00-00,N/A,Pfaffia glabrata Schult.,Pfaffia glabrata,H. M. Pedersen,N/A,N/A,Brazil,Paraná,Guarapuava,Guarapuava,"Rio Iguaçu, prox. à barra do Perdido (mun. Guarapuava, lat. 25°09'S/long. 51°30'W)","Rio Iguaçu, near the mouth of Perdido","Erva 1m, terreno arenoso, margens de rio",N/A,lat. 25°09'S/long. 51°30'W,K001207911,Mix of Handwritten and Typed,no type status,
https://zenodo.org/record/1485807/files/K000263710.jpg,K000263710,"J.J. de Wilde, Sosef & van Nek",J. J. de Wilde,Sosef | van Nek,10130,22-1-1991,1991-01-22,N/A,Rhynchosia gabonensis Jongkind,Rhynchosia gabonensis,unsure and check,N/A,N/A,Gabon,N/A,N/A,N/A,About 10 km. on the road from Tchimbélé to Assok,About 10 kilometers on the road from Tchimbélé to Assok,Vine 7 meters long in tree in roadside Pods silvery-grey Seeds glossy dark blue Leaflets thick leathery dull green above beneath paler green with reddish nervation,Alt.: 580 m.,"0 04 N., 10 23 E.",K000263710,Mix of Handwritten and Typed,Isotype,
https://zenodo.org/record/1480461/files/BM000934757.jpg,BM000934757,WILHELM SUKSDORF,W. Suksdorf,N/A,12045,3. Aug. 1926.,1926-08-03,N/A,Solanum triflorum Nutt.,Solanum triflorum,T. Särkinen,E 2014,N/A,United States,Washington,Klickitat,Bingen,High sandy river-bank at Bingen.,High sandy river-bank at Bingen,High sandy river-bank,N/A,N/A,BM000934757,Mix of Handwritten and Typed,no type status,
https://zenodo.org/record/1485887/files/K000536956.jpg,K000536956,COLL. J. FRANCIS MACBRIDE,J. F. Macbride,N/A,5234,"AUG. 27-SEPT. 1, 1923",1923-08-27,1923-09-01,Tococa undabunda Macbr.,Tococa undabunda,F. A. Michelangeli,"30.08 | 2008 | 20...08 (multiple labels, all as appearing on label)",N/A,Peru,N/A,N/A,La Merced,HACIENDA CHURIA | HACIENDA SCHUNKE (appears as both on different labels),Hacienda Churia | Hacienda Schunke,Montaña slope | Montaña (as appearing on different labels),ABOUT 4000 FEET,N/A,K000536956,Mix of Handwritten and Typed,Isotype,
https://zenodo.org/record/1479535/files/B%2010%200375227.jpg,B 10 0375227,"X.Cornejo, C.Bonifaz 5822",X. Cornejo,C. Bonifaz,5822,"Oct. 27, 1997",1997-10-27,N/A,Capparis sclerophylla Iltis nov.sp. ISOTIPO,Capparis sclerophylla,unsure and check,N/A,Capparis heterophylla | Capparis scabrida | Capparis lanceolata | Capparis crotonoides,Ecuador,Manabí,N/A,Bahía de Caráquez,"Bahía de Caráquez a 8 Km. Alrededores de Universidad Católica. Bosque seco tropical deciduo, fuertemente intervenido.","8 kilometers from Bahía de Caráquez, surroundings of Universidad Católica","Bosque seco tropical deciduo, fuertemente intervenido",ALTITUD (m) 30,"LATITUD -00,45 LONGITUD -80,32",B 10 0375227,Mix of Handwritten and Typed,isotype,
https://zenodo.org/record/1479341/files/B%2010%200185601.jpg,B 10 0185601,M. l'Abbé DELAVAY,M. l'Abbé Delavay,N/A,s.n.,2 april 1887,1887-04-02,N/A,Gentiana albescens Franch.,Gentiana albescens,unsure and check,N/A,N/A,China,Yunnan,N/A,N/A,in collibus prope Mo-so-yn,in hills near Mo-so-yn,N/A,N/A,N/A,B 10 0185601 | HgC12,Mix of Handwritten and Typed,no type status,
https://zenodo.org/record/1479171/files/B%2010%200030508.jpg,B 10 0030508,Winfried Meier y Silvia Llamozas,W. Meier,S. Llamozas,3685,16-19 de abril 1993,1993-04-16,1993-04-19,Klarobelia subglobosa DET. Chatrou,Klarobelia subglobosa,J. Chatrou | P. J. M. Maas,1994,Malmea diclina,Venezuela,Distrito Federal,Estado Miranda,N/A,Cordillera de la Costa: excursión Guatire-Caruao: ruta: Fila Juan Torres-Río Brazo Grande-Fila Maestra-Río Caruao-población San Jorge de Caruao,"Cordillera de la Costa, Fila Juan Torres, Río Brazo Grande, Fila Maestra, Río Caruao, población San Jorge de Caruao","en selva, árbol caído, secado, género nuevo para Venezuela",alt.: 500 msnm,"lat.: 10°34'N, long.: 66°23'0",B 10 0030508,Mix of Handwritten and Typed,Isotypus,
https://zenodo.org/record/1479203/files/B%2010%200069251.jpg,B 10 0069251,P.K. Kessler,P. K. Kessler,N/A,283,21.12.1988,1988-12-21,N/A,Mallotus paniculatus,Mallotus paniculatus,P. K. Kessler,N/A,N/A,Malaysia,Sarawak,1st Division,N/A,Base of Gunung Pueh,Base of Gunung Pueh,Secondary vegetation along road,Alt. up to 200 m,N/A,B 10 0069251 | BGBM2003,Mix of Handwritten and Typed,no type status,
https://zenodo.org/record/1479479/files/B%2010%200279821.jpg,B 10 0279821,M. JACOBS,M. Jacobs,N/A,5005,Aug. 1,1958-08-01,N/A,Piptospatha grabowskii (Engl.) Engl. (Syn. P. havilandii (Engl.) Engl.),Piptospatha grabowskii,unsure and check,N/A,N/A,Malaysia,Sarawak,1st div.,N/A,"N. slopes of Mount Penrissen (S. of Kuching), approx. 1°5' N, 110°15' E",North slopes of Mount Penrissen south of Kuching,Primary forest on sandstone substratum in very moist sandstone gorge on rocks,Alt. c. 700-900 m.,"approx. 1°5' N, 110°15' E",B 10 0279821 | B 10 0279827 | B 10 0242892,Mix of Handwritten and Typed,no type status,
https://zenodo.org/record/1479168/files/B%2010%200030420.jpg,B 10 0030420,"P. J. M. & H. Maas, L. Kollmann",P. J. M. Maas,H. Maas | L. Kollmann,8833,16 Feb 1999,1999-02-16,N/A,Pseudoxandra spiritus-sancti Maas,Pseudoxandra spiritus-sancti,P. J. M. Maas,"Utrecht, 2001",N/A,Brazil,Espírito Santo,Santa Teresa,Santa Teresa,"Est. Espírito Santo, Município de Santa Teresa, Estação Biológica de Santa Lúcia",Estação Biológica de Santa Lúcia,"High forest, on brown sand; vegetation with many Palmae and terrestrial and epiphytic Bromeliaceae",800 m,"19°58'5""S 40°32'W",B 10 0030420,Mix of Handwritten and Typed,Isotype,
https://zenodo.org/record/1479553/files/B%2010%200385068.jpg,B 10 0385068,"leg. R. Berazaín, J. Bisse, M. A. Díaz, H. Dietrich, L. González Géigel, J. Gutiérrez, E. Köhler, L. Lepper, U. Rändel, H. Schaarschmidt",R. Berazaín,J. Bisse | M. A. Díaz | H. Dietrich | L. González Géigel | J. Gutiérrez | E. Köhler | L. Lepper | U. Rändel | H. Schaarschmidt,HFC 39098,09-11-1979,1979-11-09,N/A,Sclerolinon pallidum H. Dietr.,Sclerolinon pallidum,H. Manitz,2007,N/A,Cuba,Guantánamo,San Antonio del Sur,N/A,"Abra de Mariana, loma al oeste del barranco","Abra de Mariana, hill to the west of the ravine",N/A,N/A,Coordenadas de la cuadrícula (Cuba 1:250000): 16/71 [15°/70°],B 10 0385068,Mix of Handwritten and Typed,Isotypus,
