accessURI,catalogNumber,verbatimCollectors,collectedBy,secondaryCollectors,recordNumber,verbatimEventDate,minimumEventDate,maximumEventDate,verbatimIdentification,latestScientificName,identifiedBy,verbatimDateIdentified,associatedTaxa,country,firstPoliticalUnit,secondPoliticalUnit,municipality,verbatimLocality,locality,habitat,substrate,verbatimElevation,verbatimCoordinates,otherCatalogNumbers,originalMethod,typeStatus
https://fm-digital-assets.fieldmuseum.org/2433/459/V0573776F.jpg,V0573776F,Dr. Edgar A. Mearns,E. A. Mearns,N/A,2832,Jan. 10 to Feb. 1910,1910-01-10,1910-02-02,Cyperus callistus Ridley,Cyperus maculatus Bock.,J. Raynal,19.10.1971,N/A,"Congo, the Democratic Republic of the",N/A,N/A,N/A,"""Rhino Camp,"" Bahr el Jebel, Lado Enclave, Congo Free State","""Rhino Camp,"" Bahr el Jebel, Lado Enclave",N/A,N/A,N/A,N/A,468360,Mix of Handwritten and Typed,no type status
https://fm-digital-assets.fieldmuseum.org/2437/184/V0576008F.jpg,V0576008F,F. G. Overlaet,F. G. Overlaet,N/A,s.n.,1923-4,1923-00-00,1924-00-00,Habenaria,Habenaria,Börge Pettersson,1984,N/A,"Congo, the Democratic Republic of the",N/A,N/A,N/A,Belgian Congo,[precise locality unknown],N/A,N/A,N/A,N/A,752356,Mix of Handwritten and Typed,no type status
https://fm-digital-assets.fieldmuseum.org/2433/678/V0576279F.jpg,V0576279F,R. A. Maas Gesteranus,R. A. Maas Gesteranus,N/A,4924,14-VI 1949,1949-06-14,N/A,Pycreus segmentatus C.B.Cl.,Pycreus segmentatus C.B.Cl.,N/A,N/A,Dombeya mastersii and Olea hochstetteri,Kenya,Nyanza,N/A,N/A,"Nyanza Province, Londiani Distr., Tinderet Forest Reserve, Camp I","Londiani District, Tinderet Forest Reserve, Camp I","Glade surrounded by open, tall forest",N/A,2260 m s.m.,"lat. 0° 5' S., long. 35° 27' E.",1447352,Mix of Handwritten and Typed,no type status
https://fm-digital-assets.fieldmuseum.org/2437/413/V0577013F.jpg,V0577013F,J. M. et B. Reitsma,J. M. Reitsma,B. Reitsma,2013,3-3-36,1986-03-03,N/A,Bulbophyllum scaberulum (Rolfe) Bolus var. scaberulum,Bulbophyllum scaberulum (Rolfe) Bolus var. scaberulum,O. Kosovsky,2011,N/A,Gabon,N/A,N/A,N/A,"Ca. 6 km NW of Oveng, chantier Rougier Océan ","Ca. 6 kilometers northwest of Oveng, chantier Rougier Océan",Primary rain forest,N/A,N/A,0 41 N x 11 07 E,2310219,Typed,no type status
https://fm-digital-assets.fieldmuseum.org/2434/201/V0577892F.jpg,V0577892F,Carvalho,Carvalho,N/A,2102,26-VII-1986,1986-07-26,N/A,Mariscus alternifolius Vahl,Mariscus alternifolius Vahl,C. Cebolla & Ma A. Rivas Ponce,1995,N/A,Equatorial Guinea,N/A,N/A,Malabo,"Bioco: Malabo, finca las Carboneras","Bioco: Malabo, finca las Carboneras",Bosque secundario y terrenos incultos,N/A,8 m,32NMK7415,220108,Typed,no type status
https://fm-digital-assets.fieldmuseum.org/2437/617/V0578553F.jpg,V0578553F,Fernandez Casas,Fernandez Casas,N/A,11206,5-II-1989,1989-02-05,N/A,Agrostis manii (Hooker fil.) Stapf,Agrostis manii (Hooker fil.) Stapf,N/A,N/A,N/A,Equatorial Guinea,N/A,N/A,N/A,Bioco: cumbre del pico Basilé,Bioco: cumbre del pico Basilé,Márgenes de la pista,N/A,2870 m,32NMJ7396,2200806,Typed,no type status
https://fm-digital-assets.fieldmuseum.org/2441/863/V0574052F.jpg,V0574052F,F. G. Overlaet,F. G. Overlaet,N/A,s.n.,1923-4,1923-00-00,1924-00-00,Scirpus,Scirpus mucronatus L.,A. A. Beetle,1944,N/A,"Congo, the Democratic Republic of the",N/A,N/A,N/A,Belgian Congo,[precise locality unknown],N/A,N/A,N/A,N/A,752378,Mix of Handwritten and Typed,no type status
https://fm-digital-assets.fieldmuseum.org/2446/122/V0577681F.jpg,V0577681F,C.J.P. Seegeler,C. J. P. Seegeler,N/A,2806,23 October 1972,1972-10-23,N/A,Vernonia abyssinica Sch.Bip.,Vernonia abyssinica Sch.Bip.,G.J.H. Amshoff,1982,N/A,Ethiopia,N/A,N/A,N/A,"Shewa, c. 3 km from Metahara, on road to Nazareth ","Shewa, ca. 3 kilometers from Metahara, on road to Nazareth",N/A,rock,925m,c. 08° 56' N 39° 55' E,2302805,Typed,no type status
https://fm-digital-assets.fieldmuseum.org/2442/190/V0597557F.jpg,V0597557F,P-Beatra,P-Beatra,N/A,48,05.08.2003,2003-08-05,N/A,Cardus leptacanthus Fres,Cardus leptacanthus Fres,N/A,N/A,N/A,"Congo, the Democratic Republic of the",Sud-Kivu,N/A,N/A,"Parc National de Kahuzi-Biega, Kabare, Musisi","Parc National de Kahuzi-Biega, Kabare, Musisi",N/A,N/A,N/A,N/A,2257689,Mix of Handwritten and Typed,no type status
https://fm-digital-assets.fieldmuseum.org/2452/643/V0594376F.jpg,V0594376F,J.M. Fay,J. M. Fay,N/A,8017,25 May 1987,1987-05-25,N/A,Burkea africana Hook.,Burkea africana Hook.,J.M. Fay,N/A,N/A,Central African Republic,N/A,N/A,N/A,Park Manovo-Gounda-St. Floris. Vicinity of Camp Koumbala,Park Manovo-Gounda-Saint Floris. Vicinity of Camp Koumbala,N/A,N/A,600 m,08°29'N 21°12'E,1999188,Typed,no type status
https://fm-digital-assets.fieldmuseum.org/2453/856/V0597275F.jpg,V0597275F,P.C.M. Jansen,P. C. M. Jansen,N/A,5996,14 April 1976,1976-04-14,N/A,Circium vulgare (Savi) Ten.,Circium vulgare (Savi) Ten.,C.H.H. Jongkind,1987,N/A,Ethiopia,N/A,N/A,N/A,"Harege, around Damata Village, near Alemaya ","Harege, around Damata Village, near Alemaya ",Between chat and Sorgum fields,N/A,2000m,c. 9°24' N 42°01' E,2302849,Typed,no type status
https://fm-digital-assets.fieldmuseum.org/2454/013/V0597626F.jpg,V0597626F,"Amanda Koch, Wilson Sakuda",A. Koch,W. Sakuda,AK61,"October 22, 2003",2003-10-22,N/A,Acacia reficiens misera (Vatke) Brenan,Acacia reficiens misera (Vatke) Brenan,Patrick Mutiso,"November 02, 2003",N/A,Kenya,N/A,N/A,N/A,Kajiado District:Oloishobor,Kajiado District:Oloishobor,Dry bushland,N/A,N/A,N/A,2309478,Typed,no type status
https://fm-digital-assets.fieldmuseum.org/2454/080/V0597688F.jpg,V0597688F,J. Lebrun,J. Lebrun,N/A,2409,Mart 1931,1931-03-00,N/A,Albizia gummifera (Gmel.) C. A. Smith,Albizia gummifera (Gmel.) C. A. Smith,N/A,N/A,N/A,"Congo, the Democratic Republic of the",N/A,N/A,N/A,Congo Belge. Lebo. (Uélé-Itimbiri),Lebo (Uélé-Itimbiri),N/A,N/A,N/A,N/A,867368,Handwritten,no type status
https://fm-digital-assets.fieldmuseum.org/2460/308/V0588237F.jpg,V0588237F,Verdcourt,Verdcourt,N/A,2077,25.12.1957,1957-12-25,N/A,Digitaria pennata (Hoscht.) Chiov.,Digitaria pennata (Hoscht.) Chiov.,N/A,N/A,N/A,Kenya,N/A,N/A,N/A,Tsavo-Mtito Andei,Tsavo-Mtito Andei,N/A,N/A,N/A,N/A,1559644,Handwritten,no type status
https://fm-digital-assets.fieldmuseum.org/2460/430/V0580026F.jpg,V0580026F,H. Callens,H. Callens,N/A,s.n.,Juillet 1958,1958-07-00,N/A,Gaertnera paniculata,Gaertnera paniculata,H. Callens,1/9/58,N/A,"Congo, the Democratic Republic of the",N/A,N/A,Kisantu,Kisantu,[precise locality unknown],Foret secondaire,N/A,N/A,N/A,1584065,Typed,no type status
https://fm-digital-assets.fieldmuseum.org/2464/177/V0580516F.jpg,V0580516F,G. Troupin,G. Troupin,N/A,6333,I0/2/I958,1958-02-10,N/A,Mikania cordata (Burm.f.) B.L.Robins,Mikania cordata (Burm.f.) B.L.Robins,N/A,N/A,N/A,"Congo, the Democratic Republic of the",N/A,N/A,N/A,"Kivu, Kalehe, vers km 110,route Kavumu-Walikale;Irangi,réserve IRSAC","Kivu, Kalehe, vers Kilometer 110, Kavumu-Walikale route, Irangi, IRSAC Réserve",Forêt ombrophile,N/A,I.540 m,N/A,1543353,Typed,no type status
https://fm-digital-assets.fieldmuseum.org/2466/373/V0574490F.jpg,V0574490F,Gordon McPherson,G. McPherson,N/A,13781,20 Mars 1989,1989-03-06,N/A,Corynanthe mayumbensis (R. Good) N. Halle,Corynanthe mayumbensis (R. Good) N. Halle,Wilks & McPherson,1989,N/A,Gabon,Ogooue-Ivindo,N/A,N/A,"Réserve de la Lopé, au sud d'Ayem; chantier SOFORGA","Réserve de la Lopé, au sud d'Ayem, chantier Soforga",N/A,N/A,c. 200 m,0°25'S 11°30'E,2040859,Typed,no type status
https://fm-digital-assets.fieldmuseum.org/2472/873/V0574226F.jpg,V0574226F,J. M. Fay,J. M. Fay,N/A,8294,4 March 1988,1988-03-04,N/A,Millettia,Millettia zechiana Harms,Ake Assi,1988,"Guibourtia demeusei, Berlinia sp., Bombax sp.",Cameroon,N/A,N/A,N/A,On the Sangha River across from Ndakan gorilla study area,On the Sangha River across from Ndakan gorilla study area,Seasonally flooded forest,N/A,385 m,02°20'N 16°08'E,2041244,Typed,no type status
https://fm-digital-assets.fieldmuseum.org/2473/141/V0580728F.jpg,V0580728F,F.A.Melville,F. A. Melville,N/A,199,29.vii.1959,1959-07-29,N/A,Phaseolus lunatus L.,Phaseolus lunatus L.,N/A,N/A,N/A,Equatorial Guinea,N/A,N/A,N/A,"Annobon, South West of Crater Lake","Annobon, southwest of Crater Lake","Clearing in wood, scrambling over herbage",N/A,"1,500ft.",N/A,1624518,Typed,no type status
https://fm-digital-assets.fieldmuseum.org/2473/209/V0578764F.jpg,V0578764F,"R. L. Piemeisel, L. W. Kephart",R. L. Piemeisel,L. W. Kephart,2,"June 28, 1927",1927-06-27,N/A,N/A,N/A,N/A,N/A,N/A,Kenya,N/A,N/A,N/A,"Muthaiga, near Nairobi","Muthaiga, near Nairobi",N/A,N/A,"1,700 meters",N/A,2074762,Typed,no type status
https://fm-digital-assets.fieldmuseum.org/2474/564/V0594158F.jpg,V0594158F,A. Léonard,A. Léonard,N/A,3149,I9/2 I959,1959-02-19,N/A,Oxyanthus speciosus DC. subsp. indet.,Oxyanthus speciosus DC. subsp. indet.,B.Sonké,1989,N/A,"Congo, the Democratic Republic of the",N/A,N/A,Masisi,Masisi,[precise locality unknown],Vieille forêt secondaire,N/A,I900m,N/A,2086095,Typed,no type status
https://fm-digital-assets.fieldmuseum.org/2477/449/V0573054F.jpg,V0573054F,R. P. Klaine,R. P. Klaine,N/A,3200,21-1-03,1903-01-21,N/A,Klaineanthus gabonii Pierre,Klaineanthus gabonii Pierre,N/A,N/A,N/A,Gabon,N/A,N/A,N/A,Environs de Libreville,Environs de Libreville,N/A,N/A,N/A,N/A,781173,Mix of Handwritten and Typed,no type status
https://fm-digital-assets.fieldmuseum.org/2478/115/V0601010F.jpg,V0601010F,James T. Allen,J. T. Allen,N/A,41,"September 23, 1996",1996-09-23,N/A,Dissotis rotundifolia (Sm.) Triana,Dissotis rotundifolia (Sm.) Triana,N/A,N/A,N/A,Ghana,N/A,N/A,N/A,Larteh; Center for Scientific Research into Plant Medicine (CSRPM) farm,"Larteh, Center for Scientific Research into Plant Medicine (CSRPM) farm",N/A,N/A,N/A,N/A,2200652,Typed,no type status
https://fm-digital-assets.fieldmuseum.org/2478/233/V0602418F.jpg,V0602418F,J.E.Andoh,J. E. Andoh,N/A,5632,March 1952.,1952-03-00,N/A,Chyrsophyllum perpulchrum Mildbr.,Chyrsophyllum perpulchrum Mildbr.,N/A,N/A,N/A,Ghana,Ashanti,N/A,N/A,Kumasi District. Kumasi Township Forest Reserve,"Kumasi District, Kumasi Township Forest Reserve",N/A,N/A,N/A,N/A,1601919,Typed,no type status
https://fm-digital-assets.fieldmuseum.org/2478/305/V0604513F.jpg,V0604513F,J. Nemba & D.W. Thomas,J. Nemba,D. W. Thomas,520,15 June 1987,1987-06-15,N/A,Donella welwitschii Pierre ex Engl.,Donella welwitschii Pierre ex Engl.,D.W. Thomas,1987,N/A,Cameroon,Southwest,N/A,N/A,Along Kumba-Mamfe road at mile 14 Lkiliwindi,Along Kumba-Mamfe road at Mile 14 Lkiliwindi,Secondary growth and old growth forest,N/A,200 m,04°44'N 09°29'E,2041320,Typed,no type status
https://fm-digital-assets.fieldmuseum.org/2479/474/V0572217F.jpg,V0572217F,J.Deaw,J. Deaw,N/A,Sp 283,4/10/1971,1971-10-04,N/A,Eugenia coronata,Eugenia coronata,A.A.Enti,1971,N/A,Ghana,N/A,N/A,Accra,Accra,[precise locality unknown],N/A,N/A,N/A,N/A,1753421,Typed,no type status
https://fm-digital-assets.fieldmuseum.org/2487/523/V0602609F.jpg,V0602609F,G. Schweinfurth et D. Riva,G. Schweinfurth,D. Riva,1814,1 mai 1892,1892-05-01,N/A,Rumex nervosus V.,Rumex nervosus V.,N/A,N/A,N/A,Eritrea,N/A,N/A,Segheneyti,"Saganeiti, pente du Nord au- dessous d'Addi-Abboour",Pente du Nord au- dessous d'Addi-Abboour,N/A,N/A,2300/2100 m,N/A,71283,Mix of Handwritten and Typed,no type status
https://fm-digital-assets.fieldmuseum.org/2487/806/V0606178F.jpg,V0606178F,R.B. & A.J. Faden,R. B. Faden,A. J. Faden,77/711,7 March 1977,1977-03-07,N/A,Toddaliopsis sansibarensis (Engl.) Engl.,Toddaliopsis sansibarensis (Engl.) Engl.,J.O. Kokwaro,N/A,Combretum schumannii,Kenya,N/A,N/A,N/A,"K7, Kwale District, Chale Peninsula","K7, Kwale District, Chale Peninsula",Coral rag dry forest,N/A,0-5 m,"ca. 4°26'S, 39°32'30""E",21535,Typed,no type status
https://fm-digital-assets.fieldmuseum.org/2487/920/V0603038F.jpg,V0603038F,F. Szafranski,F. Szafranski,N/A,1378,5.2.1988,1988-02-05,N/A,Floscopa glomerata (Roem. et Schult.) Hassk.,Floscopa glomerata (Roem. et Schult.) Hassk.,N/A,N/A,N/A,"Congo, the Democratic Republic of the",Haut-Uele,N/A,Isiro,"Haaut-Zaïre, S-Rég.Haut-Uele, Isiro, prés de la route aux environs de l'usine SOCODIA","Haaut-Zaïre, Isiro, prés de la route aux environs de l'usine Socodia",Bas fond marécageux,N/A,N/A,N/A,2084694,Typed,no type status
https://fm-digital-assets.fieldmuseum.org/2491/969/V0606676F.jpg,V0606676F,F.W.H.Migeod,F. W. H. Migeod,N/A,394,26. 1. 1928,1928-01-26,N/A,Solanum sp.,Solanum aculeatissimum Jacq.,M. Nee,"Dec 3, 1977",N/A,Cameroon,N/A,N/A,Bamenda,"Africa. Bamenda, British Cameroons",[precise locality unknown],N/A,N/A,"5,500 ft.",N/A,1441275,Mix of Handwritten and Typed,no type status
https://fm-digital-assets.fieldmuseum.org/2491/991/V0601406F.jpg,V0601406F,T.C.Wrigley and F.A.Melville,T. C. Wrigley,F. A. Melville,52,18 July 1959.,1959-07-18,N/A,N/A,Cassipourea annobonensis Midbr. ex Alston.,A.W.Exell,1961,N/A,Equatorial Guinea,N/A,N/A,N/A,Annobon: Ridge west of Crater Lake,Annobon: Ridge west of Crater Lake,Open woodland,N/A,1200ft.,N/A,1624568,Typed,no type status
https://fm-digital-assets.fieldmuseum.org/2493/436/V0604673F.jpg,V0604673F,William Burger,W. Burger,N/A,1767,27 May 1962,1962-05-27,N/A,Rubus apetalus Poir,Rubus apetalus Poir,WB,N/A,N/A,Ethiopia,Harar,N/A,N/A,"Near G. Ades, ±18 Km. E. of Hirna on new hwy","Near Gara Ades, ± 18 kilometers east of Hirna on new highway",Steep slopes with remnants of Podocarpus and juniperous forest,N/A,8200 feet,09°17'N x 41°13'E,1825230,Mix of Handwritten and Typed,no type status
https://fm-digital-assets.fieldmuseum.org/2499/501/V0565514F.jpg,V0565514F,J.D. Sauer,J. D. Sauer,N/A,3914,15 June 1963,1963-06-15,N/A,Aerva lanata (L.) Juss.,Aerva lanata (L.) Juss.,N/A,N/A,N/A,Kenya,Coast,N/A,N/A,"Bumburri Beach, N of Mombasa. Kwale District, near Mombasa","Bumburri Beach, north of Mombasa. Kwale District, near Mombasa","Beach ridge, shallow open coast",N/A,N/A,N/A,1595870,Mix of Handwritten and Typed,no type status
https://fm-digital-assets.fieldmuseum.org/2499/556/V0565977F.jpg,V0565977F,C. Vigne,C. Vigne,N/A,4086,s.d.,s.d.,N/A,Enantia polycarpa Engl. + Diels,Enantia polycarpa Engl. + Diels,N/A,N/A,N/A,Ghana,N/A,N/A,N/A,Gold Coast,[precise locality unknown],N/A,N/A,N/A,N/A,839434,Mix of Handwritten and Typed,no type status
https://fm-digital-assets.fieldmuseum.org/2499/686/V0566108F.jpg,V0566108F,Eman Addo,E. Addo,N/A,1026,1999,1999-00-00,N/A,Uvaria versicolor Pierre,Uvaria versicolor Pierre,N/A,N/A,N/A,Ghana,N/A,N/A,N/A,N/A,[precise locality unknown],N/A,N/A,N/A,N/A,2325285,Typed,no type status
https://fm-digital-assets.fieldmuseum.org/2500/629/V0567164F.jpg,V0567164F,A.A.Enti,A. A. Enti,N/A,398,22/11/1971,1971-11-22,N/A,Pergularia daemia,Pergularia daemia,A.A.Enti,1971,N/A,Ghana,N/A,N/A,N/A,Awatu - Winneba road,Awutu-Winneba road,N/A,N/A,N/A,N/A,1753348,Typed,no type status
https://fm-digital-assets.fieldmuseum.org/2501/420/V0591661F.jpg,V0591661F,D.W. Thomas,D. W. Thomas,N/A,6850,1987,1987-00-00,N/A,Cola flavovelutinia K. Schum,Cola flavovelutinia K. Schum,D.W. Thomas,1987,N/A,Cameroon,Southwest,N/A,N/A,Korup National Park,Korup National Park,Primary rain forest,N/A,N/A,05°02'N 08°50'E,2041255,Typed,no type status
https://fm-digital-assets.fieldmuseum.org/2504/891/V0567306F.jpg,V0567306F,Sue A. Thompson,S. A. Thompson,N/A,1522,9 July 1984,1984-07-09,N/A,Impatiens macroptera Hook.f.,Impatiens macroptera Hook.f.,N/A,N/A,N/A,Cameroon,Fako,N/A,N/A,Prov. Sud-Ouest: Bakingili. Trail up Mt. Cameroon,Prov. Sud-Ouest: Bakingili. Trail up Mount Cameroon,N/A,rock,50-250 m,"04°04'N, 09°02'E",2086046,Typed,no type status
https://fm-digital-assets.fieldmuseum.org/2505/266/V0606921F.jpg,V0606921F,D. Wiens,D. Wiens,N/A,4484,16-12-71,1971-12-16,N/A,Englerina tenuifolia (Engl.) Gilli,Tapinanthus,N/A,N/A,N/A,Kenya,N/A,N/A,N/A,4 km n of Kangondi on road to Embu,4 km north of Kangondi on road to Embu,N/A,N/A,4500',N/A,1864166,Mix of Handwritten and Typed,no type status
https://fm-digital-assets.fieldmuseum.org/2506/309/V0605928F.jpg,V0605928F,Sue A. Thompson & John E. Rawlins,S. A. Thompson,J. E. Rawlins,1333,3 June 1984,1984-06-03,N/A,Avicennia africana P. Beauv.,Avicennia africana P. Beauv.,N/A,N/A,N/A,Cameroon,Fako,N/A,N/A,Prov. Sud-Ouest: Dept. Fako: Bakingili,Prov. Sud-Ouest: Bakingili,Seaside,N/A,0 m.,"4°04'N, 09°02'E",2088074,Typed,no type status
https://fm-digital-assets.fieldmuseum.org/2511/134/V0605675F.jpg,V0605675F,G. Troupin,G. Troupin,N/A,6347,18.2.1958,1958-02-18,N/A,Glyphaea brevis (Spreng.) Monachino,Glyphaea brevis (Spreng.) Monachino,N/A,N/A,N/A,"Congo, the Democratic Republic of the",Kivu,N/A,N/A,"Kalehe. Vers Km 110 route Kavumu-Walikale;Irangi,réserve IRSAC","Kalehe, Kavumu-Walikale route, vers Km 110, Irangi, IRSAC Réserve",Forêt ombrophile,N/A,850 - 900 m.,N/A,1543374,Mix of Handwritten and Typed,no type status
https://fm-digital-assets.fieldmuseum.org/2511/772/V0571550F.jpg,V0571550F,A. Pappi,A. Pappi,N/A,2627,14-15.VIII.1902,1902-08-14,1902-08-15,Lavandula pubescens Decaisne,Lavandula pubescens Decaisne,T.M. Upson,2/4/1996,N/A,Eritrea,N/A,N/A,N/A,Lungo il torrente Haddas,Lungo il torrente Haddas,Lungo torrente,N/A,N/A,N/A,1559413,Mix of Handwritten and Typed,no type status
https://fm-digital-assets.fieldmuseum.org/2512/575/V0607392F.jpg,V0607392F,William Burger,W. Burger,N/A,1453,14 Feb. 1962,1962-02-14,N/A,Juniperus procera Hochst. ex Endl.,Juniperus procera Hochst. ex Endl.,WB,N/A,N/A,Ethiopia,Harar,N/A,N/A,N.W face of Gara Mulatta Mtn. ca. 50 km due W of Harar,"Northwestern face of Gara Muleta Mountain, approximately 50 kilometers due west of Harar",Steep slopes with mixed forest,N/A,2500 - 3000m,9°16'N + 41°43'E,1632855,Mix of Handwritten and Typed,no type status
https://fm-digital-assets.fieldmuseum.org/2513/815/V0570163F.jpg,V0570163F,O.B.Dokosi,O. B. Dokosi,N/A,s.n.,10/12/1972,1972-12-10,N/A,Terminalia glaucescens,Terminalia glaucescens,N/A,1972,N/A,Ghana,Volta,N/A,Ho,"Ho, Volta Region",[precise locality unknown],N/A,N/A,N/A,N/A,2007210,Mix of Handwritten and Typed,no type status
https://fm-digital-assets.fieldmuseum.org/2514/094/V0570543F.jpg,V0570543F,Schimper,Schimper,N/A,1467,24.11.63,1863-11-24,N/A,Ipomoea tenuirostris Chois.,Ipomoea tenuirostris Chois.,N/A,N/A,N/A,Ethiopia,N/A,N/A,N/A,Abyssinia,[precise locality unknown],N/A,N/A,N/A,N/A,373793,Mix of Handwritten and Typed,no type status
https://fm-digital-assets.fieldmuseum.org/2514/378/V0607965F.jpg,V0607965F,D.W. Thomas & M. Etuge,D. W. Thomas,M. Etuge,6988,18 May 1987,1987-05-18,N/A,Tapura africana Oliv.,Tapura africana Oliv.,D.W. Thomas,1987,N/A,Cameroon,Southwest,N/A,Kumba,"Prov. Southwest: Barombi Kang, Kumba",Barombi Kang,Degraded forest,N/A,150 m,4°36'N 09°27'E,2040825,Typed,no type status
https://fm-digital-assets.fieldmuseum.org/2514/765/V0570471F.jpg,V0570471F,Dr. Edgar A. Mearns,E. A. Mearns,N/A,1114,"September 6 and 7, 1909",1909-09-06,1909-09-07,Evolvulus alsinoides L.,Evolvulus alsinoides L.,N/A,N/A,N/A,Kenya,N/A,N/A,N/A,"Vicinity of Thika, British East Africa",Vicinity of Thika,N/A,N/A,about 1350 meters,N/A,468287,Mix of Handwritten and Typed,no type status
https://fm-digital-assets.fieldmuseum.org/2514/997/V0570108F.jpg,V0570108F,G. Machaughton,G. Machaughton,N/A,580,s.d.,s.d.,N/A,Combretum schumannii Engl.,Combretum schumannii Engl.,N/A,N/A,N/A,Kenya,N/A,N/A,N/A,N/A,[precise locality unknown],N/A,N/A,N/A,N/A,856357,Mix of Handwritten and Typed,no type status
https://fm-digital-assets.fieldmuseum.org/2515/000/V0570110F.jpg,V0570110F,J. M. Fay,J. M. Fay,N/A,8271,28 February 1988,1988-02-28,N/A,Combretum,Combretum smeathmannii G. Don,Ake Assi,1988,"Irvingia smithii, Guiboutia demensii, Berlinia sp.",Cameroon,Southeast,N/A,N/A,Along the Sangha River adjacent to the island of Kiloua,Along the Sangha River adjacent to the island of Kiloua,In riparian forest adjacent to seasonally flooded forest,N/A,385 m,02°21'N 16°09'E,2041248,Typed,no type status
https://fm-digital-assets.fieldmuseum.org/2522/077/V0590787F.jpg,V0590787F,D.D. Soejarto,D. D. Soejarto,N/A,4793,"April 1, 1978",1978-04-01,N/A,Diospyros tricolor Hiern.,Diospyros tricolor Hiern.,N/A,N/A,Thespesia populnea and Sophora occidentalis,Ghana,Greater Accra,N/A,N/A,"Bortianor village, 20 km. West of Accra","Bortianor village, 20 kilometers west of Accra",Sea coast,soil,N/A,N/A,1842606,Handwritten,no type status
https://fm-digital-assets.fieldmuseum.org/39/558/V0040586F.jpg,V0040586F,Narciso Reyna R.,N. Reyna R.,N/A,40,15 diciembre 1967,1967-12-15,N/A,Guatteria scalarinervia D. Simp. sp. nov.,Guatteria scalarinervia D. Simp. sp. nov.,N/A,N/A,N/A,Peru,Loreto,Maynas,N/A,"Santa María - Río Nanay, distr. Alto Nanay, dept. Loreto, prov. Maynas ","Alto Nanay District, Santa María-Río Nanay",Bosque húmedo tropical,N/A,150 m.,N/A,1731405,Mix of Handwritten and Typed,Holotype
https://fm-digital-assets.fieldmuseum.org/613/620/V0081497F.jpg,V0081497F,M. O. Dillon & D. Dillon,M. O. Dillon,D. Dillon,3776,1 Nov 1983,1983-11-01,N/A,Galvezia fruticosa Gmel.,Galvezia elisensii M.O. Dillon & Quipuscoa,N/A,N/A,N/A,Peru,Arequipa,Caravelí,N/A,"Lomas of Atiquipa, ca. 10.5 km N of turn-off to Atiquipa. Km 584 S of Lima","Lomas of Atiquipa, approximately 10.5 kilometers north of turn-off to Atiquipa, Kilometer 584 south of Lima",Loma,N/A,ca. 150-200 m,N/A,1940835,Typed,Holotype
https://fm-digital-assets.fieldmuseum.org/40/414/V0042484F.jpg,V0042484F,N/A,N/A,N/A,1915,1830,1830-00-00,N/A,Alchornea peruviana Poepp.,Tetrorchidium rubrivenium var. genuinum Müll. Arg.,N/A,N/A,N/A,Peru,N/A,N/A,N/A,Tocache Huallaga,"Tocache, Huallaga",N/A,N/A,N/A,N/A,875422,Mix of Handwritten and Typed,Isosyntype
https://fm-digital-assets.fieldmuseum.org/281/725/V0092855F.jpg,V0092855F,Jóse Campos y O. Díaz,J. Campos,O. Díaz,2490,9 Febrero 1996,1996-02-09,N/A,Malpighiaceae,Amorina camporum W. R. Anderson,W. R. Anderson,2006,N/A,Peru,Cajamarca,San Ignacio,N/A,Distrito Chirinos: Entre La Catagua y Tablón,Distrito Chirinos: Entre La Catagua y Tablón,N/A,N/A,550 - 650 m,05°19'S 078°47'W,2296033,Typed,Isotype
https://fm-digital-assets.fieldmuseum.org/155/067/V0078059F.jpg,V0078059F,Ruiz et Pavón,Ruiz,Pavón,s.n.,1778-1788,1778-00-00,1788-00-00,Nolana spathulata R & P,Nolana spathulata Ruiz & Pav.,A. Mesa,N/A,N/A,Peru,N/A,N/A,N/A,vice-regno Peruviano et Chilensi,Vice-regno Peruviano et Chilensi,N/A,N/A,N/A,N/A,845155,Typed,Isolectotype
https://fm-digital-assets.fieldmuseum.org/281/732/V0092864F.jpg,V0092864F,Camilo Díaz y Antonio Peña,C. Díaz,A. Peña,8808,4 Diciembre 1996,1996-12-04,N/A,Ericaceae,Symplocos ovata Ståhl,B. Ståhl,2010,N/A,Peru,Amazonas,Luya,N/A,"Camporedonde, Tullanaya, Pascana ""Pajaro Tigre""","Camporedonde, Tullanaya, Pascana ""Pajaro Tigre""",N/A,N/A,2250-2360 m,N/A,2296023,Typed,Isotype
https://fm-digital-assets.fieldmuseum.org/283/142/V0092900F.jpg,V0092900F,R & P,Ruiz,Pavon,9/58,1778-1788,1778-00-00,1788-00-00,Bonarea purpurea ( R & P) Herb.,Alstroemeria purpurea Ruiz & Pav.,N/A,N/A,N/A,Peru,N/A,N/A,N/A,Pillao,Pillao,N/A,N/A,N/A,N/A,916119,Typed,Isotype
https://fm-digital-assets.fieldmuseum.org/283/147/V0092906F.jpg,V0092906F,"V. Quipuscoa S., A. Ságastegui A., S. Leiva G. & M. Bejarano C.",V. Quipuscoa S.,A. Ságastegui A. | S. Leiva G. | M. Bejarano C.,1378,20 agosto 1998,1998-08-20,N/A,Lithospermum cinerascens (A.DC.) Johnst.,Lithospermum leymebambense Weigend & Nork,M. Weigend,September 2006,N/A,Peru,Amazonas,Chachapoyas,N/A,"Distrito Leymebamba. Carretera a Celendín, entre Ishpingo - Pomacocha","Distrito Leymebamba. Carretera a Celendín, entre Ishpingo - Pomacocha",Bosque montano fragmentado,N/A,2800-3000 m,N/A,2211679,Typed,Isotype
https://fm-digital-assets.fieldmuseum.org/283/156/V0092915F.jpg,V0092915F,Llewelyn Williams,Ll. Williams,N/A,6999,1/7/1930,1930-01-07,N/A,Norantea curva Macbr.,Marcgraviastrum mixtum (Triana & Planch.) Bedell,D. Giraldo-Cañas,2010,N/A,Peru,San Martín,N/A,San Roque,San Roque Dept. San Martin,[precise locality unknown],Forest,N/A,1350 - 1500 M,N/A,624474,Mix of Handwritten and Typed,Holotype
https://fm-digital-assets.fieldmuseum.org/283/160/V0092918F.jpg,V0092918F,Ruiz et Pavón,Ruiz,Pavón,s.n.,1778-1788,1778-00-00,1788-00-00,Norantea obovata (R & P) G. Don.,Marcgraviastrum mixtum (Triana & Planch.) Bedell,D. Giraldo-Cañas,2010,N/A,Peru,N/A,N/A,N/A,Chacahuasi,Chacahuasi,N/A,N/A,N/A,N/A,843295,Mix of Handwritten and Typed,Isotype
https://fm-digital-assets.fieldmuseum.org/283/163/V0092921F.jpg,V0092921F,Ruiz et Pavón,Ruiz,Pavón,s.n.,1778-1788,1778-00-00,1788-00-00,Norantea obovata (R & P)G. Don.,Marcgraviastrum mixtum (Triana & Planch.) Bedell,D. Giraldo-Cañas,2010,N/A,Peru,N/A,N/A,N/A,vice-regno Peruviano et Chilensi,Vice-regno Peruviano et Chilensi,N/A,N/A,N/A,N/A,842882,Mix of Handwritten and Typed,Isotype
https://fm-digital-assets.fieldmuseum.org/679/934/V0190732F.jpg,V0190732F,Robin B. Foster,R. B. Foster,N/A,8752,13 Sept. 1982,1982-09-13,N/A,Acidoton venezolanus (Pax.& Hoffm.) Webster,Acidoton venezolanus (Pax.& Hoffm.) Webster,M. J. Huft,1983,N/A,Peru,Huánuco,N/A,N/A,Pachitea; Puerto Inca to Sungaro. Foot trail between Río Pachitea and Río Sungaro,Pachitea; Puerto Inca to Sungaro. Foot trail between Río Pachitea and Río Sungaro,Forested low hills and ravines,N/A,250-300 m,"75°00'W, 9°18'S",1921102,Typed,no type status
https://fm-digital-assets.fieldmuseum.org/791/904/V0277652F.jpg,V0277652F,José Schunke Vigo,J. Schunke Vigo,N/A,6505,27 May 1964,1964-05-27,N/A,N/A,Tontelea attentuata Miers,J. A. Lombardi,II/2000,N/A,Peru,San Martín,N/A,N/A,Quebrada Huicte (río Huallaga),"Quebrada Huicte, Río Huallaga",In tall forest,N/A,529 m,N/A,1751666,Mix of Handwritten and Typed,no type status
https://fm-digital-assets.fieldmuseum.org/586/997/V0152152F.jpg,V0152152F,Manuel Rimachi Y.,M. Rimachi Y.,N/A,4268,"February 8, 1979",1979-02-08,N/A,Nectandra krukovii (A.C. Smith) Kosterm.,Endlicheria anomala (Nees) Mez,A. Chanderbali,2001,N/A,Peru,Loreto,Requena,N/A,"Dtto. Saquena. Río Ucayali, Quebrada de Aucayacu, above Genaro Herrera","Distrito Saquena. Río Ucayali, Quebrada de Aucayacu, above Genaro Herrera",Marginal forest,N/A,N/A,N/A,2058606,Typed,no type status
https://fm-digital-assets.fieldmuseum.org/802/677/V0277223F.jpg,V0277223F,Salvador Flores P.,S. Flores P.,N/A,95(Pl-2),Julio/82,1982-07-00,N/A,Poraqueiba sericea Tul.,Poraqueiba sericea Tul.,T. Plowman,1985,N/A,Peru,Loreto,Maynas,N/A,Ampiyacu-Pevas,Ampiyacu-Pevas,Bosque secundario 35 años,N/A,100 m.s.n.m,N/A,1968315,Mix of Handwritten and Typed,no type status
https://fm-digital-assets.fieldmuseum.org/694/649/V0195906F.jpg,V0195906F,Percy Núñez & S. Walsh,P. Núñez,S. Walsh,6330,29 October 1986,1986-10-29,N/A,Euphorbia heterophylla L.,Euphorbia heterophylla L.,M. H. Mayfield,Oct. 1995,N/A,Peru,Cuzco,La Convención,N/A,"La Convención, Quillabamba, Salaspampa","Quillabamba, Salaspampa",N/A,N/A,1110 m,N/A,1982606,Typed,no type status
https://fm-digital-assets.fieldmuseum.org/904/057/V0290180F.jpg,V0290180F,Jose Schunke,J. Schunke,N/A,9560,30 Mayo 1977,1977-05-30,N/A,Hamelia patens Jacq.,Hamelia patens Jacq.,J. Dwyer,1980,N/A,Peru,San Martín,Lamas,N/A,"Distrito: Alonso de Alvarado. San Juan de Pacaizapa, km. 72 carretera Tarapoto-Moyobamba","Distrito: Alonso de Alvarado. San Juan de Pacaizapa, Kilometer 72 carretera Tarapoto-Moyobamba","En bosque secundario, con abundante luz solar",N/A,1000-1050 m,N/A,1872133,Typed,no type status
https://fm-digital-assets.fieldmuseum.org/674/331/V0201636F.jpg,V0201636F,"G. Moore,L.Luna,J.Ruiz",G. Moore,L. Luna | J. Ruiz,138,18-8-81,1981-08-18,N/A,Ficus,Ficus maxima P. Miller,W. C. Burger,1982,N/A,Peru,Loreto,N/A,N/A,"Quistococha, 14km north of Iquitos","Quistococha, 14 kilometers north of Iquitos",N/A,N/A,600m,N/A,1923146,Typed,no type status
https://fm-digital-assets.fieldmuseum.org/786/584/V0251887F.jpg,V0251887F,"E. P. Killip, A. C. Smith",E. P. Killip,A. C. Smith,26721,"July 20, 21, 1929",1929-07-20,1929-07-21,Psychotria racemosa (Aubl.) Willd.,Psychotria racemosa (Aubl.) Willd.,N/A,N/A,N/A,Peru,Junín,N/A,N/A,"Cahuapanas, on Río Pichis","Cahuapanas, on Río Pichis",Dense forest,N/A,about 340 meters,N/A,607534,Mix of Handwritten and Typed,no type status
https://fm-digital-assets.fieldmuseum.org/750/898/V0243915F.jpg,V0243915F,M. O. Dillon and I. Sánchez V.,M. O. Dillon,I. Sánchez V.,6310,22 Jul 1991.,1991-07-21,N/A,Wissadula grandifolia Baker ex Rusby,Wissadula grandifolia Baker ex Rusby,P. Fryxell,1993,N/A,Peru,Piura,Huancabamba,N/A,ca. 2 km N of Canchaque,Approximately 2 kilometers north of Canchaque,N/A,N/A,ca. 1450 m,5°24' S; 79°36' W,2119563,Mix of Handwritten and Typed,no type status
https://fm-digital-assets.fieldmuseum.org/678/428/V0187051F.jpg,V0187051F,J. Francis Macbride,J. Francis Macbride,N/A,4806,"June 23, 1923",1923-06-23,N/A,Croton baillonianus,Croton baillonianus,N/A,N/A,N/A,Peru,N/A,N/A,N/A,"Cuerva Grande, estacion near  Pozuzo","Cuerva Grande, estacion near Pozuzo",Sunny bushy slope. Open brushy 4-5 ft,N/A,about 3500 feet,N/A,535840,Mix of Handwritten and Typed,no type status
https://fm-digital-assets.fieldmuseum.org/776/646/V0258426F.jpg,V0258426F,A. Ságastegui A.,A. Ságastegui A.,N/A,3820,19 Junio 1962,1962-06-19,N/A,Geranium,Geranium chilloense Kunth,B. Halfdan-Nielsen,1993,N/A,Peru,Cajamarca,Contumazá,N/A,"Juque, Trinidad. Prov. Contumazá, Depto. Cajamarca","Juque, Trinidad",Ladera abierta,N/A,"3,250 m.s.m",N/A,1684365,Mix of Handwritten and Typed,no type status
https://fm-digital-assets.fieldmuseum.org/686/796/V0193750F.jpg,V0193750F,"J. Mostacero L., S. Leiva G., F. Mejia C., F. Peláez P., J. Guevara B.",J. Mostacero L.,S. Leiva G. | F. Mejia C. | F. Peláez P. | J. Guevara B.,1640,14-XI-1986,1986-11-14,N/A,Dalechampia aristolochiifolia Kunth,Dalechampia aristolochiifolia Kunth,M.J. Huft,1992,N/A,Peru,Cajamarca,Cutervo,N/A,La Pucarilla (Sócota-San Andrés),La Pucarilla (Sócota-San Andrés),Ladera al borde de carretera,N/A,2450 m.s.m,N/A,1993828,Mix of Handwritten and Typed,no type status
https://fm-digital-assets.fieldmuseum.org/738/306/V0228073F.jpg,V0228073F,"Spichiger, R. & P.-A. Loizeau",R. Spichiger,P.-A. Loizeau,3012,10.4.86,1986-04-10,N/A,Pourouma guianensis ssp guianensis,Pourouma guianensis ssp guianensis,N/A,N/A,N/A,Peru,Loreto,N/A,N/A,cadre de la convention CJBG - IC - IIAP au Centre de Recherche de Jenaro Herrera,Cadre de la convention CJBG-IC-IIAP au Centre de Recherche de Jenaro Herrera,"Bosque de terraza alta, suelo arenoso",N/A,125 m,73°45'W-4°55'S,2027582,Mix of Handwritten and Typed,no type status
https://fm-digital-assets.fieldmuseum.org/494/920/V0100062F.jpg,V0100062F,G. Klug,G. Klug,N/A,660,"Dec., 1929",1929-12-00,N/A,Batesia floribunda Benth.,Batesia floribunda Benth.,H. Harms,N/A,N/A,Peru,Loreto,N/A,N/A,"Mishuyacu, near Iquitos","Mishuyacu, near Iquitos",Forest,N/A,100 meters,N/A,613565,Mix of Handwritten and Typed,no type status
https://fm-digital-assets.fieldmuseum.org/655/199/V0198402F.jpg,V0198402F,T. R. Dudley,T. R. Dudley,N/A,12063,24 Aug. 1968,1968-08-24,N/A,Dendrophthora mesembryanthemifolia Urban,Dendrophthora sp.,J. Kuijt,18 Dec.1984,N/A,Peru,Ayacucho,La Mar,N/A,"eastern Massif of Cordillera Central opposing the Cordillera Vilcabamba between Tambo San Miguel, Ayna and the Hacienda Luisiana, Punccu camp, c. 45 km. walking distance SW from the Hacienda Luisiana and Apurimac River; c. 30 km. from the Hacienda Santa Rosa, c. 10 km. from Tambo","Eastern massif of Cordillera Central opposing the Cordillera Vilcabamba between Tambo San Miguel, Ayna and the Hacienda Luisiana. Punccu camp, approximately 45 kilometers walking distance southwest from the Hacienda Luisiana and Apurimac River; approximately 30 kilometers from the Hacienda Santa Rosa, approximately 10 kilometers from Tambo",40-50 feet high elfin hepatic forest at timberline,N/A,3220 meters,c. 73°53'W; 12°45'S,1721727,Mix of Handwritten and Typed,no type status
https://fm-digital-assets.fieldmuseum.org/675/982/V0225274F.jpg,V0225274F,G. Klug,G. Klug,N/A,1595,April 1931,1931-04-00,N/A,Ficus lleweyni Standl,Ficus trigona L.f.,M. Vásquez Avila,1983,N/A,Peru,Loreto,N/A,N/A,"Mishuyacu, neart Iquitos","Mishuyacu, neart Iquitos",Forest,N/A,100 meters,N/A,873381,Mix of Handwritten and Typed,no type status
https://fm-digital-assets.fieldmuseum.org/736/767/V0224820F.jpg,V0224820F,"Mildred E. Mathias, Dermot Taylor",M. E. Mathias,D. Taylor,5576,18 July 1961,1961-07-18,N/A,N/A,Malpighiaceae,W. R. Anderson,1983,N/A,Peru,Loreto,N/A,N/A,vicinity of Requena,Vicinity of Requena,N/A,N/A,N/A,N/A,1733057,Mix of Handwritten and Typed,no type status
https://fm-digital-assets.fieldmuseum.org/939/013/V0304780F.jpg,V0304780F,José Schunke Vigo,J. Schunke Vigo,N/A,6677,17 Dec. 1964,1964-12-17,N/A,Paullinia imberb Radlk.,Paullina bracteosa Radlk.,D. R. Simpson,1973,N/A,Peru,Loreto,N/A,N/A,Quebrada de Maquia (Contamana),Quebrada de Maquia (Contamana),In tall forest,N/A,220 m,N/A,1717601,Mix of Handwritten and Typed,no type status
https://fm-digital-assets.fieldmuseum.org/785/493/V0238260F.jpg,V0238260F,Llewelyn Williams,Ll. Williams,N/A,3363,10/3/29,1929-10-03,N/A,Psychotria viridis R + P,Psychotria viridis R + P,N/A,N/A,N/A,Peru,Loreto,N/A,N/A,"Paraiso, Alto Río Itaya","Paraiso, Alto Río Itaya",Forest,N/A,145 M,N/A,614121,Mix of Handwritten and Typed,no type status
https://fm-digital-assets.fieldmuseum.org/736/994/V0225047F.jpg,V0225047F,"T. Plowman, A. Ságastegui A., J. Mostacero L., F. R. Mejía & F. Peláez",T. Plowman,A. Ságastegui A. | J. Mostacero L. | F. R. Mejía | F. Peláez,14242,12 July 1986,1986-07-12,N/A,Abutilon mollissimum (Cav.) Sweet,Abutilon multiflorum R.E. Fries vel aff.,N. Hensold,1998,N/A,Peru,Cajamarca,Jaén,N/A,"Road from Pucará to Chamaya, km. 21 east of Pucará, along Río Huancabamba","Road from Pucará to Chamaya, Kilometer 21 east of Pucará, along Río Huancabamba",Dry scrub forest on steep slopes,N/A,700 m,N/A,1973380,Mix of Handwritten and Typed,no type status
https://fm-digital-assets.fieldmuseum.org/738/506/V0239614F.jpg,V0239614F,Magda Chanco with Michelle McMahon and Larry Hufford,M. Chanco,M. McMahon | L. Hufford,s.n.,14 April 2003,2003-04-14,N/A,Abutilon sp.,Abutilon sp.,N/A,N/A,N/A,Peru,Cajamarca,N/A,N/A,Chilete-San Pablo road about 15 km from Chilete,Chilete-San Pablo road about 15 kilometers from Chilete,N/A,N/A,3614 feet,S7° 10.554' W78° 49.665',2253555,Typed,no type status
https://fm-digital-assets.fieldmuseum.org/1611/031/V0414961F.jpg,V0414961F,"Marcos Ríos, Tony Mori, Nigel Pitman, Luis Torres, Corine Vriesendorp",M. Ríos,T. Mori | N. Pitman | L. Torres | C. Vriesendorp,4399,13 octubre 2014,2014-10-13,N/A,Andira macrothyrsa Ducke,Andira macrothyrsa Ducke,N/A,N/A,N/A,Peru,Loreto,Requena,N/A,"Dtto. de Soplín. Quebrada Yanayacu-Río Blanco. Campamento Wiswincho del inventario rápido #27, de la region Tapiche-Blanco","Distrito de Soplín, Quebrada Yanayacu-Río Blanco. Campamento Wiswincho del inventario rápido 27, de la region Tapiche-Blanco",Bosque de planicie inundable de aguas blancas,N/A,90-110 msnm,"05°48'33.5""S 73°51'53.8""W",2318558,Typed,no type status
https://fm-digital-assets.fieldmuseum.org/1611/032/V0414962F.jpg,V0414962F,"Marcos Ríos, Tony Mori, Nigel Pitman, Luis Torres, Corine Vriesendorp",M. Ríos,T. Mori | N. Pitman | L. Torres | C. Vriesendorp,4399,13 octubre 2014,2014-10-13,N/A,Andira macrothyrsa Ducke,Andira macrothyrsa Ducke,N/A,N/A,N/A,Peru,Loreto,Requena,N/A,"Dtto. de Soplín. Quebrada Yanayacu-Río Blanco. Campamento Wiswincho del inventario rápido #27, de la region Tapiche-Blanco","Distrito de Soplín, Quebrada Yanayacu-Río Blanco. Campamento Wiswincho del inventario rápido 27, de la region Tapiche-Blanco",Bosque de planicie inundable de aguas blancas,N/A,90-110 msnm,"05°48'33.5""S 73°51'53.8""W",2318557,Typed,no type status
https://fm-digital-assets.fieldmuseum.org/1743/655/V0462893F.jpg,V0462893F,Ynes Mexia,Y. Mexia,N/A,8265,"Oct. 9, 1936",1936-10-09,N/A,Piper callosum Ruiz & Pavon,Piper callosum Ruiz & Pavon,W. Trelease,N/A,N/A,Peru,Huánuco,Huánuco,N/A,Near confluence Rio Cayumba with Huallaga,Near confluence Rio Cayumba with Huallaga,Forested slope above road,N/A,805 m,N/A,1066996,Typed,no type status
https://fm-digital-assets.fieldmuseum.org/1743/657/V0462895F.jpg,V0462895F,Ynes Mexia,Y. Mexia,N/A,6157,"Nov. 24, 1931",1931-11-24,N/A,Piper callosum Ruiz & Pavon,Piper callosum Ruiz & Pavon,W. Trelease,N/A,N/A,Peru,Loreto,N/A,N/A,Above Pongo de Manseriche. Right bank of mouth of Rio Santiago,Above Pongo de Manseriche. Right bank of mouth of Rio Santiago,Dense forest,N/A,200 m,N/A,872277,Typed,no type status
https://fm-digital-assets.fieldmuseum.org/1743/506/V0441679F.jpg,V0441679F,Donald R. Simpson & José Schunke V.,D. R. Simpson,J. Schunke V.,565,"January 4, 1968",1968-01-04,N/A,Ipomea carnea Jacq.,Ipomea carnea Jacq.,D. Simpson,Jan. 1969,N/A,Peru,Tumbes,Tumbes,N/A,"Dtto. Pampas de Hospital. Along the road about 10 km. northwest of El Caucho. Bosque Nacional de Tumbes: Región de ""bosque muy seco tropical"" (sensu Tosi, 1960) cerca de El Caucho o entre El Caucho y Pampas de Hospital","Distrito Pampas de Hospital, along the road about 10 kilometers northwest of El Caucho. Bosque Nacional de Tumbes, región de ""bosque muy seco tropical"" (sensu Tosi, 1960) cerca de El Caucho o entre El Caucho y Pampas de Hospital","From the dry, deciduous forest zone, downward into the very dry thorn-scrub",N/A,N/A,N/A,1897948,Typed,no type status
https://fm-digital-assets.fieldmuseum.org/1743/504/V0441677F.jpg,V0441677F,T. Plowman & P. M. Rury,T. Plowman,P. M. Rury,11105,6 December 1981,1981-12-06,N/A,Ipomea carnea Jacq.,Ipomea carnea Jacq.,A. MacDonald,1983,N/A,Peru,Huánuco,Huánuco,N/A,8 km. northeast of Huánuco on road to Tingo María,8 kilometers northeast of Huánuco on road to Tingo María,Roadside near houses,N/A,1750 m,"Approx. 9°52' S., 76°11'W",1896900,Mix of Handwritten and Typed,no type status
https://fm-digital-assets.fieldmuseum.org/1684/390/V0401892F.jpg,V0401892F,Robin B. Foster,R. B. Foster,N/A,4240,"Aug. 19, 1978",1978-08-19,N/A,Aechmea,Aechmea corymbosa (Mart. ex Schult. & Schult.f.) Mez,E.J. Gouda,2018-02-05,N/A,Peru,Loreto,Maynas,N/A,Rio Nanay Caseria Mishana 30km SW of Iquitos,"Rio Nanay, Caseria Mishana, 30 kilometers southwest of Iquitos",In white sand scrub,N/A,N/A,N/A,1852637,Mix of Handwritten and Typed,no type status
https://fm-digital-assets.fieldmuseum.org/1766/135/V0460617F.jpg,V0460617F,"J. Farfán, L. Valenzuela, I. Huamantupa, A. Carazas, W. Argandoña",J. Farfán,L. Valenzuela | I. Huamantupa | A. Carazas | W. Argandoña,1262,23 Octubre 2006,2006-10-23,N/A,Anthurium clavigerum Poepp.,Anthurium clavigerum Poepp.,T. B. Croat,2008,N/A,Peru,Cusco,La Convención,N/A,"Dist. Vilcabamba, Chuanquiri camino a Riobamba","Distrito Vilcabamba, Chuanquiri camino a Riobamba",Bosque secundario,N/A,1009 m,"12°47'15""S 073°10'10""W",2315782,Typed,no type status
https://fm-digital-assets.fieldmuseum.org/1826/292/V0469643F.jpg,V0469643F,Thomas B. Croat,T. B. Croat,N/A,18210,"July 18, 1972",1972-07-18,N/A,Agave americana L.,Agave americana L.,N/A,N/A,N/A,Peru,Loreto,N/A,N/A,12.5 km. SW of Iquitos on road to Lago Quisto-cocha,12.5 kilometers southwest of Iquitos on road to Lago Quisto-cocha,Sandy area,N/A,N/A,N/A,N/A,Typed,no type status
https://fm-digital-assets.fieldmuseum.org/227/821/V0075820F.jpg,V0075820F,T. R. Dudley,T. R. Dudley,N/A,10783,4 July 1968,1968-07-04,N/A,N/A,Thelypteris dudleyi A. R. Smith,Alan R. Smith,1989,N/A,Peru,Cusco,La Convención,N/A,between camp 4&5; almost to Camp 5,"Cordillera Vilcabamba, between camp 4 and 5, almost to camp 5","In full sun on old open landslide, just above cloud forest",rock,c. 2825 m,12° 37'; 73° 32',1719861,Typed,Isotype
https://fm-digital-assets.fieldmuseum.org/227/835/V0075836F.jpg,V0075836F,S.Knapp,S. Knapp,N/A,5881,4 July 1982,1982-07-04,N/A,N/A,Trichipteris pinnata Stolze,Robert G. Stolze,1984,N/A,Panama,Colón,N/A,N/A,"Santa Rita Ridge road, 21-26 km from Transisthmian Highway","Santa Rita Ridge road, 21-26 kilometers from Transisthmian Highway",Tropical wet forest,N/A,500-550 m.,"9°25'N, 79°37' W",1932768,Typed,Isotype
https://fm-digital-assets.fieldmuseum.org/1121/693/C0616676F.jpg,C0616676F,J. Dorantes,J. Dorantes,N/A,455,01/01/1972,1972-01-01,N/A,Woodwardia spinulosa Mart. & Gal.,Woodwardia spinulosa Mart. & Gal.,Monica Palacios-Rios,"September, 2000",N/A,Mexico,Veracruz,N/A,Jalapa,Alto del Gato,Alto del Gato,"Bosque caducifolio, vegetación primaria, suelo rojo arcilloso",N/A,N/A,N/A,1730602,Typed,no type status
https://fm-digital-assets.fieldmuseum.org/1086/214/C0644079F.jpg,C0644079F,"A. Monteagudo, C. Mateo, G. Ortiz",A. Monteagudo,C. Mateo | G. Ortiz,4909,10 Abril 2003,2003-04-10,N/A,Blechnum occidentalis L.,Blechnum occidentalis L.,H. van der Werff,2005,N/A,Peru,Pasco,Oxapampa,N/A,"Distrito Puzuzo. Parque Nacional Yanachaga Chemillen Pozuzo Sector Pan de Azúcar, Zona de Recuperación","Distrito Puzuzo. Parque Nacional Yanachaga Chemillen Pozuzo Sector Pan de Azúcar, Zona de Recuperación",Bosque ribereño,rock,1100-1250 m,10°15'S 75°13'W,2287355,Typed,no type status
https://fm-digital-assets.fieldmuseum.org/1098/449/C0658238F.jpg,C0658238F,Ynes Mexia,Y. Mexia,N/A,8066,"May 14, 1936",1936-05-14,N/A,Adiantum pulverulentum L.,Adiantum pulverulentum L.,Copeland,N/A,N/A,Peru,Cusco,La Convención,N/A,upper valley of Rio Sambray; western affluent of Vilcanota,"Upper valley of Rio Sambray, western affluent of Rio Vilcanota",Along stream in virgin forest,N/A,about 1800 m,N/A,1005396,Typed,no type status
https://fm-digital-assets.fieldmuseum.org/1079/847/C0637474F.jpg,C0637474F,J.I. Calzada,J. I. Calzada,N/A,5759,11-enero-1980,1980-01-11,N/A,Polypodiaceae,Diplazium franconis Liebm.,Robert G. Stolze,1983,N/A,Mexico,Veracruz,N/A,Xico,Ranchería de Coatititlán,Ranchería de Coatititlán,"Bosque caducifolio, primario; asociada con Liquidambar styrociflua, Quercus sp., Alnus sp.",N/A,1820 m.s.n.m,19° 29' N  97° 04' W,1894963,Typed,no type status
https://fm-digital-assets.fieldmuseum.org/1079/274/C0636906F.jpg,C0636906F,Antonio Molina R.,A. Molina R.,N/A,1427,"Nov. 4, 1948",1948-11-04,N/A,Thelypteris piloso-hispida ( Hook) Morton,Thelypteris rudis (Kunze) Proctor,Alan R. Smith,1974,N/A,Honduras,Francisco Morazán,N/A,N/A,"Norte de la Mt. Uyuca, caminos Tatumbla, Labranza y Quebrada El Oranadillo, sobre la Mt. Uyuca. Drainage of the Río Yeguara","Drainage of the Río Yeguara, norte de la Montaña Uyuca, caminos Tatumbla, Labranza y Quebrada El Oranadillo, sobre la Montaña Uyuca",Bosque lluvioso,N/A,1800 m,about Longitude 87° W. and Latitude 14° N,1394536,Typed,no type status
https://fm-digital-assets.fieldmuseum.org/1072/569/C0665739F.jpg,C0665739F,"B.León,K.Young & N.Huapaya",B.León,K.Young | N.Huapaya,2911,10 setiembre 1991,1991-09-10,N/A,Thelypteridaceae,Thelypteris eucholora (Sod.) Reed,Robert G. Stolze,1992,N/A,Peru,Cusco,Paucartambo,N/A,"Bosque de Nubes,Río La Unión",Río La Unión,"Bosque de Nubes, en ladera",N/A,1700-1800 m,N/A,2112158,Typed,no type status
https://fm-digital-assets.fieldmuseum.org/1137/337/C0626158F.jpg,C0626158F,"Louis O. Williams, Antonio Molina R., Terua P. Williams, Dorothy N. Gibson, and Chester Laskowski ",L. O. Williams,A. Molina R. | T. P. Williams | D. N. Gibson | C. Laskowski,27621,"January 15, 1965",1965-01-15,N/A,Polypodium blepharodes Maxon,Grammitis blepharodes (Maxon) Seymour,Robert G. Stolze,1979,N/A,Nicaragua,Matagalpa,N/A,N/A,"Disparate de Potter, Sta. María de Ostuma, Cordillera Central de Nicaragua","Disparate de Potter, Santa María de Ostuma, Cordillera Central de Nicaragua",Montane rain forest or cloud forest,N/A,1600 m,N/A,1626179,Typed,no type status
https://fm-digital-assets.fieldmuseum.org/1072/487/C0665657F.jpg,C0665657F,Ken Young & Mark Eisenberg,K. Young,M. Eisenberg,265,20 April 1981,1981-04-20,N/A,N/A,Thelypteris cheilanthoides (Kunze) Proctor,A. R. Smith,1989,N/A,Peru,Cusco,La Convención,N/A,"Just east of Quillabamba, Finca Chichima","Just east of Quillabamba, Finca Chichima","Cocoa, coffe, yuca, mangoes, bananas, corn crops grown",N/A,1300-1400 m,N/A,2038794,Typed,no type status
https://fm-digital-assets.fieldmuseum.org/330/762/C0045536F.jpg,C0045536F,Thomas G. Lammers,T. G. Lammers,N/A,10674,9 May 1998,1998-05-09,N/A,Dryopteris carthusiana (Vill.) H.P. Fuchs,Dryopteris carthusiana (Vill.) H.P. Fuchs,N/A,N/A,N/A,U.S.A.,Illinois,Cook,N/A,"Palos Twp., Swallow Cliffs Woods Forest Preserve, SW of the jct. of US Hwy 45 and State Hwy 83","Palos Township, Swallow Cliffs Woods Forest Preserve, southwest of the junction of US Highway 45 and State Highway 83",Local in mesic maple-basswood forest on steep slopes of deep ravine south of toboggan run,N/A,N/A,N/A,2228497,Typed,no type status
https://fm-digital-assets.fieldmuseum.org/1139/892/C0627900F.jpg,C0627900F,"Antonio Molina R., Albertina R. Molina",A. Molina R.,A. R. Molina,12562,"Mayo 22, 1963",1963-05-22,N/A,Polypodium montigenum Maxon,Polypodium montigenum Maxon,AmolinaR.,N/A,N/A,El Salvador,Santa Ana,N/A,N/A,Montaña Montecristo,Montaña Montecristo,Bosque abierto,N/A,2000 m,N/A,1661895,Typed,no type status
https://fm-digital-assets.fieldmuseum.org/217/945/V0082645F.jpg,V0082645F,M. O. Dillon,M. O. Dillon,N/A,5376,21 Dec 1987,1987-12-21,N/A,Notholaena mollis Kunze,Cheilanthes mollis (Kunze) C. Presl,N/A,N/A,N/A,Chile,Antofagasta,Antofagasta,N/A,"Cerro Perales, ca. 5 km E of Taltal","Cerro Perales, approximately 5 kilometers east of Taltal",N/A,rock,600-850 m,"25° 25' S, 7° 25' W",2010984,Typed,no type status
https://fm-digital-assets.fieldmuseum.org/1073/191/C0666362F.jpg,C0666362F,Rolla M. & Alice F. Tryon,R. M. Tryon,A. F. Tryon,6566,23 October 1965,1965-10-23,N/A,Thelypteris Lindigii (C.Chr.) Alston,Thelypteris rufa (Poir.) A. R. Smith,Alan R. Smith,"1979, 1989",N/A,Peru,Ancash,N/A,N/A,"Road from Huaras to Cusma, west valley","Road from Huaras to Cusma, west valley",N/A,rock,2800 m,N/A,1833066,Typed,no type status
https://fm-digital-assets.fieldmuseum.org/1073/037/C0666207F.jpg,C0666207F,"E. P. Killip, A. C. Smith",E. P. Killip,A. C. Smith,29721,"September 20-22, 1929",1929-09-20,1929-09-22,Dryopteris megalodus (Schk.) Urban,Thelypteris pennata (Poiret) C. Morton,Alan R. Smith,1989,N/A,Peru,Loreto,N/A,N/A,"Soledad, on Río Itaya ","Soledad, on Río Itaya",Dense forest,N/A,about 110 meters,N/A,1520668,Mix of Handwritten and Typed,no type status
https://fm-digital-assets.fieldmuseum.org/1073/036/C0666206F.jpg,C0666206F,"E. P. Killip, A. C. Smith",E. P. Killip,A. C. Smith,29437,"September 18, 1929",1929-09-18,N/A,Dryopteris megalodus (Schk.) Urban,Thelypteris pennata (Poiret) C. Morton,Alan R. Smith,1989,N/A,Peru,Loreto,N/A,N/A,"San Antonio, on Río Itaya","San Antonio, on Río Itaya",Dense forest,N/A,about 110 meters,N/A,1520667,Mix of Handwritten and Typed,no type status
https://fm-digital-assets.fieldmuseum.org/1073/033/C0666203F.jpg,C0666203F,Macbride & Featherstone,Macbride,Featherstone,1622,"July 8-22, 1922",1922-07-08,1922-07-22,Dryopteris Pavoniana (Kl.)C.Chr.,Thelypteris pavoniana (Kl.) Tryon,Alan R. Smith,1979 1989,N/A,Peru,N/A,N/A,N/A,Mito,Mito,Sunny dirt ledges of the grass shrub formation,N/A,about 9000 ft.,N/A,518129,Mix of Handwritten and Typed,no type status
https://fm-digital-assets.fieldmuseum.org/1073/032/C0666202F.jpg,C0666202F,J. J. Wurdack,J. J. Wurdack,N/A,705,1 June 1962,1962-06-01,N/A,Thelypteris pavoniana (Klotsch),Thelypteris pavoniana (Klotzsch) Tryon,Alan R. Smith,"1979, 1989",N/A,Peru,Amazonas,Chachapoyas,N/A,Upper slopes of Puma-urcu east-southeast of Chachapoyas,"Upper slopes of Puma-urcu, east southeast of Chachapoyas",On banks,N/A,2700-3000 m.,N/A,1647265,Typed,no type status
https://fm-digital-assets.fieldmuseum.org/1072/942/C0666112F.jpg,C0666112F,Rolla M. Tryon & Alice F. Tryon,R. M. Tryon,A. F. Tryon,5202,"Aug. 13, 1956",1956-08-13,N/A,Thelypteris,Thelypteris opulenta (Kaulf.) Fosberg,Alan R. Smith,"1979, 1989",N/A,Peru,Loreto,Maynas,N/A,"Rio Itaya, 10 km. s. of Iquitos","Rio Itaya, 10 km south of Iquitos",In old banana planting,N/A,N/A,N/A,1587072,Typed,no type status
https://fm-digital-assets.fieldmuseum.org/1081/508/C0639123F.jpg,C0639123F,"Louis O. Williams, Antonio Molina R. and Terua P. Williams",L. O. Williams,A. Molina R. | T. P. Williams,23634,"January 8-15, 1963",1963-01-08,1963-01-15,N/A,Lycopodium clavatum L.,C. V. Morton & D. B. Lellinger,1964,N/A,Nicaragua,Matagalpa,N/A,N/A,"Sta. María de Ostuma, Cordillera Central de Nicaragua between Matagalpa and Jinotega","Santa María de Ostuma, Cordillera Central de Nicaragua, between Matagalpa and Jinotega",Cloud forest area,N/A,1300-1500 meters,N/A,1604338,Typed,no type status
https://fm-digital-assets.fieldmuseum.org/1748/926/C0675553F.jpg,C0675553F,"John T. Atwood, Jr.","J. T. Atwood, Jr.",N/A,77105,8 Feb. 1977,1977-02-08,N/A,Adiantum trapeziforme L.,Adiantum exuberans McCarthy & Hickey,M. R. McCarthy,2012,N/A,Nicaragua,Granada,N/A,N/A,Volcan Mombacho. Lower cloud forest near finca Cutirre,"Volcan Mombacho, near finca Cutirre",Lower cloud forest,N/A,N/A,N/A,1868242,Typed,no type status
https://fm-digital-assets.fieldmuseum.org/1749/002/C0675619F.jpg,C0675619F,H. et al.,G. B. Hinton,et al.,7644,4-21-35,1935-04-21,N/A,Adiantum trapeziforme L.,Adiantum exuberans McCarthy & Hickey,M. R. McCarthy,2012,N/A,Mexico,México,N/A,Temascaltepec,Pantoja,Pantoja,Dry barranca,N/A,N/A,N/A,954869,Typed,no type status
https://fm-digital-assets.fieldmuseum.org/1751/323/C0355438F.jpg,C0355438F,R.A.Maas Geesteranus,R. A. Maas Geesteranus,N/A,5744,12-VIII-1949,1949-08-12,N/A,Asplenium dregeanum Kze.,Asplenium sandersonii Hook.,R. Faden,1976,N/A,Kenya,Nyanza,N/A,N/A,"Kericho Distr., South Western Mau Forest Reserve, camp 8, river Itare","Kericho District, South Western Mau Forest Reserve, camp 8, river Itare","Riparian-woodland along river, among others with Conopharyngia holstii",N/A,1920 m s.m,"lat. 0°36'30"" S., long. 35°18'20"" E.",1445440,Mix of Handwritten and Typed,no type status
https://fm-digital-assets.fieldmuseum.org/1824/625/C0359489F.jpg,C0359489F,"M. Véliz con J. M. Véliz, J. Charco, H. Sains, J. Lopez y R. Esteban",M. Véliz,J. M. Véliz | J. Charco | H. Sains | J. Lopez | R. Esteban,MV 16199,22/XI/2005,2005-11-22,N/A,Lophosoria quadripinnata (J.F. Gmel)C. Chr. var quadripinnata,Lophosoria quadripinnata (J.F. Gmel)C. Chr. var quadripinnata,M. Véliz,24/XI/2005,N/A,Guatemala,Jalapa,N/A,N/A,"Aldea San Raymundo, río Manzanillos","Aldea San Raymundo, Río Manzanillos",Bosque de Quercus sp.,N/A,2308 msmn,14° 33' 43.7 N; 90° 06' 19.7 O.,2298970,Typed,no type status
https://fm-digital-assets.fieldmuseum.org/1752/612/C0662895F.jpg,C0662895F,Chas. F. Millspaugh,C. F. Millspaugh,N/A,893,Jan. 28-Feb. 06,1899-01-28,1899-02-06,Asplenium dentatum L.,Asplenium dentatum L.,N/A,N/A,N/A,Jamaica,N/A,N/A,Port Antonio,Port Antonio,[precise locality unknown],N/A,N/A,N/A,N/A,60893,Mix of Handwritten and Typed,no type status
https://fm-digital-assets.fieldmuseum.org/1847/286/C0363828F.jpg,C0363828F,T. G. Yuncker,T. G. Yuncker,N/A,17429,"Nov. 17, 1957",1957-11-17,N/A,Lycopodium cernuum L.,Lycopodium cernuum L.,N/A,N/A,N/A,Jamaica,St. Andrew,N/A,N/A,along trail near Bellevue,Along trail near Bellevue,Scrambling over side of cut,N/A,3000-4000 ft.,N/A,1483756,Typed,no type status
https://fm-digital-assets.fieldmuseum.org/1847/445/C0363985F.jpg,C0363985F,Carvalho,Carvalho,N/A,2092,25-VII-1986,1986-07-25,N/A,Lycopodiella cernua (L.) Pic.-Serm.,Lycopodiella cernua (L.) Pic.-Serm.,J. Fernández Casas,1991,N/A,Equatorial Guinea,N/A,N/A,N/A,"Bioco: Malabo - Basilé, km 13, cerca de Basilé","Bioco: Malabo - Basilé, Kilometer 13, cerca de Basilé",Margenes de la carretera,N/A,390 m,32NMK7808,2201362,Typed,no type status
https://fm-digital-assets.fieldmuseum.org/1847/568/C0363442F.jpg,C0363442F,Henk van der Werff,H. van der Werff,N/A,11699,12 June 1990,1990-06-12,N/A,Diplazium assimile (Endl.) Bedd.,Diplazium assimile (Endl.) Bedd.,Henk van der Werff,1991,N/A,Australia,Queensland,N/A,N/A,"Boonjee logging area, at base of Mt. Bartle Frere","Boonjee logging area, at base of Mount Bartle Frere",Rainforest,N/A,N/A,145°43'E 17°25'S,2094887,Mix of Handwritten and Typed,no type status
https://fm-digital-assets.fieldmuseum.org/2128/136/C0378283F.jpg,C0378283F,M. Tagawa & K. Iwatsuki,M. Tagawa,K. Iwatsuki,1150,"July 28, 1956.",1956-07-28,N/A,Diplazium amabile (Tag.) Tag.,Diplazium amabile (Tag.) Tag.,N/A,N/A,N/A,Japan,Kagoshima,N/A,N/A,"Kyushu. western slope of Mt. Hoyoshi, south of Kanoya City","Kyushu, western slope of Mount Hoyoshi, south of Kanoya",Wet rocky slope in densely wooded ravine,N/A,N/A,N/A,1479055,Typed,no type status
https://fm-digital-assets.fieldmuseum.org/1862/027/C0364726F.jpg,C0364726F,W. Takeuchi & J. Wiakabu,W. Takeuchi,J. Wiakabu,9366,"February 5, 1994",1994-02-05,N/A,Blechnum ledermanni Brause,Blechnum ledermanni Brause,N/A,N/A,N/A,Papua New Guinea,N/A,N/A,N/A,New Ireland; Hans Meyer Range. Site 4 on the expedition report,"New Ireland, Hans Meyer Range, Site 4 on the expedition report",Pristine subcloud forest dominated by bryophytic and ferny growth,N/A,c. 1800 m,4°25'S X 152°59'E,2158436,Typed,no type status
https://fm-digital-assets.fieldmuseum.org/1864/937/C0366013F.jpg,C0366013F,Tagawa & Iwatsuki,Tagawa,K. Iwatsuki,888,"May 20, 1956",1956-05-20,N/A,Dryopteris crassirhizoma Nakai,Dryopteris crassirhizoma Nakai,N/A,N/A,N/A,Japan,N/A,N/A,N/A,N/A,[precise locality unknown],N/A,N/A,N/A,N/A,1479001,Typed,no type status
https://fm-digital-assets.fieldmuseum.org/1863/394/C0366453F.jpg,C0366453F,J. Ohwi,J. Ohwi,N/A,202,April 1951,1951-04-00,N/A,Polystichum tripteron Presl,Polystichum tripteron Presl,N/A,N/A,N/A,Japan,N/A,N/A,N/A,Honco: Jimmuji in Sagami,Honco: Jimmuji in Sagami,N/A,N/A,N/A,N/A,1464206,Typed,no type status
https://fm-digital-assets.fieldmuseum.org/1862/882/C0364207F.jpg,C0364207F,Father Morice Vanoverbergh,F. M. Vanoverbergh,N/A,3591,April 1913,1913-04-00,N/A,Asplenium contiguum.Kaulf.,Asplenium contiguum.Kaulf.,N/A,N/A,N/A,Philippines,N/A,N/A,N/A,Bontoc Subprovince. Luzon,Bontoc Subprovince. Luzon,N/A,N/A,N/A,N/A,393439,Typed,no type status
https://fm-digital-assets.fieldmuseum.org/1897/625/C0376117F.jpg,C0376117F,R.B. & A.J. Faden,R. B. Faden,A. J. Faden,77/53,5 Jan. 1977,1977-01-05,N/A,Pyrossia lanceolata (L.) Farw.,Pyrossia lanceolata (L.) Farw.,D.B. Lellinger,1979,N/A,Sri Lanka,North Western,Kurunegala,N/A,Doluwakanda Hill,Doluwakanda Hill,Forest,N/A,600 m,"ca. 7°37'N, 80°24'30""E",2014294,Typed,no type status
https://fm-digital-assets.fieldmuseum.org/1904/108/C0377881F.jpg,C0377881F,"Albert N. Steward, C. Y. Chiao, and H. C. Cheo",A. N. Steward,C. Y. Chiao | H. C. Cheo,344,"Sept. 4, 1931",1931-09-04,N/A,Dryopteris esquirolii Christ,Thelypteris esquirolii (Christ) Ching,N/A,N/A,N/A,China,Kweichow,N/A,N/A,"Ta Ho Yen, Fan Ching Shan","Ta Ho Yen, Fan Ching Shan",Moist brushy slope,N/A,980 m,N/A,779919,Mix of Handwritten and Typed,no type status
https://fm-digital-assets.fieldmuseum.org/1909/756/C0382365F.jpg,C0382365F,Julie F. Barcelona,J. F. Barcelona,N/A,48,"Nov., 1989",1989-11-00,N/A,Selaginella cf. repanda,Selaginella philippina Spring,J.F. Barcelona,13 Sep. 2005,N/A,Philippines,Western Visayas,Antique,Sibalom,"W. Visayas,Panay I., Antique Prov.,Sibalom,Egaña","Panay Island, Egaña",On shaded and moist areas along river bank,N/A,N/A,N/A,2210265,Mix of Handwritten and Typed,no type status
https://fm-digital-assets.fieldmuseum.org/1896/920/C0368029F.jpg,C0368029F,L. & A. Fay,L. Fay,A. Fay,1206,11 Apr 1985,1985-04-11,N/A,Drynaria laurentii (Christ.) Hieron.,Drynaria laurentii (Christ.) Hieron.,N/A,N/A,N/A,Liberia,N/A,N/A,N/A,Cuttington University College,Cuttington University College,Common in groves of rubber trees,bark,250 m,N/A,2111378,Typed,no type status
https://fm-digital-assets.fieldmuseum.org/1990/120/C0356535F.jpg,C0356535F,H. St. John,H. St. John,N/A,16662,"Aug. 26, 1934",1934-08-26,N/A,Humata banksii Alston,Humata banksii Alston,E.B.Copeland,N/A,N/A,French Polynesia,Austral Islands,N/A,N/A,"Rurutu. Northwest slope of Teape, Teti woods","Rurutu, northwest slope of Teape, Teti woods",Woods,twigs,350 meters,N/A,1435764,Typed,no type status
https://fm-digital-assets.fieldmuseum.org/1995/841/C0383576F.jpg,C0383576F,T. G. Yuncker,T. G. Yuncker,N/A,18561,"Mar. 30, 1958",1958-03-30,N/A,Selaginella plana (Diev.) Hieron.,Selaginella plana (Diev.) Hieron.,N/A,N/A,N/A,Jamaica,Portland,N/A,N/A,"John Crow Mts., 1.5-2 miles south-west of Ecclesdown","John Crow Mountains, 1.5-2 miles southwest of Ecclesdown","On wet embankment along trail, rainforest",N/A,1500-2500 ft,N/A,1481965,Typed,no type status
https://fm-digital-assets.fieldmuseum.org/1982/572/C0383180F.jpg,C0383180F,A. Carestia,A. Carestia,N/A,s.n.,1871,1871-00-00,N/A,Lycopodium complanatum L.,Lycopodium complanatum L.,J. H. Wilce,1962,N/A,Italy,N/A,N/A,N/A,Salita alla Boscarola presso Scopello in Valsesia,Salita alla Boscarola presso Scopello in Valsesia,N/A,N/A,N/A,N/A,1021302,Typed,no type status
https://fm-digital-assets.fieldmuseum.org/1991/498/C0358423F.jpg,C0358423F,C.J. Chamberlain,C. J. Chamberlain,N/A,s.n.,"Oct. 15, 1911",1911-10-15,N/A,Trichomanes reniforme,Trichomanes reniforme,N/A,N/A,N/A,New Zealand,N/A,N/A,Ohakune,Ohakune,[precise locality unknown],N/A,N/A,N/A,N/A,1407795,Typed,no type status
https://fm-digital-assets.fieldmuseum.org/2116/918/C0662992F.jpg,C0662992F,"R. L. Wilbur E. L. Dunn, H. A. Hespenheide, D. R. Wiseman",R. L. Wilbur,E. L. Dunn | H. A. Hespenheide | D. R. Wiseman,8185,2 August 1964,1964-08-02,N/A,Cnemidaria grandifolia (Willd.),Cnemidaria grandifolia (Willd.) Proctor var. grandifolia,R. G. Stolze,1971,N/A,Dominica,Saint Paul,N/A,N/A,Parish of St. Paul: Disturbed rainforest in the upper Layou Valley about 5 miles from Clark Hall towards Pont Cassé,Upper Layou Valley about 5 miles from Clark Hall towards Pont Cassé,Disturbed rainforest,N/A,N/A,N/A,1670026,Typed,no type status
https://fm-digital-assets.fieldmuseum.org/2128/029/C0377971F.jpg,C0377971F,R.B. & A.J.Faden,R. B. Faden,A. J. Faden,77/31,2 Jan 1977,1977-01-02,N/A,Thelypteris,Trigonospora obtusiloba Sledge,N/A,N/A,N/A,Sri Lanka,Central,Nuwara Eliya,N/A,between mile posts 46/3 and 46/4 on Nuwara Eliya-Kandy road,Between mile posts 46/3 and 46/4 on Nuwara Eliya-Kandy road,Shady moist bank near stream,N/A,ca 1980 m,"6°59'N,80°45'E",2089703,Mix of Handwritten and Typed,no type status
https://fm-digital-assets.fieldmuseum.org/326/926/C0003693F.jpg,C0003693F,HK.,HK.,N/A,68/641,5.VII.1968,1968-07-05,N/A,Crucispora naucorioides HK.,Crucispora naucorioides HK.,N/A,N/A,N/A,New Zealand,N/A,N/A,N/A,"Kauaeranga Valley, Coromandel Peninsula","Kauaeranga Valley, Coromandel Peninsula","In humus unter Cyathea dealbata, Cyathea smithii, Phyllocladus, Podocarpus, etc.",soil,N/A,N/A,1017207,N/A,Type
https://fm-digital-assets.fieldmuseum.org/407/128/C0004429F.jpg,C0004429F,Singer,Singer,N/A,B 7463,14 V 1973,1973-05-14,N/A,Hygrocybe dimorphobasidiata Sing.,Hygrocybe dimorphobasidiata Sing.,N/A,N/A,N/A,Ecuador,Napo,N/A,N/A,Lago Agrio,Lago Agrio,Ad terram in hylaea,soil,N/A,N/A,N/A,N/A,Type
https://fm-digital-assets.fieldmuseum.org/407/130/C0004430F.jpg,C0004430F,Singer,Singer,N/A,M10517,23 II 1988,1988-02-23,N/A,Hygrocybe fuegiana Sing . ( = H. rosea sensu Horak),Hygrocybe fuegiana Sing . ( = H. rosea sensu Horak),N/A,N/A,N/A,Argentina,Tierra del Fuego,Ushuaia,N/A,"road Ushuaya-Lago Fagnano, SW of highest point","Road Ushuaia-Lago Fagnano, southwest of highest point",Gregarious in bog margin with Sphagnum spec. and Rubus geoides,N/A,N/A,N/A,1075922,Typed,Holotype
https://fm-digital-assets.fieldmuseum.org/276/684/C0000578F.jpg,C0000578F,"John J. Engel, Matt von Konrat & John E. Braggins",J. J. Engel,M. von Konrat | J. E. Braggins,23773,12 February 2003,2003-02-12,N/A,Telarena lindenbergii var. papillata Engel & Merr.,Telarena lindenbergii var. papillata Engel & Merr.,N/A,N/A,N/A,New Zealand,Auckland,N/A,N/A,"North Island. Auckland Prov.: Whareorino Forest, start of track to Leitch's Hut","North Island, Whareorino Forest, start of track to Leitch's Hut","Clay banks with Blechnum novae-zealandiae overhang, Weinmannia and Dicksonia squarrosa dominant canopy and occasional Leptospermum scoparium.",soil,280 m,"38° 24.5' S., 174° 49.8' E",1173554,Typed,Holotype
https://fm-digital-assets.fieldmuseum.org/2535/382/C2079898F.jpg,C2079898F,Marko Lewis,M. Lewis,N/A,78-2684,21-22 November 1978,1978-11-21,1978-11-22,Kindbergia praelonga (Hedw.)Ochyra,Kindbergia praelonga (Hedw.)Ochyra,W. C. Steere,N/A,N/A,Ecuador,Imbabura,N/A,N/A,"E. side of Cerro Cotacachi, NW of Cotacachi","East side of Cerro Cotacachi, northwest of Cotacachi",Wet bank of runoff ravine,N/A,3750 m,"0°22'N., 78°20'W",1065158,Mix of Handwritten and Typed,no type status
https://fm-digital-assets.fieldmuseum.org/2537/873/C2077559F.jpg,C2077559F,Marko Lewis,M. Lewis,N/A,78-3163,8 December 1978,1978-12-08,N/A,Hedwigia ciliata (Hedw.) P. Beauv.,Hedwigia ciliata (Hedw.) P. Beauv.,Efrain De Luna,1992,N/A,Ecuador,Azuay,N/A,N/A,"Area Nacional de Recreación ""Cajas"", forested hill S. of ""Surrochucho"" (Laguna Llaviuco), SW of Sayausí","Area Nacional de Recreación ""Cajas"", forested hill south of ""Surrochucho"" (Laguna Llaviuco), southwest of Sayausí",Forested hill; stone wall,wall,3240 m,"2°55'S., 79°09'W",1065433,Mix of Handwritten and Typed,no type status
https://fm-digital-assets.fieldmuseum.org/2537/883/C2077563F.jpg,C2077563F,R.Benoist,R.Benoist,N/A,4659 pp.,s.d.,s.d.,N/A,Hedwigia albicans (Web.)Lindb.,Hedwigia ciliata (Hedw.) P. Beauv.,Efrain De Luna,1992,N/A,Ecuador,Pichincha,N/A,N/A,Environs de Quito,Environs de Quito,N/A,N/A,N/A,N/A,1089453,Typed,no type status
https://fm-digital-assets.fieldmuseum.org/2537/887/C2077564F.jpg,C2077564F,R.Benoist,R.Benoist,N/A,2279,27 mars 1930,1930-03-27,N/A,Hedwigia albicans (Web.)Lindb.,Hedwigia ciliata (Hedw.) P. Beauv.,Efrain De Luna,1992,N/A,Ecuador,Pichincha,N/A,Quito,Equateur. Quito.,[precise locality unknown],Sur rocher d'andésite,rock,N/A,N/A,1089455,Mix of Handwritten and Typed,no type status
https://fm-digital-assets.fieldmuseum.org/2537/891/C2077565F.jpg,C2077565F,R. S. Williams,R. S. Williams,N/A,2850,"April 30, 1902",1902-04-30,N/A,Hedwigia albicans (Web.) Lindb.,Hedwigia ciliata (Hedw.) P. Beauv.,Efrain De Luna,1992,N/A,Bolivia,N/A,N/A,N/A,Near Pelichuco,Near Pelichuco,N/A,N/A,3000 meters,N/A,1089454,Mix of Handwritten and Typed,no type status
https://fm-digital-assets.fieldmuseum.org/2537/895/C2077566F.jpg,C2077566F,Marko Lewis,M. Lewis,N/A,79-1237A,22 March 1979,1979-03-22,N/A,Hedwigia ciliata (Hedw.) P. Beauv.,Hedwigia ciliata (Hedw.) P. Beauv.,Efrain De Luna,1992,N/A,Bolivia,La Paz,Larecaja,N/A,Near large red outcrop 2 mi. from Sorata down Río Consata,Near large red outcrop 2 miles from Sorata down Río Consata,Bromeliad habitat. Abundant on rock faces of exposed cliffs,rock,2630 m,"15° 41' S., 68° 43' W",1032221,Typed,no type status
https://fm-digital-assets.fieldmuseum.org/2537/899/C2077567F.jpg,C2077567F,Marko Lewis,M. Lewis,N/A,79-1232,22 March 1979,1979-03-22,N/A,Hedwigia ciliata (Hedw.) P. Beauv.,Hedwigia ciliata (Hedw.) P. Beauv.,Efrain De Luna,1992,N/A,Bolivia,La Paz,Larecaja,N/A,Near large red outcrop 2 mi. from Sorata down Río Consata,Near large red outcrop 2 miles from Sorata down Río Consata,Bromeliad-grass habitat on exposed cliffs,rock,2630 m,"15° 41' S., 68° 43' W",1032219,Typed,no type status
https://fm-digital-assets.fieldmuseum.org/2537/903/C2077568F.jpg,C2077568F,Marko Lewis,M. Lewis,N/A,79-1114,6 March 1979,1979-03-06,N/A,Hedwigia ciliata (Hedw.) P. Beauv.,Hedwigia ciliata (Hedw.) P. Beauv.,Efrain De Luna,1992,N/A,Bolivia,La Paz,Bautista Saavedra,N/A,"On mountain side directly N. of river, beneath Niño Karine, NNW of Chuma","On mountain side directly north of river, beneath Niño Karine, north northwest of Chuma",Humid cliffs and steep slopes,rock,3320 m,"15° 08' S., 69° 03' W",1032220,Typed,no type status
https://fm-digital-assets.fieldmuseum.org/2537/908/C2077569F.jpg,C2077569F,F. J. Hermann,F. J. Hermann,N/A,25152,"December 27, 1972",1972-12-27,N/A,Hedwigia ciliata (Hedw.) Beauv.,Hedwigia ciliata (Hedw.) P. Beauv.,Efrain De Luna,1992,N/A,Bolivia,Cochabamba,N/A,N/A,"NW slope of Mt. Tunari, near Liriuni Aguas Termales Hotel, 28 km. NW Cochabamba","Northwestern slope of Mount Tunari, near Liriuni Aguas Termales Hotel, 28 kilometers northwest of Cochabamba",On conglomerate boulder on shrubby slope,boulder,ca. 2700 m.,N/A,1040675,Typed,no type status
https://fm-digital-assets.fieldmuseum.org/2537/555/C2077570F.jpg,C2077570F,Ynes Mexia,Y. Mexia,N/A,6204,"Dec. 2, 1931",1931-12-02,N/A,Pilosium subchlorophyllosum C.M.,Pilosium subchlorophyllosum C.M.,Bartram,N/A,N/A,Peru,Loreto,N/A,N/A,Above Pongo de Manseriche. Streamlet near mouth of Rio Santiago,"Above Pongo de Manseriche, streamlet near mouth of Rio Santiago",On fallen log,log,400 m,N/A,1057692,Typed,no type status
https://fm-digital-assets.fieldmuseum.org/2537/556/C2077571F.jpg,C2077571F,Ynes Mexia,Y. Mexia,N/A,6204,"Dec. 2, 1931",1931-12-02,N/A,Pilosium subchlorophyllosum C.M.,Pilosium subchlorophyllosum C.M.,Bartram,N/A,N/A,Peru,Loreto,N/A,N/A,Above Pongo de Manseriche. Streamlet near mouth of Rio Santiago,"Above Pongo de Manseriche, streamlet near mouth of Rio Santiago",On fallen log,log,400 m,N/A,N/A,Typed,no type status
https://fm-digital-assets.fieldmuseum.org/2537/557/C2077572F.jpg,C2077572F,A.C.Smith,A. C. Smith,N/A,2748,"Dec. 15-24, 1937",1937-12-15,1937-12-24,Pilosium flaccisetum C.M.,Pilosium flaccisetum C.M.,E. B. Bartram,N/A,N/A,Guyana,N/A,N/A,N/A,"Basin of Essequibo River, near mouth of Onoro Creek","Basin of Essequibo River, near mouth of Onoro Creek","Dense forest. On decayed wood, in swamp",wood,N/A,about 1°35' N,1023751,Mix of Handwritten and Typed,no type status
https://fm-digital-assets.fieldmuseum.org/2537/558/C2077573F.jpg,C2077573F,J.Florschütz-de Ward & R.Zielman,J. Florschütz-de Ward,R. Zielman,5315,5 - 11 - 1981,1981-11-05,N/A,Pilosium chlorophyllum (Hornsch.)C.Müll.,Pilosium chlorophyllum (Hornsch.)C.Müll.,Rudi Zielman,N/A,N/A,Suriname,N/A,N/A,N/A,"Area of Kabalebo Dam project, distr. Nickerie, line NW from road km 39.5","Area of Kabalebo Dam project, Nickerie district, line northwest from road Kilometer 39.5",Secondary woods with Cecropia (bospapaja). On rotting log,N/A,0 - 50 m,p. 5N 58W qu. SE,1073523,Typed,no type status
https://fm-digital-assets.fieldmuseum.org/2537/559/C2077574F.jpg,C2077574F,J.Florschütz-de Ward & R.Zielman,J. Florschütz-de Ward,R. Zielman,5254,3-11-1981,1981-11-03,N/A,Pilosium chlorophyllum(Hornsch.)C.Müll.,Pilosium chlorophyllum(Hornsch.)C.Müll.,R.Zielman,N/A,N/A,Suriname,N/A,N/A,N/A,"Area of Kabalebo Dam project, distr. Nickerie, line NW from road km 39.5","Area of Kabalebo Dam project, Nickerie district, line northwest from road Kilometer 39.5","Savanna forest, on rotting log",log,0 - 50 m,p. 5N 58W qu. SE,1073529,Typed,no type status
https://fm-digital-assets.fieldmuseum.org/2537/560/C2077575F.jpg,C2077575F,J.Florschütz-de Ward & R.Zielman,J. Florschütz-de Ward,R. Zielman,5098,30-10-1981,1981-10-30,N/A,Pilosium chlorophyllum(Hornsch.)C.Müll.,Pilosium chlorophyllum(Hornsch.)C.Müll.,R.Zielman,N/A,N/A,Suriname,N/A,N/A,N/A,"Area of Kabalebo Dam project, distr. Nickerie, line W from road 34 km","Area of Kabalebo Dam project, Nickerie district, line west from road 34 kilometers",Rainforest,log,0 - 50 m,p. 5N 58W qu. SE,1073528,Typed,no type status
https://fm-digital-assets.fieldmuseum.org/2537/561/C2077576F.jpg,C2077576F,"J.C.Lindeman,A.R.A.Görts-van Rijn,M.J.Jansen-Jacobs & A.M.C.Hetterscheid-Hollants",J. C. Lindeman,A. R. A. Görts-van Rijn | M. J. Jansen-Jacobs | A. M. C. Hetterscheid-Hollants,243A,3-IX-1980,1980-09-03,N/A,Pilosium chlorophyllum (Hornsch.) C.Müll.,Pilosium chlorophyllum (Hornsch.) C.Müll.,H.R.Zielman,N/A,N/A,Suriname,N/A,N/A,N/A,"Area of Kabalebo Dam project, distr.Nickerie, S of km 28.7","Area of Kabalebo Dam project, Nickerie district, south of Kilometer 28.7",Forest. Epiphyte on tree trunk,bark,30 - 130 m,"4° 5°NB, 57° 30' 58° WL",1073527,Typed,no type status
https://fm-digital-assets.fieldmuseum.org/2537/562/C2077577F.jpg,C2077577F,J.Florschütz-de Ward and R.Zielman,J. Florschütz-de Ward,R. Zielman,5141,31 October 1981,1981-10-31,N/A,Pilosium chlorophyllum (Hornsch.) C. Müll.,Pilosium chlorophyllum (Hornsch.) C. Müll.,R. Zielman,N/A,N/A,Suriname,N/A,N/A,N/A,"Distr. Nickerie, Kabalebo river area, line W. from road km 34","Nickerie district, Kabalebo river area, line west from road Kilometer 34",On decaying log in marsh forest with Astrocaryum,log,0-50 m,"5°N., 58°W",1079833,Typed,no type status
https://fm-digital-assets.fieldmuseum.org/2537/563/C2077578F.jpg,C2077578F,J. & P.A. Florschütz,J. Florschütz-de Ward,P. A. Florschütz,4690,18 December 1975,1975-12-18,N/A,Pilosium chlorophyllum (Hornsch.) C. Muell.,Pilosium chlorophyllum (Hornsch.) C. Muell.,R. Zielman and J. Florschütz-de Ward,N/A,N/A,Suriname,N/A,N/A,N/A,"Brownsberg, trail to Leo Val","Brownsberg, trail to Leo Val",Rainforest,log,ca. 500 m,N/A,1065613,Typed,no type status
https://fm-digital-assets.fieldmuseum.org/2537/564/C2077579F.jpg,C2077579F,H.Cornelissen & S.R.Gradstein,H. Cornelissen,S. R. Gradstein,C076,8 March 1977,1977-03-08,N/A,Pilosium chlorophyllum (Hornsch.) C. Müll.,Pilosium chlorophyllum (Hornsch.) C. Müll.,J. Florschütz-de Ward,N/A,N/A,Guyana,N/A,N/A,N/A,"Mabura Hill, 180 km S of Georgetown","Mabura Hill, 180 kilometers south of Georgetown",On rotting tree in mixed rain forest,tree,0-50 m,5°20'N 58°40'W,1091586,Typed,no type status
https://fm-digital-assets.fieldmuseum.org/2537/565/C2077580F.jpg,C2077580F,R. Spruce,R. Spruce,N/A,1321,s.d.,s.d.,N/A,Stereophyllum chlorophyllum. Hornsch.,Pilosium chlorophyllum (Hornsch.) Müll. Hal.,R.R. Ireland and W.R. Buck,1992,N/A,Brazil,N/A,N/A,N/A,Fl. Amazon prope Para,Flumen Amazon prope Pará,N/A,N/A,N/A,N/A,1078188,Mix of Handwritten and Typed,no type status
https://fm-digital-assets.fieldmuseum.org/2537/566/C2077581F.jpg,C2077581F,Richard Evans Schultes et Isidoro Cabrera,R. E. Schultes,I. Cabrera,17922,"Oct. 22, 1952",1952-10-22,N/A,Pilosium chlorophyllum (Hornsch.) Jaeg.,Pilosium chlorophyllum (Hornsch.) Jaeg.,H. A. Crum,1956,N/A,Colombia,Vaupés,N/A,Mitú,Río Vaupés: Mitú and vicinity. Cerro Mitú,"Río Vaupés, Mitú and vicinity, Cerro Mitú",On rotten log,log,N/A,"1°0' N, 70°5' W",1055492,Mix of Handwritten and Typed,no type status
https://fm-digital-assets.fieldmuseum.org/2537/567/C2077582F.jpg,C2077582F,Richard Evans Schultes et Isidoro Cabrera,R. E. Schultes,I. Cabrera,14294,"October 4-6, 1951",1951-10-04,1951-10-06,Pilosium chlorophyllum (Hornsch.) C.M.,Pilosium chlorophyllum (Hornsch.) C.M.,H. A. Crum,1956,N/A,Colombia,Vaupés,N/A,N/A,"Río Kuduyarí (affluent of Río Vaupés), Yapobodá","Río Kuduyarí (affluent of Río Vaupés), Yapobodá",Quartzitic savannah. On rotten logs,log,N/A,N/A,1055491,Typed,no type status
https://fm-digital-assets.fieldmuseum.org/2537/568/C2077583F.jpg,C2077583F,Richard Evans Schultes,R. E. Schultes,N/A,12309,June 1951,1951-06-00,N/A,Pilosium chlorophyllum (Hornsch.) C.M. in Broth.,Pilosium chlorophyllum (Hornsch.) C.M. in Broth.,Dana Griffin III,N/A,N/A,Colombia,Vaupés,N/A,N/A,"Comisaría del Vaupés, Río Apaporis. Soratama","Río Apaporis, Soratama",On trunks,bark,N/A,N/A,1055490,Mix of Handwritten and Typed,no type status
https://fm-digital-assets.fieldmuseum.org/2537/569/C2077584F.jpg,C2077584F,Richard Evans Schultes,R. E. Schultes,N/A,11128,Dec. 1950,1950-12-00,N/A,Pilosium chlorophyllum (Hsch.) C.M. in Broth.,Pilosium chlorophyllum (Hsch.) C.M. in Broth.,Dana Griffin III,N/A,N/A,Colombia,Guaviare,N/A,San Jose del Guaviare,San Jose del Guaviare,[precise locality unknown],N/A,N/A,N/A,N/A,1055489,Typed,no type status
https://fm-digital-assets.fieldmuseum.org/2537/570/C2077585F.jpg,C2077585F,Ynes Mexia,Y. Mexia,N/A,6014a,"Aug. 31, 1931",1931-08-31,N/A,Pilosum chlorophyllum (Hsch.) C.M.,Pilosum chlorophyllum (Hsch.) C.M.,Bartram,N/A,N/A,Brazil,Pará,N/A,Tomé-Açu,Districto Acará. Thomé Assú; down Rio Acará 3 km,Down Rio Acará 3 kilometers,On fallen log,log,35 m,N/A,N/A,Typed,no type status
https://fm-digital-assets.fieldmuseum.org/2537/571/C2077586F.jpg,C2077586F,Ynes Mexia,Y. Mexia,N/A,5914,"July 16, 1931",1931-07-16,N/A,Pilosium Chlorophyllosum (Hsch.) C.M.,Pilosium Chlorophyllosum (Hsch.) C.M.,Bartram,N/A,N/A,Brazil,Pará,N/A,Tomé-Açu,Districto Acará. Thomé Assú. Japanese Colony,[precise locality unknown],On rotting log in woods,log,about 30 m,N/A,870829,Typed,no type status
https://fm-digital-assets.fieldmuseum.org/2539/518/C2078862F.jpg,C2078862F,"Dana Griffin, III, Manuel López F.",D. Griffin III,M. López F.,PV-1525,14 marzo 1985,1985-03-14,N/A,Brachythecium plumosum (Hedw.) BSG,Brachythecium plumosum (Hedw.) BSG,Dana Griffin III,N/A,N/A,Venezuela,Trujillo,N/A,N/A,"Páramo de Guirigay, arriba del pueblo de Las Piedras. Entre el río Burate y Peñas Blancas","Páramo de Guirigay, arriba del pueblo de Las Piedras, entre el río Burate y Peñas Blancas","Páramo con Espeletia schultzii. Sobre roca húmeda, lecho de riachuelo, a sol",rock,3.200 m,N/A,1064449,Typed,no type status
https://fm-digital-assets.fieldmuseum.org/2539/519/C2078913F.jpg,C2078913F,P. Dusén,P. Dusén,N/A,5872,22 February 1897,1897-02-22,N/A,Brachythecium albicans (Hedw.) Schimp.,Brachythecium albicans (Hedw.) Schimp.,W. R. Buck,N/A,N/A,Chile,N/A,N/A,N/A,"Patagonia occident., Cerra Colorado","Patagonia occidental, Cerro Colorado",N/A,N/A,N/A,N/A,1136354,Typed,no type status
https://fm-digital-assets.fieldmuseum.org/2539/520/C2078924F.jpg,C2078924F,Ynes Mexia,Y. Mexia,N/A,8001,"April 10, 1936",1936-04-10,N/A,Brachythecium subpilosum (H.f.& W.) Jaeg.,Brachythecium austroglareosum (Muell. Hal.) Kindb.,Kenneth D. McFarland,Sept 1987,N/A,Chile,N/A,N/A,N/A,Territorio Magellanes. Last Hope Inlet; Peninsula Antonio Varas,"Territorio Magellanes, Last Hope Inlet, Peninsula Antonio Varas",Openings in Nothofagus wood in moist earth,soil,25 m,N/A,1036758,Typed,no type status
https://fm-digital-assets.fieldmuseum.org/2539/521/C2078925F.jpg,C2078925F,Marko Lewis,M. Lewis,N/A,79-2108,25 May 1979,1979-05-25,N/A,Brachythecium calliergonoides Broth. in Herz.,Brachythecium cf. calliergonoides Broth. in Herz.,R. Ochyra,1982,N/A,Bolivia,Oruro,Sajama,N/A,"Río Junthuma Khuchu, 2 mi. down river from Aguas termales de Río Junthuma Khuchu",2 miles down river from Aguas termales de Río Junthuma Khuchu,In warmish creek,N/A,4350 m,"18° 07' S., 69° 00' W",1049405,Typed,no type status
https://fm-digital-assets.fieldmuseum.org/2539/522/C2078926F.jpg,C2078926F,Marko Lewis,M. Lewis,N/A,79-2109,25 May 1979,1979-05-25,N/A,Brachythecium calliergonoides Broth. in Herz.,Brachythecium calliergonoides Broth. in Herz.,R. Ochyra,1982,N/A,Bolivia,Oruro,Sajama,N/A,"Río Junthuma Khuchu, 2 mi. down river from Aguas termales de Río Junthuma Khuchu",2 miles down river from Aguas termales de Río Junthuma Khuchu,In warmish creek,N/A,4350 m,"18° 07' S., 69° 00' W",1049406,Typed,no type status
https://fm-digital-assets.fieldmuseum.org/2539/523/C2078927F.jpg,C2078927F,Marko Lewis,M. Lewis,N/A,79-2112,25 May 1979,1979-05-25,N/A,Brachythecium calliergonoides Broth. in Herz.,Brachythecium calliergonoides Broth. in Herz.,R. Ochyra,1982,N/A,Bolivia,Oruro,Sajama,N/A,"Río Junthuma Khuchu, 2 mi. down river from Aguas termales de Río Junthuma Khuchu",2 miles down river from Aguas termales de Río Junthuma Khuchu,In warmish creek,N/A,4350 m,"18° 07' S., 69° 00' W",1049407,Typed,no type status
https://fm-digital-assets.fieldmuseum.org/2539/524/C2078928F.jpg,C2078928F,Marko Lewis,M. Lewis,N/A,79-2115,25 May 1979,1979-05-25,N/A,Brachythecium calliergonoides Broth. in Herz.,Brachythecium calliergonoides Broth. in Herz.,R. Ochyra,1982,N/A,Bolivia,Oruro,Sajama,N/A,"Río Junthuma Khuchu, 2 mi. down river from Aguas termales de Río Junthuma Khuchu",2 miles down river from Aguas termales de Río Junthuma Khuchu,In warmish creek,N/A,4350 m,"18° 07' S., 69° 00' W",1049409,Typed,no type status
https://fm-digital-assets.fieldmuseum.org/2539/525/C2078929F.jpg,C2078929F,Marko Lewis,M. Lewis,N/A,79-2117,25 May 1979,1979-05-25,N/A,Brachythecium calliergonoides Broth. in Herz.,Brachythecium calliergonoides Broth. in Herz.,R. Ochyra,1982,N/A,Bolivia,Oruro,Sajama,N/A,"Río Junthuma Khuchu, 2 mi. down river from Aguas termales de Río Junthuma Khuchu",2 miles down river from Aguas termales de Río Junthuma Khuchu,In warmish creek,N/A,4350 m,"18° 07' S., 69° 00' W",1049410,Typed,no type status
https://fm-digital-assets.fieldmuseum.org/2539/526/C2078930F.jpg,C2078930F,Marko Lewis,M. Lewis,N/A,79-2118,25 May 1979,1979-05-25,N/A,Brachythecium calliergonoides Broth. in Herz.,Brachythecium calliergonoides Broth. in Herz.,R. Ochyra,1982,N/A,Bolivia,Oruro,Sajama,N/A,"Río Junthuma Khuchu, 2 mi. down river from Aguas termales de Río Junthuma Khuchu",2 miles down river from Aguas termales de Río Junthuma Khuchu,In warmish creek,N/A,4350 m,"18° 07' S., 69° 00' W",1049411,Typed,no type status
https://fm-digital-assets.fieldmuseum.org/2539/527/C2078931F.jpg,C2078931F,Marko Lewis,M. Lewis,N/A,79-2107,25 May 1979,1979-05-25,N/A,Brachythecium calliergonoides Broth. in Herz.,Brachythecium calliergonoides Broth. in Herz.,R. Ochyra,1982,N/A,Bolivia,Oruro,Sajama,N/A,"Río Junthuma Khuchu, 2 mi. down river from Aguas termales de Río Junthuma Khuchu",2 miles down river from Aguas termales de Río Junthuma Khuchu,In warmish creek,N/A,4350 m,"18° 07' S., 69° 00' W",1049404,Typed,no type status
https://fm-digital-assets.fieldmuseum.org/2539/529/C2078932F.jpg,C2078932F,Marko Lewis,M. Lewis,N/A,79-2119,25 May 1979,1979-05-25,N/A,Brachythecium calliergonoides Broth. in Herz.,Brachythecium calliergonoides Broth. in Herz.,R. Ochyra,1982,N/A,Bolivia,Oruro,Sajama,N/A,"Río Junthuma Khuchu, 2 mi. down river from Aguas termales de Río Junthuma Khuchu",2 miles down river from Aguas termales de Río Junthuma Khuchu,In warmish creek,N/A,4350 m,"18° 07' S., 69° 00' W",1049412,Typed,no type status
https://fm-digital-assets.fieldmuseum.org/2539/889/C2079350F.jpg,C2079350F,Ynes Mexia,Y. Mexia,N/A,6149,"Nov. 23, 1931",1931-11-23,N/A,Vesicularia amphibola (Spr.) Broth.,Vesicularia amphibola (Spr.) Broth.,Bartram,N/A,N/A,Peru,Loreto,N/A,N/A,Above Pongo de Manseriche. Left bank of Rio Santiago,"Above Pongo de Manseriche, left bank of Rio Santiago",On stone in overflow forest,stone,200 m,N/A,873368,Typed,no type status
https://fm-digital-assets.fieldmuseum.org/2539/890/C2079351F.jpg,C2079351F,Ynes Mexia,Y. Mexia,N/A,6160a,"Nov. 25, 1931",1931-11-25,N/A,Vesicularia amphibola (Spr.) Broth.,Vesicularia amphibola (Spr.) Broth.,Bartram,N/A,N/A,Peru,Loreto,N/A,N/A,Above Pongo de Manseriche. Right bank of Rio Santiago,"Above Pongo de Manseriche, right bank of Rio Santiago",Dense forest on log,log,200 m,N/A,873367,Typed,no type status
https://fm-digital-assets.fieldmuseum.org/2539/892/C2079352F.jpg,C2079352F,Ynes Mexia,Y. Mexia,N/A,6217a,"Dec. 4, 1931",1931-12-04,N/A,Vesicularia amphibola (Spr.) Broth.,Vesicularia amphibola (Spr.) Broth.,Bartram,N/A,N/A,Peru,Loreto,N/A,N/A,Above Pongo de Manseriche. Streamlet on right bank of Rio Santiago,"Above Pongo de Manseriche, streamlet on right bank of Rio Santiago",On rocks wet by spray,rock,250 m,N/A,870879,Typed,no type status
https://fm-digital-assets.fieldmuseum.org/2539/893/C2079353F.jpg,C2079353F,Ynes Mexia,Y. Mexia,N/A,6259a,"Dec. 12, 1931",1931-12-12,N/A,Vesicularia amphibola (Spr.) Broth.,Vesicularia amphibola (Spr.) Broth.,Bartram,N/A,N/A,Peru,Loreto,N/A,N/A,Above Pongo de Manseriche. Creek Carapisa,"Above Pongo de Manseriche, Creek Carapisa",Log in forest,log,215 m,N/A,870867,Typed,no type status
https://fm-digital-assets.fieldmuseum.org/2539/894/C2079354F.jpg,C2079354F,Ynes Mexia,Y. Mexia,N/A,6354a,"Jan. 3, 1932",1932-01-03,N/A,Vesicularia amphibola (Spr.) Broth.,Vesicularia amphibola (Spr.) Broth.,Bartram,N/A,N/A,Peru,Loreto,N/A,N/A,Above Pongo de Manseriche. Creek Inche,"Above Pongo de Manseriche, Creek Inche",On earth collected on inclined tree trunk,soil,215 m,N/A,873369,Typed,no type status
https://fm-digital-assets.fieldmuseum.org/2539/895/C2079355F.jpg,C2079355F,Ynes Mexia,Y. Mexia,N/A,6375a,"Jan. 3, 1932",1932-01-03,N/A,Vesicularia amphibola (Spr.) Broth.,Vesicularia amphibola (Spr.) Broth.,Bartram,N/A,Taxithelium planum (Brid.) Mitt.,Peru,Loreto,N/A,N/A,Above Pongo de Manseriche. Creek Inche,"Above Pongo de Manseriche, Creek Inche",On rotten log,log,215 m,N/A,1039121,Typed,no type status
https://fm-digital-assets.fieldmuseum.org/2539/896/C2079356F.jpg,C2079356F,Ynes Mexia,Y. Mexia,N/A,6375a,"Jan. 3, 1932",1932-01-03,N/A,Vesicularia amphibola (Spr.) Broth.,Vesicularia amphibola (Spr.) Broth.,Bartram,N/A,Taxithelium planum (Brid.) Mitt.,Peru,Loreto,N/A,N/A,Above Pongo de Manseriche. Creek Inche,"Above Pongo de Manseriche, Creek Inche",On rotten log,log,215 m,N/A,870880,Typed,no type status
https://fm-digital-assets.fieldmuseum.org/2539/897/C2079357F.jpg,C2079357F,Ynes Mexia,Y. Mexia,N/A,6377,"Jan. 3, 1932",1932-01-03,N/A,Vesicularia amphibola (Spr.) Broth.,Vesicularia amphibola (Spr.) Broth.,Bartram,N/A,N/A,Peru,Loreto,N/A,N/A,Above Pongo de Manseriche. Creek Inche,"Above Pongo de Manseriche, Creek Inche",On rotten log,log,215 m,N/A,870873,Typed,no type status
https://fm-digital-assets.fieldmuseum.org/2539/898/C2079358F.jpg,C2079358F,Ynes Mexia,Y. Mexia,N/A,8070,"May 14,1936",1936-05-14,N/A,Vesicularia amphibola (Spr.) Broth.,Vesicularia amphibola (Spr.) Broth.,Bartram,N/A,N/A,Peru,Cusco,La Convencion,N/A,upper valley of the Sambray; affluent of the Vilcanota,"Upper valley of Sambray River, affluent of Vilcanota River",On rotten logs in virgin forest,log,1800 m,N/A,1036318,Typed,no type status
https://fm-digital-assets.fieldmuseum.org/2539/900/C2079359F.jpg,C2079359F,Ynes Mexia,Y. Mexia,N/A,8070,"May 14,1936",1936-05-14,N/A,Vesicularia amphibola (Spr.) Broth.,Vesicularia amphibola (Spr.) Broth.,Bartram,N/A,N/A,Peru,Cusco,La Convencion,N/A,upper valley of the Sambray; affluent of the Vilcanota,"Upper valley of Sambray River, affluent of Vilcanota River",On rotten logs in virgin forest,log,1800 m,N/A,1039122,Typed,no type status
https://fm-digital-assets.fieldmuseum.org/2539/901/C2079360F.jpg,C2079360F,P. R. Reitz,P. R. Reitz,N/A,2222,20.9.1949,1949-09-20,N/A,Vesicularia vesicularis (Schwaegr.) Broth.,Vesicularia vesicularis (Schwaegr.) Broth.,E. B. Bartram,1949,N/A,Brazil,Santa Catarina,N/A,Brusque,"Azambuja, Brusque",Azambuja,"Epífito, da mata virgem",N/A,50 msm,N/A,N/A,Typed,no type status
https://fm-digital-assets.fieldmuseum.org/2539/902/C2079361F.jpg,C2079361F,F. J. Hermann,F. J. Hermann,N/A,25019,"December 19, 1972",1972-12-19,N/A,Vesicularia vesicularis (Schwaegr.) Broth.,Vesicularia vesicularis (Schwaegr.) Broth.,H.Robinson,N/A,Lejeunea sp.,Colombia,Santander,N/A,N/A,"Paraguitas, 1/4 mile NW. Florida","Paraguitas, 1/4 mile northwest of Florida",On base of tree trunk,bark,ca. 4000 ft,N/A,1039101,Mix of Handwritten and Typed,no type status
https://fm-digital-assets.fieldmuseum.org/2539/903/C2079362F.jpg,C2079362F,Richard Evans Schultes,R. E. Schultes,N/A,11107,"Dec., 1950",1950-12-00,N/A,Vesicularia vesicularis (Schwgr.) Brot,Vesicularia vesicularis (Schwgr.) Brot,Dana Griffin III,N/A,N/A,Colombia,Meta,N/A,N/A,Intendencia del Meta: alrededores de Villavicencio,Alrededores de Villavicencio,N/A,N/A,500 m,N/A,1055509,Typed,no type status
https://fm-digital-assets.fieldmuseum.org/2542/815/C2079715F.jpg,C2079715F,"J.-P. Frahm, P. Geissler, S.R. Gradstein, G. Phillippi, W. Schultze-Motel",J.-P. Frahm,P. Geissler | S. R. Gradstein | G. Phillippi | W. Schultze-Motel,875,4.9.1982,1982-09-04,N/A,Entodon jamesonii (Tayl.) Mitt.,Entodon jamesonii (Tayl.) Mitt.,W. Schultze-Motel,N/A,N/A,Peru,Amazonas,Chachapoyas,N/A,Straße Chachapoyas-Cajamarca oberhalb Leimebamba km 417,Straße Chachapoyas-Cajamarca oberhalb Leimebamba Kilometer 417,"S-exponierter Hang, hochandiner Regenwald auf Kalkstein",stone,2800 msm,N/A,1076822,Typed,no type status
https://fm-digital-assets.fieldmuseum.org/2542/817/C2079716F.jpg,C2079716F,Paul C. Hutchison J. Kenneth Wright,P. C. Hutchison,J. Kenneth Wright,4806,1 April 1964,1964-04-01,N/A,Entodon jamesoni (Tayl.) Mitt.,Entodon jamesoni (Tayl.) Mitt.,H. Robinson,1966,N/A,Peru,Amazonas,Chachapoyas,N/A,"Cerros Calla Calla, east side, 5 km. above Leimebamba on the road to Balsas, at San Miguel (no buildings at this locality)","Cerros Calla Calla, east side, 5 kilometers above Leimebamba on the road to Balsas, at San Miguel",N/A,N/A,2400 m,N/A,1012181,Typed,no type status
https://fm-digital-assets.fieldmuseum.org/2542/820/C2079717F.jpg,C2079717F,Dana Griffin III,D. Griffin III,N/A,PV-966,20 febr. 1985,1985-02-20,N/A,Entodon jamesoni (tayl.) Broth.,Entodon jamesoni (tayl.) Broth.,Dana Griffin III,N/A,N/A,Venezuela,Merida,N/A,N/A,"Páramo de Los Granates, finca de Los Granates, a lo largo del río de Los Granates","Páramo de Los Granates, finca de Los Granates, a lo largo del río de Los Granates","Páramo, a lo largo del río y en las lomas cercanas",N/A,3.000-3.100 m,N/A,1064416,Typed,no type status
https://fm-digital-assets.fieldmuseum.org/2542/822/C2079718F.jpg,C2079718F,Ynes Mexia,Y. Mexia,N/A,5687,"April 21, 1931",1931-04-21,N/A,Entodon Lindbergii Hpe.,Entodon Lindbergii Hpe.,Bartram,N/A,N/A,Brazil,Minas Gerais,N/A,Corinto,Corinto. Fazenda do Diamante. Campo Tiririca,"Fazenda do Diamante, Campo Tiririca",Base of living tree in shade,tree,590 m,N/A,870818,Typed,no type status
https://fm-digital-assets.fieldmuseum.org/2542/825/C2079719F.jpg,C2079719F,R. Spruce,R. Spruce,N/A,1023,s.d.,s.d.,N/A,Entodon longisetus . Hook.,Entodon longisetus . Hook.,W. Mitten,N/A,N/A,Ecuador,Tungurahua,N/A,Baños,Andes Quitenses . Baños.,Andes Quitenses,N/A,N/A,N/A,N/A,1078203,Mix of Handwritten and Typed,no type status
https://fm-digital-assets.fieldmuseum.org/2542/827/C2079720F.jpg,C2079720F,Marko Lewis,M. Lewis,N/A,79-590,8 February 1979,1979-02-08,N/A,Entodon cf. nano-climacium C.M. (= E. micans Herz.),Entodon micans Herz.,W. Buck,1980,N/A,Bolivia,Tarija,N/A,N/A,"Prov. Méndez/Prov. Cercado/Prov. Avilés: Canyon 5 mi. SW of Tablada, SW of Tarija","Méndez, Cercado and Avilés provinces, canyon 5 miles southwest of Tablada, southwest of Tarija",Bank of creek,N/A,2160 m,"21° 36' S, 64° 48' W",1078788,Typed,no type status
https://fm-digital-assets.fieldmuseum.org/2542/829/C2079721F.jpg,C2079721F,Marko Lewis,M. Lewis,N/A,79-1220,22 March 1979,1979-03-22,N/A,Entodon nano-climacium C.M. (= E. micans Herz.),Entodon micans Herz.,W. Buck,1980,N/A,Bolivia,La Paz,Larecaja,N/A,Near large red outcrop 2 mi. from Sorata down Río Consata,Near large red outcrop 2 miles from Sorata down Río Consata,Very shady ground along creek in humid shrubs,soil,2600 m,"15° 41' S, 68° 43' W",1078789,Typed,no type status
https://fm-digital-assets.fieldmuseum.org/2542/831/C2079722F.jpg,C2079722F,Harry Ward Foote,H. W. Foote,N/A,s.n.,Sep. 3.,1911-09-03,N/A,Entodon platygyrioides C.M.,Entodon platygyrioides C.M.,N/A,N/A,N/A,Peru,N/A,N/A,N/A,above San Miguel,Above San Miguel,On rocks,rock,6000ft,N/A,N/A,Mix of Handwritten and Typed,no type status
https://fm-digital-assets.fieldmuseum.org/2542/835/C2079723F.jpg,C2079723F,Marko Lewis,M. Lewis,N/A,79-1346,1 April 1979,1979-04-01,N/A,cf. Entodon polycarpus,Entodon polycarpus,W. Buck,1980,N/A,Bolivia,La Paz,Larecaja,N/A,Between Abra Huallata and waterfall at Millipaya,Between Abra Huallata and waterfall at Millipaya,"Waterfall ravine, highest extension of shrubs",N/A,3780 m,"15° 51' S, 68° 39' W",1078787,Typed,no type status
https://fm-digital-assets.fieldmuseum.org/2542/837/C2079595F.jpg,C2079595F,H. Roivainen,H. Roivainen,N/A,2095,25.1.1970,1970-01-25,N/A,Isopterygium pulchellum (Hedw.) Jaeg.,Isopterygium pulchellum (Hedw.) Jaeg.,R. Ochyra,1996,N/A,Argentina,Tierra del Fuego,Ushuaia,Ushuaia,"Tierra del Fuego australis, Ushuaia, Arroyo Grande","Tierra del Fuego australis, Arroyo Grande","En fisuras de roca y en raizes humoso-arcillosos de Nothofagus pumilio, en orilla de la cascada",rocks and roots,150 m s.m.,"54°47'S,68°17'W",1182417,Typed,no type status
https://fm-digital-assets.fieldmuseum.org/2542/839/C2079596F.jpg,C2079596F,H. Roivainen,H. Roivainen,N/A,1352,24.12.1969,1969-12-24,N/A,Isopterygium pulchellum (Brid.) Jaeg.,Isopterygium pulchellum (Brid.) Jaeg.,R. Ochyra,1996,N/A,Argentina,Tierra del Fuego,Ushuaia,Ushuaia,"Tierra de Fuego australis, Ushuaia, Valle del Río Pipo","Tierra del Fuego australis, Valle del Río Pipo",Suelo humoso húmedo en el pendiente del río,soil,300 m s.m.,"54°46'S,68°20'W",1182415,Typed,no type status
https://fm-digital-assets.fieldmuseum.org/2542/842/C2079597F.jpg,C2079597F,E. P. Killip & A. C. Smith,E. P. Killip,A. C. Smith,14871,"November 29, 1926",1926-11-29,N/A,Isopterygium stigmocarpum (C.M.) Par.,Isopterygium tenerum (Sw.) Mitt.,R.R. Ireland,1988,N/A,Colombia,Santander,N/A,N/A,between Puerto Wilches and Puerto Santos,Between Puerto Wilches and Puerto Santos,N/A,N/A,110-115 m,N/A,1040009,Typed,no type status
https://fm-digital-assets.fieldmuseum.org/2542/844/C2079598F.jpg,C2079598F,Richard Evans Schultes,R. E. Schultes,N/A,11110,"Dec., 1950",1950-12-00,N/A,Isopterygium tenerum (Sw.) Mitt.,Isopterygium tenerum (Sw.) Mitt.,R.R. Ireland,1988,N/A,Colombia,Meta,N/A,N/A,Intendencia del Meta: alrededores de Villavicencio,Alrededores de Villavicencio,N/A,N/A,500 m,N/A,1055473,Typed,no type status
https://fm-digital-assets.fieldmuseum.org/2542/846/C2079599F.jpg,C2079599F,D.C.Geijskes,D. C. Geijskes,N/A,s.n.,29 - 9 - 1952,1952-09-29,N/A,Isopterygium tenerum(Sw.)Mitt.,Isopterygium tenerum(Sw.)Mitt.,H.R. Zielman,N/A,N/A,Suriname,N/A,N/A,N/A,Marowijne River; Armina falls,"Marowijne River, Armina Falls","Rainforest. On roots and rocks on bank of river, shade",roots and rocks,N/A,N/A,1073518,Typed,no type status
https://fm-digital-assets.fieldmuseum.org/2542/848/C2079600F.jpg,C2079600F,Ynes Mexia,Y. Mexia,N/A,4841,"July 6, 1930",1930-07-06,N/A,Isopterygium bracyneuron (C.M.)Mitt. ex P.,Isopterygium tenerum (Sw.) Mitt.,R.R. Ireland,1988,N/A,Brazil,Minas Gerais,N/A,Viçosa,Viçosa. Agricultural College lands. Horticultural Hill,"Agricultural College lands, Horticultural Hill",Cut over woods near base. On rotting log,log,670 m,N/A,1039979,Typed,no type status
https://fm-digital-assets.fieldmuseum.org/2542/851/C2079601F.jpg,C2079601F,Ynes Mexia,Y. Mexia,N/A,4888,"July 21, 1930",1930-07-21,N/A,Isopterygium laxum (Hpe.) Broth.,Isopterygium tenerum (Sw.) Mitt.,R.R. Ireland,1988,N/A,Brazil,Minas Gerais,N/A,Viçosa,Viçosa. Agricultural College lands. Corrriga Riberró,"Agricultural College lands, córrego Ribeiro",Shady stream bank. On rotten wood,log,675 m,N/A,873365,Typed,no type status
https://fm-digital-assets.fieldmuseum.org/2542/853/C2079602F.jpg,C2079602F,Ynes Mexia,Y. Mexia,N/A,5386,"Dec. 6, 1930",1930-12-06,N/A,Isopterygium brachyneuron (C.M. ) Mitt.,Isopterygium tenerum (Sw.) Mitt.,R.R. Ireland,1988,N/A,Brazil,Minas Gerais,N/A,Viçosa,Viçosa. Road to São Miguel. About km. 41/2,"Road to São Miguel, ca. Km 4.5",Dense forest. On rotten log,log,710 m,N/A,870841,Typed,no type status
https://fm-digital-assets.fieldmuseum.org/2542/855/C2079603F.jpg,C2079603F,Ynes Mexia,Y. Mexia,N/A,5441,"Dec. 23, 1930",1930-12-23,N/A,Isopterygium laxum (Hpe.) Broth.,Isopterygium tenerum (Sw.) Mitt.,R.R. Ireland,1988,N/A,Brazil,Minas Gerais,N/A,Viçosa,Viçosa. Agricultural College lands. Base of Horticultural Hill,"Agricultural College lands, base of Horticultural Hill","On rotting log, in woods",log,670 m,N/A,870823,Typed,no type status
https://fm-digital-assets.fieldmuseum.org/2542/857/C2079604F.jpg,C2079604F,"H. S. Irwin, R. M. Harley, G. L. Smith",H. S. Irwin,R. M. Harley | G. L. Smith,31332,2 March 1971,1971-03-02,N/A,Isopterygium tenerum (Sw.) Mitt.,Isopterygium tenerum (Sw.) Mitt.,R.R. Ireland,1988,N/A,Brazil,Bahia,N/A,N/A,"Valley of the Rio das Ondas, ca. 10km W. of Barreiras","Valley of the Rio das Ondas, ca. 10 kilometers west of Barreiras","On the bark and exposed roots of Coccoloba sp., and on adjacent soil, at river bank. Cut-over gallery forest and adjacent cerrado",bark,ca. 500m,N/A,1059328,Typed,no type status
https://fm-digital-assets.fieldmuseum.org/2542/863/C2079606F.jpg,C2079606F,Ynes Mexia,Y. Mexia,N/A,4884,"July 21, 1930",1930-07-21,N/A,Isopterygium curvicollum (C.M. ) Mitt.,Isopterygium tenerum (Sw.) Mitt.,R.R. Ireland,1988,N/A,Brazil,Minas Gerais,N/A,Viçosa,Viçosa. Agricultural College lands. Corrrigo Riberro,"Agricultural College lands, córrego Ribeiro","Shady stream bank, on rotten log",log,675 m,N/A,870845,Typed,no type status
https://fm-digital-assets.fieldmuseum.org/2542/865/C2079607F.jpg,C2079607F,Ynes Mexia,Y. Mexia,N/A,4698,"May 14, 1930",1930-05-14,N/A,Isopterygium curvicollum (C.M. ) Mitt. ex P.,Isopterygium tenerum (Sw.) Mitt.,R.R. Ireland,1988,N/A,Brazil,Minas Gerais,N/A,Viçosa,Viçosa. Fazenda de Cresiuma,Fazenda de Criciúma,Wood on slope. On rotten log,log,700 m,N/A,870839,Typed,no type status
https://fm-digital-assets.fieldmuseum.org/2542/868/C2079608F.jpg,C2079608F,Ynes Mexia,Y. Mexia,N/A,4884,"July 21, 1930",1930-07-21,N/A,Isopterygium curvicollum (C.M. ) Mitt.,Isopterygium tenerum (Sw.) Mitt.,R.R. Ireland,1988,N/A,Brazil,Minas Gerais,N/A,Viçosa,Viçosa. Agricultural College lands. Corrrigo Riberro,"Agricultural College lands, córrego Ribeiro","Shady stream bank, on rotten log",log,675 m,N/A,1039977,Typed,no type status
https://fm-digital-assets.fieldmuseum.org/2542/870/C2079609F.jpg,C2079609F,Ynes Mexia,Y. Mexia,N/A,4545,"March 31, 1930",1930-03-31,N/A,Isopterygium curvicollum (C.M. ) Mitt.,Isopterygium tenerum (Sw.) Mitt.,R.R. Ireland,1988,N/A,Brazil,Mians Gerais,N/A,Viçosa,"Viçosa. Road to São Miguel. Near stream ""Turba.""","Road to São Miguel, near stream Turba",Cut over woods on slope. On rotting tree trunk,bark,710 m,N/A,1039978,Typed,no type status
https://fm-digital-assets.fieldmuseum.org/2542/875/C2079611F.jpg,C2079611F,V. Schiffner,V. Schiffner,N/A,s.n.,m. Jul. fr.,N/A,N/A,Isopterygium aurantiacum (C. M.) Broth.,Isopterygium tenerum (Sw.) Mitt.,R.R. Ireland,1988,N/A,Brazil,São Paulo,N/A,São Paulo,Prope urbem Cerqueria-Cesar,Cerqueira Cesar,In palude,N/A,c. 500 m.s.m,N/A,1012776,Typed,no type status
https://fm-digital-assets.fieldmuseum.org/2542/877/C2079856F.jpg,C2079856F,Ynes Mexia,Y. Mexia,N/A,4841,"July 6, 1930",1930-07-06,N/A,Isopterygium brachyneuron (C.M.) Mitt. ex P.,Isopterygium tenerum (Sw.) Mitt.,R.R. Ireland,1988,N/A,Brazil,Minas Gerais,N/A,Viçosa,Viçosa. Agricultural College lands. Horticultural Hill,"Agricultural College lands, Horticultural Hill",Cut over woods near base. On rotting log,log,670 m,N/A,870837,Typed,no type status
https://fm-digital-assets.fieldmuseum.org/2542/879/C2079858F.jpg,C2079858F,R. S. Williams,R. S. Williams,N/A,2095,"Nov.29, 1901",1901-11-29,N/A,Isopterygium tenerum (Sw.) Mitt.,Isopterygium tenerum (Sw.) Mitt.,R.R. Ireland,1988,N/A,Bolivia,La Paz,N/A,San Buenaventura,San Buena Ventura,[precise locality unknown],On bark,bark,1900 meters,N/A,1039993,Mix of Handwritten and Typed,no type status
https://fm-digital-assets.fieldmuseum.org/2542/881/C2079859F.jpg,C2079859F,R. S. Williams,R. S. Williams,N/A,2059,23 Jan. 1902,1902-01-23,N/A,Isopterygium tenerum (Sw.) Mitt.,Isopterygium tenerum (Sw.) Mitt.,R.R. Ireland,1988,N/A,Bolivia,La Paz,N/A,N/A,Tumupasa,Tumupasa,N/A,N/A,N/A,N/A,1017412,Mix of Handwritten and Typed,no type status
https://fm-digital-assets.fieldmuseum.org/2550/919/C2010970F.jpg,C2010970F,Hagen,Hagen,N/A,s.n.,27/7 1907,1907-07-27,N/A,Pogonatum urnigerum (L.) var. ad humile (Wahlenb.),Pogonatum urnigerum (L.) var. ad humile (Wahlenb.),N/A,N/A,N/A,Norway,Trøndelag,N/A,Oppdal,"Søndre Trondlijenis, Opdal, Varstigen","Søndre Trondlijenis, Varstigen",N/A,N/A,mtr. 900,N/A,N/A,Mix of Handwritten and Typed,no type status
https://fm-digital-assets.fieldmuseum.org/2550/921/C2010972F.jpg,C2010972F,G. E. Hunt,G. E. Hunt,N/A,s.n.,s.d.,s.d.,N/A,Pogonatum urnigerum Brid,Pogonatum urnigerum Brid,N/A,N/A,N/A,England,N/A,N/A,N/A,N/A,[precise locality unknown],N/A,N/A,N/A,N/A,N/A,Handwritten,no type status
https://fm-digital-assets.fieldmuseum.org/2550/925/C2000534F.jpg,C2000534F,Fitzgerald,Fitzgerald,N/A,s.n.,1878,1878-00-00,N/A,Pogonatum urnigerum,Pogonatum urnigerum (Hedw.) P. Beauv.,N/A,N/A,N/A,France,Occitanie,N/A,N/A,Pyrenées: Gorge de Jeret,"Pyrenées, Gorge de Jeret",N/A,N/A,N/A,N/A,N/A,Mix of Handwritten and Typed,no type status
https://fm-digital-assets.fieldmuseum.org/2550/927/C2000536F.jpg,C2000536F,Wm. Mitten,W. Mitten,N/A,s.n.,Mch 1847,1847-03-00,N/A,Pogonatum urnigerum,Pogonatum urnigerum,N/A,N/A,N/A,England,Sussex,N/A,N/A,Stanley Hill Near Blackdown,Stanley Hill near Blackdown,N/A,N/A,N/A,N/A,N/A,Mix of Handwritten and Typed,no type status
https://fm-digital-assets.fieldmuseum.org/2550/929/C2000538F.jpg,C2000538F,Holme,Holme,N/A,s.n.,1887,1887-00-00,N/A,Pogonat. urnigerum,Pogonatum urnigerum,N/A,N/A,N/A,England,Devon,N/A,Plymouth,Plymouth Devon,[precise locality unknown],N/A,N/A,N/A,N/A,N/A,Mix of Handwritten and Typed,no type status
https://fm-digital-assets.fieldmuseum.org/2550/933/C2000542F.jpg,C2000542F,Jeanpert,Jeanpert,N/A,s.n.,29/4/94,1894-04-29,N/A,Pogonatum urnigerum P.B.,Pogonatum urnigerum P.B.,N/A,N/A,N/A,France,Hauts-de France,N/A,N/A,"Villers Cotterets route de Soissons,carriere de Sable","Villers-Cotterêts, route de Soissons, carrière de Sable",N/A,N/A,N/A,N/A,N/A,Mix of Handwritten and Typed,no type status
https://fm-digital-assets.fieldmuseum.org/2550/935/C2000932F.jpg,C2000932F,C. Müller,C. Müller,N/A,s.n.,9. Sept. 1905,1905-09-09,N/A,Pogonatum urnigerum (L.) Pal. Beauv. c. fr.,Pogonatum urnigerum (L.) Pal. Beauv. c. fr.,N/A,N/A,N/A,Germany,Baden-Wurttemberg,N/A,N/A,Zwischen Rinken und Seebrück am Feldberge,Zwischen Rinken und Seebrück am Feldberge,Auf Erde in Felsritzen,rock,etwa 1250 m s. m.,N/A,N/A,Typed,no type status
https://fm-digital-assets.fieldmuseum.org/2550/937/C2000934F.jpg,C2000934F,Zd.Pilous,Z. Pilous,N/A,s.n.,V.1946,1946-05-00,N/A,Pogonatum urnigerum PB.,Pogonatum urnigerum PB.,N/A,N/A,N/A,Czech Republic,Liberec,N/A,N/A,Bohemia.Montes Krkonoše prope pagum Hoření Vrchlabí,"Montes Krkonoše, prope pagum Hoření Vrchlabí",In declivis graminosis silvaticis,N/A,ca. 580 m,N/A,N/A,Typed,no type status
https://fm-digital-assets.fieldmuseum.org/2550/939/C2000936F.jpg,C2000936F,James Thompson,J. Thompson,N/A,s.n.,Nov 1842,1842-11-00,N/A,Polytrichum urnigerum,Pogonatum urnigerum,N/A,N/A,N/A,Scotland,N/A,N/A,N/A,N/A,[precise locality unknown],N/A,N/A,N/A,N/A,N/A,Mix of Handwritten and Typed,no type status
https://fm-digital-assets.fieldmuseum.org/2550/941/C2000938F.jpg,C2000938F,Philippe,Philippe,N/A,s.n.,s.d.,s.d.,N/A,Pogonatum urnigerum,Pogonatum urnigerum,N/A,N/A,N/A,France,Occitania,N/A,N/A,Peña de Lheris,Peña de Lheris,N/A,N/A,N/A,N/A,N/A,Mix of Handwritten and Typed,no type status
https://fm-digital-assets.fieldmuseum.org/2550/943/C2000940F.jpg,C2000940F,Garriques,Garriques,N/A,s.n.,1848,1848-00-00,N/A,"Pogonatum urnigerum, Beauv.","Pogonatum urnigerum, Beauv.",N/A,N/A,N/A,Germany,N/A,N/A,N/A,N/A,[precise locality unknown],N/A,N/A,N/A,N/A,N/A,Mix of Handwritten and Typed,no type status
https://fm-digital-assets.fieldmuseum.org/2550/946/C2000943F.jpg,C2000943F,C. Jensen,C. Jensen,N/A,s.n.,25/1o 19o1,1901-10-25,N/A,Pogonatum urnigerum (Hedw.) PB.,Pogonatum urnigerum (Hedw.) PB.,C. Jensen,N/A,N/A,Denmark,Zealand,N/A,N/A,Magistratskoven by Hvalsø,Magistratskoven by Hvalsø,In a gravel-pit,rock,N/A,N/A,N/A,Typed,no type status
https://fm-digital-assets.fieldmuseum.org/2550/948/C2000945F.jpg,C2000945F,Jeanpert,Jeanpert,N/A,s.n.,15 Octobre 1893,1893-10-15,N/A,Pogonatum urnigerum P.B.,Pogonatum urnigerum P.B.,N/A,N/A,N/A,France,Hauts-de-France,N/A,N/A,"Villers Cotterets, routede Soissons, carriere de Sable près la route du faeta","Villers-Cotterêts, route de Soissons, carrière de Sable près la route du Faeta",Forêt,N/A,N/A,N/A,N/A,Handwritten,no type status
https://fm-digital-assets.fieldmuseum.org/2550/950/C2000947F.jpg,C2000947F,Restein,Restein,N/A,s.n.,1896,1896-00-00,N/A,Pogonatum urnigerum P.B.,Pogonatum urnigerum P.B.,N/A,N/A,N/A,France,Normandy,N/A,N/A,Sourdeval (Manche),"Manche, Sourdeval",N/A,N/A,N/A,N/A,N/A,Handwritten,no type status
https://fm-digital-assets.fieldmuseum.org/2550/952/C2000949F.jpg,C2000949F,Bridel,Bridel,N/A,s.n.,s.d.,s.d.,N/A,Pogonatum urnigerum,Pogonatum urnigerum,N/A,N/A,N/A,Scotland,N/A,N/A,N/A,N/A,[precise locality unknown],N/A,N/A,N/A,N/A,N/A,Handwritten,no type status
https://fm-digital-assets.fieldmuseum.org/2550/954/C2010614F.jpg,C2010614F,M. Onraedt,M. Onraedt,N/A,76.L.8693,18.07.1976,1976-07-18,N/A,"Pogonatum urnigerum P. Beauv., Schimp.","Pogonatum urnigerum P. Beauv., Schimp.",M. Onraedt,N/A,N/A,Switzerland,Valais,N/A,N/A,"Val d'Herens, á La Forclase","Val d'Herens, a La Forclase",Sur talus ensoleilli,N/A,ca.1750 m,N/A,N/A,Handwritten,no type status
https://fm-digital-assets.fieldmuseum.org/2550/956/C2010616F.jpg,C2010616F,M. Onraedt,M. Onraedt,N/A,76.S.1580,27/07/1976,1976-07-27,N/A,Pogonatum urnigerum(P.Beauv.)Schimp,Pogonatum urnigerum(P.Beauv.)Schimp,FMO,N/A,N/A,Switzerland,Valais,N/A,N/A,"Val d'Herens, entre St. Martin et Mase","Val d'Herens, entre Saint Martin et Mase",Talus forestier,N/A,1600 m,N/A,N/A,Mix of Handwritten and Typed,no type status
https://fm-digital-assets.fieldmuseum.org/2550/958/C2010618F.jpg,C2010618F,Barnes,Barnes,N/A,s.n.,Feb. 1868,1868-02-00,N/A,Pogonatum urnigerum,Pogonatum urnigerum,N/A,N/A,N/A,England,Westmoreland,N/A,N/A,Westmoreland,[precise locality unknown],N/A,N/A,N/A,N/A,N/A,Mix of Handwritten and Typed,no type status
https://fm-digital-assets.fieldmuseum.org/2550/960/C2010620F.jpg,C2010620F,Jack,Jack,N/A,s.n.,25. August 1850,1850-08-25,N/A,Pogonatum urnigerum (L.) Pal. Beauv.,Pogonatum urnigerum (L.) Pal. Beauv.,N/A,N/A,N/A,Germany,Baden-Württemberg,N/A,N/A,An Waldgräben bei Salem,Bei Salem,An Waldgräben,N/A,N/A,N/A,N/A,Typed,no type status
https://fm-digital-assets.fieldmuseum.org/2550/962/C2010622F.jpg,C2010622F,Dr. Hepp,Hepp,N/A,s.n.,17. October 1862,1862-10-17,N/A,Pogonatum urnigerum (L.) Pal. Beauv.,Pogonatum urnigerum (L.) Pal. Beauv.,N/A,N/A,N/A,Germany,Baden-Württemberg,N/A,N/A,An einem Waldrande auf dem rothen Sandsteinbruche Oberlab Degerfelden,Auf dem rothen Sandsteinbruche Oberlab Degerfelden,An einem Waldrande,N/A,N/A,N/A,N/A,Typed,no type status
https://fm-digital-assets.fieldmuseum.org/2550/964/C2010624F.jpg,C2010624F,Schenk,Schenk,N/A,s.n.,September 1862,1862-09-00,N/A,Pogonatum urnigerum (L.) Pal. Beauv.,Pogonatum urnigerum (L.) Pal. Beauv.,N/A,N/A,N/A,Switzerland,Schaffhausen,N/A,N/A,Bei Schaffhausen,Bei Schaffhausen,In Hohlwegen,N/A,N/A,N/A,N/A,Typed,no type status
https://fm-digital-assets.fieldmuseum.org/2550/966/C2010626F.jpg,C2010626F,C. Jensen,C. Jensen,N/A,s.n.,"November 21, 1904",1904-11-21,N/A,Pogonatum urnigerum (Hedw.) PB. c. fr.,Pogonatum urnigerum (Hedw.) PB. c. fr.,C. Jensen,N/A,N/A,Denmark,Zealand,N/A,N/A,Magistratskoven south of Hvalsö,"Magistratskoven, south of Hvalsö",Sandy soil,soil,N/A,N/A,N/A,Typed,no type status
https://fm-digital-assets.fieldmuseum.org/2550/968/C2010974F.jpg,C2010974F,P. Allorge,P. Allorge,N/A,s.n.,22. VIII. 1927,1927-08-22,N/A,Pogonatum urnigerum,Pogonatum urnigerum,N/A,N/A,"Blasia pussila L., Peilia epiphylla (L.) Lindb., Alicularia scalaris (Schr.) Corda, Dichodontium pellucidum (L. pp.) Schimp. Rhyttidiadelphus loreus (Dill., L.) Warnst.",Spain,Navarra,N/A,N/A,Puerto de Ibañeta (Navarra),Puerto de Ibañeta,Talus argileux (schistes),talus,ca. 1.050 m,N/A,N/A,Typed,no type status
https://fm-digital-assets.fieldmuseum.org/2550/970/C2010976F.jpg,C2010976F,Zd.Pilous,Z. Pilous,N/A,s.n.,VII.1949,1949-07-00,N/A,Pogonatum urnigerum Pal. var.humile Brid.,Pogonatum urnigerum Pal. var.humile Brid.,N/A,N/A,N/A,Slovakia,N/A,N/A,N/A,Montes Nízké Tatry:In terra montis Dumbier,"Montes Nízké Tatry, in terra montis Dumbier",N/A,N/A,ca 1840 m,N/A,N/A,Typed,no type status
https://fm-digital-assets.fieldmuseum.org/2550/990/C1042257F.jpg,C1042257F,S. Churchill et al.,S. Churchill,N/A,22853,12 May 2004,2004-05-12,N/A,Neckera scabridens C. Müller,Neckera scabridens C. Müller,S. Churchill,Jun 2004,N. chilensis,Bolivia,Chuquisaca,N/A,Belisario Boeto,"Belisario Boeto, Monte Grande, ca. 32 km de Villa Serrano","Monte Grande, ca. 32 kilometros de Villa Serrano","Bosque montano de yungas con Prumnopitys exigua, Podocarpus, Mycianthes",twigs,2740 m,"18°43'43""S 64°29'07""W",1183467,Typed,no type status
https://zenodo.org/record/1486506/files/K000931304.jpg,K000931304,E. Cordula; Y Melo & K.Pinheiro,E. Cordula,Y  Melo | K. Pinheiro,309,23/VI/2007,2007-06-23,N/A,Leguminosae - Papilionoideae,Ancistrotropis peduncularis (Fawcett & Rendle) A. Delgado,G. P. Lewis,12.2012,N/A,Brazil,Pernambuco,N/A,Mirandiba,Serra das Umburanas,Serra das Umburanas,"Caatinga arbórea-arbustiva densa, solo derivado de embasamento cristalino",rocks,457 m,Lat.: 8°12' S Long.: 38°32',N/A,Mix of Handwritten and Typed,no type status
https://zenodo.org/record/1485174/files/EIG.6763.jpg,EIG.6763,Ilkka Kukkonen,I. Kukkonen,N/A,11003,13. Sept. 1981,1981-09-13,N/A,Arthropteris tenella (Forst. F.) J.Sm.,Arthropteris tenella (Forst. F.) J.Sm.,J. Sarvela,1982,N/A,Australia,Queensland,N/A,N/A,"Atherton Tableland, Lamin's Hill, E. of Malanda","Atherton Tableland, Lamin's Hill, east of Malanda",Patch of rain forest,N/A,N/A,N/A,1459190,Mix of Handwritten and Typed,no type status
https://zenodo.org/record/1486594/files/K001046329.jpg,K001046329,G.Pabst,G. Pabst,N/A,5421,7.9.60,1960-09-07,N/A,Avicennia tomentosa,Avicennia tomentosa,A.P.Duarte,23.9.60,N/A,Brazil,Rio de Janeiro,N/A,N/A,"Guanabara, próximo ao Jóquei Club da Ilha do Governador","Guanabara, próximo ao Jóquei Clube, Ilha do Governador",Mangue,N/A,N/A,N/A,N/A,Typed,no type status
https://zenodo.org/record/1486540/files/K000964719.jpg,K000964719,W. Hoehne,W. Hoehne,N/A,s.n.,13/9/33,1933-09-13,N/A,Cestrum corymbosum Schlecht.,Cestrum corymbosum Schlecht.,M.Kuhlmann,N/A,N/A,Brazil,São Paulo,N/A,São Paulo,Cantareiras. São Paulo,Cantareiras São Paulo,N/A,N/A,N/A,N/A,10228,Typed,no type status
https://zenodo.org/record/1485130/files/EIG.5460.jpg,EIG.5460,H. Eggert,H. Eggert,N/A,s.n.,17 May '78,1878-05-17,N/A,Cystopteris bulbifera (L) Bernh,Cystopteris bulbifera (L) Bernh,N/A,N/A,N/A,United States,Illinois,N/A,N/A,Bluffs in Illinois,[precise locality unknown],Bluffs,N/A,N/A,N/A,H1126455,Mix of Handwritten and Typed,no type status
https://zenodo.org/record/1485102/files/EIG.435.jpg,EIG.435,Ilkka Kukkonen,I. Kukkonen,N/A,12608,08.XI.1982,1982-11-08,N/A,Dryopteris inaequalis (Schlechtend.) O. Kuntze,Dryopteris inaequalis (Schlechtend.) O. Kuntze,J. Sarvela,1983,N/A,Ethiopia,Bale,N/A,N/A,Saneti plateau and Mount Batu. On the way to Saneti plateau from Robe,"Saneti plateau and Mount Batu, on the way to Saneti plateau from Robe","In alpine belt dominated by Festuca schefflerii, Euryops prostrata, Anthemis tigrensis. Steep forested slope of a river canyon, e.g. Juniperus procera. Pastured slope",N/A,ca. 3400 m,06°55'N; 39°40'E,H1489739,Mix of Handwritten and Typed,no type status
https://zenodo.org/record/1484126/files/E00570050.jpg,E00570050,"Vallejo-Marin, M., Lye, G., Barragán, D., Vallejo, M.A., Marin, C., Vallejo, I.",M. Vallejo-Marin,G. Lye | D. Barragán | M. A. Vallejo | C. Marin | I. Vallejo,11-LED-seed,27 August 2011,2011-08-27,N/A,Mimulus peregrinus sp. nov.,Mimulus peregrinus Vall.-Marin,N/A,N/A,N/A,Scotland,South Lanarkshire,N/A,N/A,"British Isles, v.c. 77, Shortcleuch Water, Leadhills","British Isles, v.c. 77, Shortcleuch Water, Leadhills",Occuring on the banks of a stream on substrate of sand and shingle,rock,360 m,"OS Grid reference: NS 9029 1578. WGS84 coordinates: N 55.4237°, W 3.7349°",N/A,Typed,Holotype
https://zenodo.org/record/1485964/files/K000773283.jpg,K000773283,B. T. Lowne,B. T. Lowne,N/A,1053,Aug. 9th 1902,1902-08-09,N/A,Monotropa hypopithys,Monotropa hypopithys,N/A,N/A,N/A,England,Surrey,N/A,N/A,Reigate Hill,Reigate Hill,N/A,N/A,N/A,N/A,N/A,Mix of Handwritten and Typed,no type status
https://zenodo.org/record/1480969/files/BR0000006918378.jpg,BR0000006918378,Bart Van de Vijver,B. Van de Vijver,N/A,s.n.,25/04/2007,2007-04-25,N/A,Ophrys oestrifera subsp. garganensis Van de Vijver & W. Van Looken,Ophrys oestrifera subsp. montis-gargani,N/A,N/A,N/A,Italy,N/A,N/A,N/A,"Promontorio del Gargano, Madonna di Loreto. Behind the Chapel of Madonna di Loreto","Promontorio del Gargano, Madonna di Loreto, behind the Chapel of Madonna di Loreto",Macchia-shrub with Cistus and Pinus,N/A,N/A,N/A,N/A,Mix of Handwritten and Typed,no type status
https://zenodo.org/record/1486710/files/K001207911.jpg,K001207911,"G. Hatschbach, O. Guimaraes",G. Hatschbach,O. Guimaraes,20590,9/XII/968,1968-12-09,N/A,Pfaffia glabratoides Ssgth.,Pfaffia glabratoides Ssgth.,T.M.Pedersen,971,N/A,Brazil,Paraná,N/A,Laranjeiras do Sul,"Rio Iguaçu,prox.a barra do Perdido(mun. Laranjeiras do Sul)Paraná","Rio Iguaçu, próximo a barra do Perdido","Terreno arenoso, margens de rio",soil,N/A,N/A,N/A,Typed,no type status
https://zenodo.org/record/1485807/files/K000263710.jpg,K000263710,"J. J. de Wilde,Sosef & van Nek",J. J. de Wilde,Sosef| van Nek,10130,22-1-1991,1991-01-22,N/A,Rhynchosia gabonensis Jongkind,Rhynchosia gabonensis Jongkind,N/A,N/A,N/A,Gabon,N/A,N/A,N/A,About 10 km. on the road from Tchimbélé to Assok,About 10 kilometers on the road from Tchimbélé to Assok,In tree in roadside,tree,± 580 m,"0 04 N., 10 23 E.",N/A,Typed,Isotype
https://zenodo.org/record/1480461/files/BM000934757.jpg,BM000934757,Wilhelm Suksdorf,W. Suksdorf,N/A,12045,3. Aug. 1926,1926-08-03,N/A,Solanum triflorum Nutt.,Solanum triflorum Nutt.,T. Särkinen,2014,N/A,United States,Washington,Klickitat,Bingen,Bingen,[precise locality unknown],High sandy river bank,soil,N/A,N/A,N/A,Typed,no type status
https://zenodo.org/record/1485887/files/K000536956.jpg,K000536956,J. Francis Macbride,J. F. Macbride,N/A,5734,"Aug. 27-Sept. 1, 1923",1923-08-27,1923-09-01,Tococa undabunda Macbr.,Tococa undabunda J. F. Macbr.,F. A. Michelangeli,2008,N/A,Peru,N/A,N/A,N/A,"La Merced, Hacienda Schunke Peru","La Merced, Hacienda Schunke",Montaña slope,N/A,about 4000 feet,N/A,N/A,Mix of Handwritten and Typed,Isotype
https://zenodo.org/record/1479535/files/B%2010%200375227.jpg,B 10 0375227,"X. Cornejo, C. Bonifaz",X. Cornejo,C. Bonifaz,5822,"Oct. 27, 1997",1997-10-27,N/A,Capparis sclerophylla Iltis nov.sp.,Capparis sclerophylla Iltis nov.sp.,N/A,N/A,N/A,Ecuador,Manabí,N/A,Bahía de Caráquez,Bahía de Caráquez a 8 Km.Alrededores de Universidad Católica,8 kilometros alrededores de Universidad Católica,"Bosque seco tropical deciduo, fuertemente intervenido",N/A,30 m,"latitud -00, longitud 45 -80.32",N/A,Typed,Isotype
https://zenodo.org/record/1479341/files/B%2010%200185601.jpg,B 10 0185601,M. l'Abbé Delavay,M. l'Abbé Delavay,N/A,s.n.,2 April 1887,1887-04-02,N/A,Gentiana albescens Franch.,Gentiana albescens Franch.,N/A,N/A,N/A,China,Yunnan,N/A,N/A,Prope Mo-so-yn,Prope Mo-so-yn,In collibus,N/A,N/A,N/A,N/A,Mix of Handwritten and Typed,no type status
https://zenodo.org/record/1479171/files/B%2010%200030508.jpg,B 10 0030508,Winfried Meier y Silvia Llamozas,W. Meier,S. Llamozas,3685,16-19 de abril 1993,1993-04-16,1993-04-19,Malmea diclina vel aff.,Klarobelia subglobosa,Chatrou,N/A,N/A,Venezuela,Miranda,N/A,N/A,"Parque Nacional ""El Avila"", Distrito Federal: Cordillera de la Costa: excursión Guatire-Caruao: ruta: Fila Juan Torres-Río Brazo Grande-Fila Maestra-Río Caruao-población San Jorge de Caruao, Fila Jabillar","Parque Nacional El Avila, Cordillera de la Costa, excursión Guatire-Carauao, ruta a Fila Juan Torres-Río Brazo Grande-Fila Maestra-Río Caruao-San Jorge de Caruao, Fila Jabillar",En selva,N/A,500 msnm,"lat.: 10° 34'N, long.: 66° 23'O",N/A,Mix of Handwritten and Typed,Isotype
https://zenodo.org/record/1479203/files/B%2010%200069251.jpg,B 10 0069251,Kessler,Kessler,N/A,283,21.12.1988,1988-12-21,N/A,Mallotus paniculatus,Mallotus paniculatus,P. J. A. Kessler,N/A,N/A,Malaysia,Sarawak,N/A,N/A,"1st Division, Base of Gunung Pueh","First Division, base of Gunung Pueh",Secondary vegetation along road,N/A,up to 200 m.,N/A,N/A,Typed,no type status
https://zenodo.org/record/1479479/files/B%2010%200279821.jpg,B 10 0279821,M. Jacobs,M. Jacobs,N/A,5005,Aug. 1 1958,1958-08-01,N/A,Piptospatha,Piptospatha grabowskii (Engl.) Engl.,N/A,N/A,N/A,Malaysia,Sarawak,N/A,N/A,"1st div., N.slopes of Mount Penrissen (S. of Kuching)","First Division, northern slopes of Mount Penrissen (south of Kuching)",Primary forest on sandstone substratum,stone,c. 700-900 m,"1°5' N., 110°15' E.",N/A,Mix of Handwritten and Typed,no type status
https://zenodo.org/record/1479168/files/B%2010%200030420.jpg,B 10 0030420,"P.J.M. & H. Maas, L. Kollmann",P. J. M. Maas,H. Maas | L. Kollmann,8833,2/16/99,1999-02-16,N/A,Pseodoxandra sp. nov.,Pseudoxandra spiritus-sancti Maas,P. J. M. Maas,2001,N/A,Brazil,Espírito Santo,N/A,Santa Teresa,"Municipio de Santa Teresa, Estaçao Biológica de Santa Lúcia",Estaçao Biológica de Santa Lúcia,"High forest, on brown sand; vegetation with many Palmae and terrestrial and epiphytic Bromeliaceae",soil,800 m,19° 58'S 40° 32'W,N/A,Typed,Isotype
https://zenodo.org/record/1479553/files/B%2010%200385068.jpg,B 10 0385068,"R. Berazaín, J. Bisse, M. A. Díaz, H. Dietrich, L. González Géigel, J. Gutiérrez, E. Köhler, L. Lepper, U. Rändel, H. Schaarschmidt",R. Berazaín,J. Bisse | M. A. Díaz | H. Dietrich | L. González Géigel | J. Gutiérrez | E. Köhler | L. Lepper | U. Rändel | H. Schaarschmidt,HFC39098,09-II-1979,1979-02-09,N/A,N/A,Sterandrium pallidum H. Dietr.,H. Manitz,2007,N/A,Cuba,Guantánamo,N/A,San Antonio del Sur,Mun. San Antonio del Sur: Abra de Mariana,Abra de Mariana,Loma al oeste del barranco,N/A,N/A,"Coordenadas de l acuadrícula (Cuba 1:250000): 16/71 [""15/70""]",N/A,Mix of Handwritten and Typed,Isotype