accessURI,catalogNumber,verbatimCollectors,collectedBy,secondaryCollectors,recordNumber,verbatimEventDate,minimumEventDate,maximumEventDate,verbatimIdentification,latestScientificName,identifiedBy,verbatimDateIdentified,associatedTaxa,country,firstPoliticalUnit,secondPoliticalUnit,municipality,verbatimLocality,locality,habitat,verbatimElevation,verbatimCoordinates,otherCatalogNumbers,originalMethod,typeStatus
https://fm-digital-assets.fieldmuseum.org/2433/459/V0573776F.jpg,V0573776F,Dr. Edgar A. Mearns,E. A. Mearns,,2852,"Jan. 19-Feb. 8, 1910",1910-01-10,1910-02-02,Cyperus callistus Ridley,Cyperus maculatus Böck.,J. Raynal,19.10.1971,,Congo Free State,,,,"""Rhino Camp,"" Bahr el Jebel, Lado Enclave, Congo Free State","""Rhino Camp,"" Bahr el Jebel, Lado Enclave",,,,468360,Mix of Handwritten and Typed,no type status
https://fm-digital-assets.fieldmuseum.org/2437/184/V0576008F.jpg,V0576008F,COLL. F. G. OVERLAET,F. G. Overlaet,,s.n.,1923-4,1923-00-00,1924-00-00,Habenaria,Habenaria,B Pettersson,1984,,Democratic Republic of the Congo,,,,PASS,[precise locality unknown],,,,752356,Typed,no type status
https://fm-digital-assets.fieldmuseum.org/2433/678/V0576279F.jpg,V0576279F,R. A. Maas Geesteranus,R. A. Maas Geesteranus,,4924,14-VI 1949,1949-06-14,,Pycreus segmentatus C.B.Cl.,Pycreus segmentatus C.B.Cl.,,,Dombeya mastersii and Olea hochstetteri,Kenya,Nyanza,Londiani,,"Tinderet Forest Reserve, Camp I, lat. 0° 5' S., long. 35° 27' E.","Tinderet Forest Reserve, Camp I","glade surrounded by rather open, tall forest, containing a.o. Dombeya mastersii and Olea hochstetteri",2260 m s.m.,"lat. 0° 5' S., long. 35° 27' E.",1447052.0,Mix of Handwritten and Typed,no type status
https://fm-digital-assets.fieldmuseum.org/2437/413/V0577013F.jpg,V0577013F,J. M. et B. Reitsma,J. M. Reitsma,B. Reitsma,2013,3-3-86,1986-03-03,,Bulbophyllum scaberulum (Rolfe) Bolus var. scaberulum,Bulbophyllum scaberulum (Rolfe) Bolus var. scaberulum,O. Kosovsky,2011,,Gabon,,,,"Primary rain forest, ca 6 km NW of Oveng, chantier Rougier Océan. 0 41 N x 11 07 E","Primary rain forest, ca 6 km NW of Oveng, chantier Rougier Océan",Primary rain forest,,0 41 N x 11 07 E,2310219,Typed,no type status
https://fm-digital-assets.fieldmuseum.org/2434/201/V0577892F.jpg,V0577892F,Carvalho 2102,Carvalho,,2102,26-VII-1986,1986-07-26,,Mariscus alternifolius Vahl,Mariscus alternifolius Vahl,C Cebolla & M A Rivas Ponce,1995,,Equatorial Guinea,BIOCO,,Malabo,"«Malabo», finca las Carboneras, 32NMK7415, 8 m. Bosque secundario y terrenos incultos. Herbácea, 20-30 cm","Malabo, finca las Carboneras. Bosque secundario y terrenos incultos. Herbácea, 20-30 cm",Bosque secundario y terrenos incultos,8 m,32NMK7415,2201108.0,Typed,no type status
https://fm-digital-assets.fieldmuseum.org/2437/617/V0578553F.jpg,V0578553F,Fernández Casas,Fernández Casas,,11206,5-II-1989,1989-02-05,,Agrostis manii (Hooker fil.) Stapf,Agrostis manii (Hooker fil.) Stapf,C. Cebolla & M A. Rivas Ponce,1993,,Equatorial Guinea,,,,"cumbre del pico Basilé, 32NMJ7396, 2870 m, márgenes de la pista","cumbre del pico Basilé, 32NMJ7396, 2870 meters, márgenes de la pista",Márgenes de la pista,2870 m,32NMJ7396,2200806,Typed,no type status
https://fm-digital-assets.fieldmuseum.org/2441/863/V0574052F.jpg,V0574052F,COLL. F. G. OVERLAET,F. G. Overlaet,,s.n.,1923-4,1923-00-00,1924-00-00,Scirpus,Scirpus quartziticus,A A Beetle,1946,,Belgian Congo,,,,PASS,[precise locality unknown],,,,752378,Typed,no type status
https://fm-digital-assets.fieldmuseum.org/2446/122/V0577681F.jpg,V0577681F,C.J.P. Seegeler,C. J. P. Seegeler,,2806,23 October 1972,1972-10-23,,Vernonia abyssinica Sch.Bip.,Vernonia abyssinica Sch.Bip.,G J H Amshoff,1982,,Ethiopia,Shewa,,,"c. 3 km from Metahara, on road to Nazareth. In full sun on lava rock.","c. 3 km from Metahara, on road to Nazareth. In full sun on lava rock.","Erect herb, about 90 cm high and 30 cm wide. Stem pale brown, near the top brownish-green. Leaves medium green, beneath paler with pale midrib. Involucre pale green with dark green tops. Florets at opening dark purple, older paler to almost white. Anthers pale brown. Pollen white. Fruits brownish-black with yellowish white pappus.",925m,"c. 8°56' N, 39°55' E",2302805,Typed,no type status
https://fm-digital-assets.fieldmuseum.org/2442/190/V0597557F.jpg,V0597557F,PASS,PASS,,48,05.08.2003,2003-08-05,,Carduus leptacanthus FRES,Carduus leptacanthus FRES,,,,PASS,Sud-Kivu,Kabare,,Musisi,Musisi,,,,2257689,Mix of Handwritten and Typed,no type status
https://fm-digital-assets.fieldmuseum.org/2452/643/V0594376F.jpg,V0594376F,J.M. Fay,J. M. Fay,,8017,25 May 1987,1987-05-25,,Burkea africana Hook.,Burkea africana Hook.,J M Fay,,,Central African Republic,,,,Park Manovo-Gounda-St. Floris. vicinity of Camp Koumbala. prec: 1200 mm,Park Manovo-Gounda-St. Floris. vicinity of Camp Koumbala. prec: 1200 mm,,600 m,08°29'N 21°12'E,1999188.0,Typed,no type status
https://fm-digital-assets.fieldmuseum.org/2453/856/V0597275F.jpg,V0597275F,P.C.M. Jansen,P. C. M. Jansen,,5996,14 April 1976,1976-04-14,,Cirsium vulgare (Savi) Ten.,Cirsium vulgare (Savi) Ten.,C C H Jongkind,1987,,Ethiopia,Harerge,,,"around Damata Village, near Alemaya. Between chat and Sorghum fields. c. 9°24' N, 42°01' E","around Damata Village, near Alemaya. Between chat and Sorghum fields","Herb, c. 1 m high. Stem whitish green. Leaves dark green above, whitish green beneath. Spines yellow. Involucre dark green. Disc flowers only, lilac red",2000m,c. 9°24' N 42°01' E,2302849,Typed,no type status
https://fm-digital-assets.fieldmuseum.org/2454/013/V0597626F.jpg,V0597626F,"Amanda Koch, Wilson Sakuda, AK61, October 22, 2003",A. Koch,W. Sakuda,AK61,"October 22, 2003",2003-10-22,,Acacia reficiens misera (Vatke) Brenan,Acacia reficiens misera (Vatke) Brenan,P Mutiso,"November 02, 2003",,Kenya,Kajiado,,,Kenya: Kajiado District Oloishoibor,Kenya: Kajiado District Oloishoibor,Dry bushland,,,2309478,Typed,no type status
https://fm-digital-assets.fieldmuseum.org/2454/080/V0597688F.jpg,V0597688F,J. Lebrun,J. Lebrun,,2409,Mars 1931,1931-03-00,,Albizia gummifera (Gmel.),Albizia gummifera (Gmel.),C A Smith,,,Congo Belge,Kibar,,,Congo Belge. Kibar. (Terr. Irumu),Congo Belge. Kibar. (Terr. Irumu),,,,867368,Typed,no type status
https://fm-digital-assets.fieldmuseum.org/2460/308/V0588237F.jpg,V0588237F,Verdcourt no 2077,B Verdcourt,,2077,25.12.1957,1957-12-25,,Digitaria pennata (Hochst.) Chiov,Digitaria pennata (Hochst.) Chiov,,,,Kenya,,,,Tsavo - Mtito Andei,Tsavo - Mtito Andei,,,,1559644,Typed,no type status
https://fm-digital-assets.fieldmuseum.org/2460/430/V0580026F.jpg,V0580026F,H. Callens s.j.,H Callens,,s.n.,Juillet 1958,1958-07-00,,Gaertnera paniculata,Gaertnera paniculata,H. Callens,1/9/58,,Congo Belge,,,Kisantu,Kisantu,[precise locality unknown],Foret secondaire,,,1732587.0,Typed,no type status
https://fm-digital-assets.fieldmuseum.org/2464/177/V0580516F.jpg,V0580516F,G. Troupin,G. Troupin,,6333,10/2/1958,1958-02-10,,Mikania cordata (Burm.f.) B.L.Robins,Mikania cordata (Burm.f.) B.L.Robins,,,,Congo,Kivu,Kalehe,,"Vers km 110,route Kavumu-Walekale; Irangi,réserve IRSAC","Vers km 110,route Kavumu-Walekale; Irangi,réserve IRSAC",Forêt ombrophile,850 - 900 m,,1543353,Typed,no type status
https://fm-digital-assets.fieldmuseum.org/2466/373/V0574490F.jpg,V0574490F,Gordon McPherson,G. McPherson,,13781,20 Mars 1989,1989-03-20,,Corynanthe mayumbensis (R. Good) N. Hallé,Corynanthe mayumbensis (R. Good) N. Hallé,Wilks & McPherson,1989,,Gabon,Ogooue-Ivindo,,,"Réserve de la Lopé, au sud d'Ayem; chantier Soforga","Réserve de la Lopé, au sud d'Ayem; chantier SOFORGA",Arbre 15 m; fruit brun; voucher de NCI; LF:Q66S-0223-G; BK:Q66S-0224-H; WD:366S-0225-I,c. 200 m,0°25'S 11°30'E,2040859.0,Typed,no type status
https://fm-digital-assets.fieldmuseum.org/2472/873/V0574226F.jpg,V0574226F,J. M. Fay,J. M. Fay,,8294,4 March 1988,1988-03-04,,Millettia zechiana Harms,Millettia zechiana Harms,Ake Assi,1988,"Guibourtia demeusei, Berlinia sp., Bombax sp",Cameroon,,,,On the Sangha River across from Ndakan gorilla study area,On the Sangha River across from Ndakan gorilla study area,"Abundant understory tree; 5 m, 10 cm diam",385 m,02°20'N 16°08'E,2041244.0,Typed,no type status
https://fm-digital-assets.fieldmuseum.org/2473/141/V0580728F.jpg,V0580728F,F.A.Melville,F. A. Melville,,199,29.vii.1959,1959-07-29,,Phaseolus lunatus L.,Phaseolus lunatus L.,,,,Equatorial Guinea,Annobon,,,"South West of Crater Lake. Clearing in wood, scrambling over bushes.","South West of Crater Lake. Clearing in wood, scrambling over bushes.","Standard greeny-yellow, keel green and white and twisted, wings first yellow, then white later.","1,500ft.",,1624518,Typed,no type status
https://fm-digital-assets.fieldmuseum.org/2473/209/V0578764F.jpg,V0578764F,"R. L. Piemeisel, L. W. Kephart",R. L. Piemeisel,L. W. Kephart,2,"June 28-July 1, 1927",1927-06-28,,,,,,,Kenya,,,,"Muthaiga, near Nairobi","Muthaiga, near Nairobi",,"1,700 meters",,2074762,Typed,no type status
https://fm-digital-assets.fieldmuseum.org/2474/564/V0594158F.jpg,V0594158F,A. Léonard,A. Léonard,,3149,19/2 1959,1959-02-19,,Oxyanthus speciosus DC. subsp. indet.,Oxyanthus speciosus DC. subsp. indet.,B Sonké,1989,,Zaire,,,Masisi,Masisi,[precise locality unknown],Vieille forêt secondaire,1900m,,2086095,Typed,no type status
https://fm-digital-assets.fieldmuseum.org/2477/449/V0573054F.jpg,V0573054F,récolté par le R. P. KLAINE,R. P. Klaine,,3200,25 Mars 1896,1896-03-25,,Klaineanthus gabonii Pierre,Klaineanthus gabonii Pierre,,,,Gabon,,,,Herbier des environs de Libreville (GABON),Herbier des environs de Libreville,,,,781173,Mix of Handwritten and Typed,no type status
https://fm-digital-assets.fieldmuseum.org/2478/115/V0601010F.jpg,V0601010F,James T. Allen,J. T. Allen,,41,"September 23, 1996",1996-09-23,,Dissotis rotundifolia (Sm.) Triana,Dissotis rotundifolia (Sm.) Triana,,,,Ghana,Volta Region,,,Larteh; Center for Scientific Research into Plant Medicine (CSRPM) farm,Larteh; Center for Scientific Research into Plant Medicine (CSRPM) farm,Anti-asthmatic; treating coughs and colds; antipyretic; for dysentery. Applied topically-arthritis,,,2200652,Typed,no type status
https://fm-digital-assets.fieldmuseum.org/2478/233/V0602418F.jpg,V0602418F,J.E.Andoh,J. E. Andoh,,5632,March 1952,1952-03-00,,Chrysophyllum perpulchrum Mildbr.,Chrysophyllum perpulchrum Mildbr.,,,,Ghana,Ashanti,Kumasi District,,Kumasi Township Forest Reserve,Kumasi Township Forest Reserve,Medium sized tree 30ft. high and 2ft. girth. Planted in 1933,,,1601919,Typed,no type status
https://fm-digital-assets.fieldmuseum.org/2478/305/V0604513F.jpg,V0604513F,J. Nemba & D.W. Thomas,J. Nemba,D W Thomas,520,15 June 1987,1987-06-15,,Donella welwitschii Pierre ex Engl.,Donella welwitschii Pierre ex Engl.,D W Thomas,1987,,Cameroon,Southwest,,,Prov. SOUTHWEST: Secondary growth and old growth forest along Kumba-Mamfe road at mile 14 Lkiliwindi. 04°44'N 09°29'E 200 m,Secondary growth and old growth forest along Kumba-Mamfe road at mile 14 Lkiliwindi,Secondary growth and old growth forest,200 m,04°44'N 09°29'E,2041320.0,Typed,no type status
https://fm-digital-assets.fieldmuseum.org/2479/474/V0572217F.jpg,V0572217F,J. Deaw,J. Deaw,,Sp 283,4/10/71,1971-10-04,,Eugenia coronata,Eugenia coronata,A A Enti,71,,Ghana,,,Accra,Accra,[precise locality unknown],"A shrub about 6' high. Flowering pedicels fascicled. Fruit ellipsoid, calyx persistent at the apex",,,1753421.0,Typed,no type status
https://fm-digital-assets.fieldmuseum.org/2487/523/V0602609F.jpg,V0602609F,colligerunt G. Schweinfurth et D. Riva,G. Schweinfurth,D. Riva,1814,1 mai 1892,1892-05-01,,Rumex nervosus V.,Rumex nervosus V.,,,,Eritrea,,,PASS,Saganéiti pente du Nord au-dessous d'Addi-Abbour,Saganéiti pente du Nord au-dessous d'Addi-Abbour,,2300/2100 m,,PASS,Mix of Handwritten and Typed,no type status
https://fm-digital-assets.fieldmuseum.org/2487/806/V0606178F.jpg,V0606178F,Coll. R.B. & A.J. Faden 77/711,R. B. Faden,A. J. Faden,77/711,7 March 1977,1977-03-07,,Toddaliopsis sansibarensis (Engl.) Engl.,Toddaliopsis sansibarensis (Engl.) Engl.,J O Kokwaro,,Combretum schumannii,Kenya,K7,,,"Chale Peninsula, ca. 4°26'S, 39°32'30""E",Chale Peninsula,Coral rag dry forest,0-5 m,"4°26'S, 39°32'30""E",2153520,Typed,no type status
https://fm-digital-assets.fieldmuseum.org/2487/920/V0603038F.jpg,V0603038F,F. Szafranski,F. Szafranski,,1378,5.2.1988,1988-02-05,,Floscopa glomerata (Roem. et Schult.) Hassk.,Floscopa glomerata (Roem. et Schult.) Hassk.,,,,Zaire,Haut-Uele,,Isiro,bas fond marécageux près de la route aux environs de l'usine SOCODIA,bas fond marécageux près de la route aux environs de l'usine SOCODIA,Bas fond marécageux,,,2084694,Typed,no type status
https://fm-digital-assets.fieldmuseum.org/2491/969/V0606676F.jpg,V0606676F,F.W.H.Migeod,F. W. H. Migeod,,394,26. 1. 1928,1928-01-26,,Solanum sp.,Solanum aculeatissimum Jacq.,M. Nee,"Dec. 3,1977",,Cameroon,Bamenda,,Bamenda,"AFRICA. Bamenda, British Cameroons. Alt.5,500 ft.",[precise locality unknown],Shrub very thorny and spinous. Flower not seen. Fruit pale yellow 1 in. diam. soft.,"5,500 ft",,1441275,Mix of Handwritten and Typed,no type status
https://fm-digital-assets.fieldmuseum.org/2491/991/V0601406F.jpg,V0601406F,T.C. Wrigley 52,T. C. Wrigley,F. A. Melville,52,18 July 1959,1959-07-18,,Cassipourea annobonensis Mildbr. ex Alston,Cassipourea annobonensis Mildbr. ex Alston,A W Exell,1961,,Equatorial Guinea,,,,Annobon: Ridge west of Crater Lake,Ridge west of Crater Lake,Open woodland,1200ft,,1624568,Typed,no type status
https://fm-digital-assets.fieldmuseum.org/2493/436/V0604673F.jpg,V0604673F,William Burger,W. Burger,,1767,27 May 1962,1962-05-27,,Rubus apetalus Poir,Rubus apetalus Poir,WB/Kew,,,Ethiopia,Harar,,,Near G. Ades ±18Km E. of Hirna along new hwy. Steep slopes with remnant Podocarpus + Juniperus forest,Near G. Ades ±18 Kilometers East of Hirna along new highway. Steep slopes with remnant Podocarpus + Juniperus forest,"Forming bush 2.5m tall under Podocarpus, etc",9200 feet,9°17'N × 41°13'E,1825230,Mix of Handwritten and Typed,no type status
https://fm-digital-assets.fieldmuseum.org/2499/501/V0565514F.jpg,V0565514F,J.D. Sauer,J. D. Sauer,,3914,15 June 1963,1963-06-15,,Aerva lanata (L.) Juss.,Aerva lanata (L.) Juss,,,,Kenya,Coast,Kwale District,,"Beach ridge, shallow open coast. Bumburri Beach, N of Mombasa. Coast Province, Kwale District, near Mombasa","Beach ridge, shallow open coast. Bumburri Beach, N of Mombasa. Coast Province, Kwale District, near Mombasa","Beach ridge, shallow open coast",,,PASS,Typed,no type status
https://fm-digital-assets.fieldmuseum.org/2499/556/V0565977F.jpg,V0565977F,C. Vigne,C. Vigne,,1408,s.d.,sd,,Enantia polycarpa Engl. + Diels,Enantia polycarpa Engl. + Diels,,,,Ghana,,,,Gold Coast,[precise locality unknown],,,,839434,Typed,no type status
https://fm-digital-assets.fieldmuseum.org/2499/686/V0566108F.jpg,V0566108F,Eman Addo,E. Addo,,1026,1999,1999-00-00,,Uvaria versicolor Pierre,Uvaria versicolor Pierre,,,,Ghana,,,,,[precise locality unknown],,,,2325285,Typed,no type status
https://fm-digital-assets.fieldmuseum.org/2500/629/V0567164F.jpg,V0567164F,A.A.Enti,A A Enti,,Sp 398,22/11/19 71,1971-11-22,,Pergularia daemia,Pergularia daemia,A A Enti,1971,,Ghana,,,,Awutu - Winneba Road,Awutu - Winneba Road,"A climber among grasses. Flower white, conspicuous. Latex present",,,1753348,Typed,no type status
https://fm-digital-assets.fieldmuseum.org/2501/420/V0591661F.jpg,V0591661F,D.W. Thomas 6850,D. W. Thomas,,6850,1987,1987-00-00,,Cola flavovelutinia K. Schum,Cola flavovelutinia K. Schum,D W Thomas,1987,,Cameroon,Southwest,,,Korup National Park,Korup National Park,Primary rain forest,60 m,05°02'N 08°50'E,2041255,Typed,no type status
https://fm-digital-assets.fieldmuseum.org/2504/891/V0567306F.jpg,V0567306F,Sue A. Thompson,S. A. Thompson,,1522,9 July 1984,1984-07-09,,Impatiens macroptera Hook.f.,Impatiens macroptera Hook.f.,,,,Cameroon,Sud-Ouest,Fako,,"Bakingili; 4°04'N, 9°02'E. Alt. 50-250 m. Trail up Mt. Cameroon",Bakingili; Trail up Mt. Cameroon,Erect herb up to 70 cm tall; growing on wet rocks; flowers purple,50-250 m,"4°04'N, 9°02'E",2086046,Typed,no type status
https://fm-digital-assets.fieldmuseum.org/2505/266/V0606921F.jpg,V0606921F,D. Wiens,D. Wiens,,4484,16-12-71,1971-12-16,,Englerina tenuifolia (Engl.) Gilli,Englerina tenuifolia (Engl.) Gilli,,,,Kenya,Kitui,,,4 km n. of Kangondi on road to Embu,4 km north of Kangondi on road to Embu,Thornshrub,4500',,1864166,Mix of Handwritten and Typed,no type status
https://fm-digital-assets.fieldmuseum.org/2506/309/V0605928F.jpg,V0605928F,Sue A. Thompson & John E. Rawlins,S. A. Thompson,J. E. Rawlins,1333,3 June 1984,1984-06-03,,Avicennia africana P. Beauv.,Avicennia africana P. Beauv.,,,,Cameroon,Sud-Ouest,Fako,,"CAMEROON: Prov. Sud-Ouest: Dept. Fako: Bakingili; 4°04'N, 9°02'E. Alt. 0 m. Seaside.",Bakingili; Seaside,Tree ca 2-3 m tall; bark with light blotches; flowers white,0 m,"4°04'N, 9°02'E",2088074,Typed,no type status
https://fm-digital-assets.fieldmuseum.org/2511/134/V0605675F.jpg,V0605675F,G. Troupin,G. Troupin,,6347,18.2.1958,1958-02-18,,TILIAC. Glyphaea brevis (SPRENG.) MONACHINO,Glyphaea brevis (Spreng.) Monachino,,,,Congo,Kivu,Kalehe,,"Vers Km 110 route Kavumu-Walikale; Irangi, réserve IRSAC","Vers Km 110 route Kavumu-Walikale; Irangi, réserve IRSAC",Forêt ombrophile,850 - 900 m,,1543374,Mix of Handwritten and Typed,no type status
https://fm-digital-assets.fieldmuseum.org/2511/772/V0571550F.jpg,V0571550F,A. Pappi,A. Pappi,,2627,14-15.VIII.1902,1902-08-14,1902-08-15,Lavandula pubescens Decaisne,Lavandula pubescens Decaisne,T M Upson,2/4/1996,,Eritrea,,,,Lungo il torrente Haddas,Lungo il torrente Haddas,PASS,,,1559413,Mix of Handwritten and Typed,no type status
https://fm-digital-assets.fieldmuseum.org/2512/575/V0607392F.jpg,V0607392F,William Burger,W Burger,,1453,14 Feb. 1962,1962-02-14,,Juniperus procera Hochst. ex Endl.,Juniperus procera Hochst ex Endl.,W B,,,Ethiopia,Harar,,,N.W face of Gara Mulatta Mtn. ca. 50 km due N of Harar 9°16'N+41°43'E,N.W face of Gara Mulatta Mtn. ca. 50 km due N of Harar,Trees 8-10m tall. ± 8600 feet on steep slopes in mixed forest,2500 - 3000 m,9°16'N+41°43'E,1632855,Mix of Handwritten and Typed,no type status
https://fm-digital-assets.fieldmuseum.org/2513/815/V0570163F.jpg,V0570163F,B.D. okosi,B D Okosi,,s.n.,10/12/1972,1972-12-10,,Terminalia glaucescens,Terminalia glaucescens,,1972,,Ghana,Volta Region,,Ho,"HO, VOLTA REGION GHANA",[precise locality unknown],"A tree, to 40ft high 6ft girth, wood yellow or brownish yellow",,,2007210,Mix of Handwritten and Typed,no type status
https://fm-digital-assets.fieldmuseum.org/2514/094/V0570543F.jpg,V0570543F,Amora Gettel leg. Schimper,Schimper,,1467,24.11.63,1863-11-24,,Ipomoea tenuirostris Chois,Ipomoea tenuirostris Chois,,,,Ethiopia,,,,Abyssinia,[precise locality unknown],,,,373793,Mix of Handwritten and Typed,no type status
https://fm-digital-assets.fieldmuseum.org/2514/378/V0607965F.jpg,V0607965F,D.W. Thomas & M. Etuge,D. W. Thomas,M. Etuge,6988,18 May 1987,1987-05-18,,Tapura africana Oliv.,Tapura africana Oliv.,D W Thomas,1987,,Cameroon,Southwest,,Kumba,"PROV. SOUTHWEST: Degraded forest at Barombi Kang, Kumba",Degraded forest at Barombi Kang,Degraded forest,150 m,04°36'N 09°27'E,2040825,Typed,no type status
https://fm-digital-assets.fieldmuseum.org/2514/765/V0570471F.jpg,V0570471F,"Dr. EDGAR A. MEARNS, Collector",E. A. Mearns,,1114,"September 6 and 7, 1909",1909-09-06,1909-09-07,Evolvulus alsinoides L.,Evolvulus alsinoides L.,,,,Kenya,,,,"Vicinity of Thika, British East Africa",Vicinity of Thika,,about 1350 meters,,468287,Typed,no type status
https://fm-digital-assets.fieldmuseum.org/2514/997/V0570108F.jpg,V0570108F,G. Mac Naughton,G Mac Naughton,,580,s.d.,sd,,Combretum Schumannii Engl.,Combretum schumannii Engl.,,,,Kenya,,,,,[precise locality unknown],,,,856357,Typed,no type status
https://fm-digital-assets.fieldmuseum.org/2515/000/V0570110F.jpg,V0570110F,J. M. Fay,J. M. Fay,,8271,28 February 1988,1988-02-28,,Combretum smeathmannii G. Don,Combretum smeathmannii G. Don,Ake Assi,1988,"Irvingia smithii, Guibourtia demeusei, Berlinia sp.",Cameroon,PASS,,,"Along the Sangha River adjacent to the island of Kilona. In riparian forest adjacent to seasonally flooded forest with Irvingia smithii, Guibourtia demeusei, Berlinia sp., Prec: 1400 mm","Along the Sangha River adjacent to the island of Kilona. In riparian forest adjacent to seasonally flooded forest with Irvingia smithii, Guibourtia demeusei, Berlinia sp., Prec: 1400 mm",In riparian forest adjacent to seasonally flooded forest,385 m,02°21'N 16°09'E,2041248.0,Typed,no type status
https://fm-digital-assets.fieldmuseum.org/2522/077/V0590787F.jpg,V0590787F,D.D. Soejarto,D. D. Soejarto,,4793,"April 1, 1978",1978-04-01,,Diospyros tricolor Hiern.,Diospyros tricolor Hiern.,,,Thespesia populnea and Sophora occidentalis,Ghana,Greater Accra,,Bortianor village,"Ghana: Greater Accra Province, Bortianor village, 20 km. West of Accra, sea coast","Ghana: Greater Accra Province, Bortianor village, 20 kilometers West of Accra, sea coast","Straggling shrub, in association with Thespesia populnea and Sophora occidentalis. Fruits green. Forming clumps just behind beach, on sandy soil. Common",,,1842606,Typed,no type status
https://fm-digital-assets.fieldmuseum.org/39/558/V0040586F.jpg,V0040586F,Narciso Reyna R.,N Reyna R,,40,15 diciembre 1967,1967-12-15,,Guatteria scalarinervia D.R. Simpson sp. nov.,Guatteria scalarinervia D.R. Simpson,D R Simpson,,,Peru,Loreto,Maynas,,"Santa María - Río Nanay, distr. Alto Nanay, dept. Loreto, prov. Maynas ","Santa María - Río Nanay, distr. Alto Nanay, dept. Loreto, prov. Maynas","""Carahuasca amarilla"" - arbol, bosque húmedo tropical",150 m,,1751405.0,Mix of Handwritten and Typed,Holotype
https://fm-digital-assets.fieldmuseum.org/613/620/V0081497F.jpg,V0081497F,M. O. Dillon & D. Dillon,M. O. Dillon,D. Dillon,3776,1 Nov 1983,1983-11-01,,Galvezia fruticosa Gmel.,Galvezia elisensii M.O. Dillon & Quipuscoa,,,,Peru,Arequipa,Caraveli,,"Lomas of Atiquipa, ca. 10.5 km N of turn-off to Atiquipa. KM 584 S of Lima. ca. 150-200 m","Lomas of Atiquipa, ca. 10.5 km N of turn-off to Atiquipa. KM 584 S of Lima","Erect, glutinous shrub to 0.75 m.; flws. red",ca. 150-200 m,,1940835,Typed,Holotype
https://fm-digital-assets.fieldmuseum.org/40/414/V0042484F.jpg,V0042484F,,,,1915,1830,1830-00-00,,Tetrorchidium rubrivenium Popp. & Endl. var. genuinum Müll. Arg.,Tetrorchidium rubrivenium Poepp. et Endl. var. genuinum Müll. Arg.,F Pax,,,Peru,,,,"Tocache Maynas, Tocache. Huallaga","Tocache Maynas, Tocache. Huallaga",,,,875422.0,Mix of Handwritten and Typed,Isosyntype
https://fm-digital-assets.fieldmuseum.org/281/725/V0092855F.jpg,V0092855F,José Campos y O. Díaz 2490,J. Campos,O. Díaz,2490,9 Febrero 1996,1996-02-09,,Amorimia camporum W.R. Anderson,Amorimia camporum W.R. Anderson,W. R. Anderson,2006,,Peru,Cajamarca,San Ignacio,,Distrito Chirinos: Entre La Catagua y Tablón,Entre La Catagua y Tablón,Trepadora; flor amarilla,550 - 650 m,05°19'S 078°47'W,2296033,Typed,Isotype
https://fm-digital-assets.fieldmuseum.org/155/067/V0078059F.jpg,V0078059F,Ruiz et Pavón,Tafalla,PASS,s.n.,(1778-1788),1778-00-00,1788-00-00,Nolana spathulata R & P,Nolana spathulata Ruiz & Pav.,A. Mesa,1981,,Peru,,,,PASS,[precise locality unknown],,,,845155,Typed,Isolectotype
https://fm-digital-assets.fieldmuseum.org/281/732/V0092864F.jpg,V0092864F,Camilo Díaz y Antonio Peña,C. Díaz,A. Peña,8808,4 Diciembre 1996,1996-12-04,,Symplocos ovata Ståhl,Symplocos ovata Ståhl,B. Ståhl,2010,,Peru,Amazonas,Luya,Camporedondo,"Tullanya, Pascana ""Pajaro Tigre"". 2250-2360 m","Tullanya, Pascana ""Pajaro Tigre""",Liana con frutos verdes. Pecúnculos largos,2250-2360 m,,2296023,Typed,Isotype
https://fm-digital-assets.fieldmuseum.org/283/142/V0092900F.jpg,V0092900F,R & P,H Ruiz,J Pavón,9/58,1778-1788,1778-00-00,1788-00-00,Bomarea purpurea (R & P) Herb.,Bomarea purpurea (Ruiz & Pavón) Herb.,Hofreiter,2007,,Peru,,,,Pillao,Pillao,,,,916119,Mix of Handwritten and Typed,Isotype
https://fm-digital-assets.fieldmuseum.org/283/147/V0092906F.jpg,V0092906F,"V. Quipuscoa S., A. Sagástegui A., S. Leiva G. & M. Bejarano C.",V Quipuscoa S,A Sagástegui A | S Leiva G | M Bejarano C,1378,20 agosto 1998,1998-08-20,,Lithospermum cinerascens (A.DC.) Johnst.,"Lithospermum leymebambense WEIGEND & NÜRK, sp. nov. ined.",M. Weigend,September 2006,,Peru,Amazonas,Chachapoyas,Leymebamba,"Carretera a Celendín, entre Ishpingo -Pomacocha. Bosque montano fragmentado.","Carretera a Celendín, entre Ishpingo -Pomacocha. Bosque montano fragmentado.",Bosque montano fragmentado,2800-3000 m,,2211679,Typed,Isotype
https://fm-digital-assets.fieldmuseum.org/283/156/V0092915F.jpg,V0092915F,Llewelyn Williams,L. Williams,,6999,"JAN.-FEB., 1930",1930-01-00,1930-02-00,Norantea curva Macbr.,Marcgraviastrum mixtum (Triana & Planch.) Bedell,D. Giraldo-Cañas,2010,,Peru,San Martin,,San Roque,San Roque Dept. San Martin,[precise locality unknown],forest,1350-1500 M,,624474.0,Mix of Handwritten and Typed,Holotype
https://fm-digital-assets.fieldmuseum.org/283/160/V0092918F.jpg,V0092918F,Ruiz et Pavón,H Ruiz,J Pavón,s.n.,1778-1788,1778-00-00,1788-00-00,Norantea obovata (G.DON) G. Don,Marcgraviastrum obovatum (G.Don) Bedell,D Giraldo-Cañas,2010,,Peru,,,,Chacahuasi,Chacahuasi,,,,843295,Mix of Handwritten and Typed,Isotype
https://fm-digital-assets.fieldmuseum.org/283/163/V0092921F.jpg,V0092921F,Ruiz et Pavón,H Ruiz,J Pavón,s.n.,1778-1788,1778-00-00,1788-00-00,Marcgravia obovata Fl. Peruv. ined.,Marcgraviastrum obovatum (G. Don) Bedell,J Giraldo-Cañas,2010,,Peru,,,,PASS,[precise locality unknown],,,,842882.0,Mix of Handwritten and Typed,Isotype
https://fm-digital-assets.fieldmuseum.org/679/934/V0190732F.jpg,V0190732F,Robin B. Foster,R. B. Foster,,8752,13 Sept. 1982,1982-09-13,,Acidoton venezolanus (Pax.& Hoffm.) Webster,Acidoton venezolanus (Pax.& Hoffm.) Webster,M. J. Huft,1983,,Peru,Huánuco,,,Puerto Inca to Sungaro. Foot trail between Río Pachitea and Río Sungaro. Forested low hills and ravines,Puerto Inca to Sungaro. Foot trail between Río Pachitea and Río Sungaro. Forested low hills and ravines,forested low hills and ravines,250-300 m,"75°00'W, 9°18'S",1921102,Typed,no type status
https://fm-digital-assets.fieldmuseum.org/791/904/V0277652F.jpg,V0277652F,José Schunke Vigo,J Schunke Vigo,,6505,27 May 1964,1964-05-27,,Tontelea attenuata Miers,Tontelea attenuata Miers,J. A. Lombardi,VI/1999/2000,,Peru,San Martín,,,"Quebrada Huicte (río Huallaga), in tall forest","Quebrada Huicte (río Huallaga), in tall forest",In tall forest,529 m alt,,1751666,Mix of Handwritten and Typed,no type status
https://fm-digital-assets.fieldmuseum.org/586/997/V0152152F.jpg,V0152152F,Manuel Rimachi Y.,M Rimachi Y,,4268,"February 8, 1979",1979-02-08,,Nectandra krukovii (A.C. Smith) Kosterm.,Endlicheria anomala (Nees) Mez,A Chanderbali,2001,,Peru,Loreto,Requena,Dtto. Saquena,"Rio Ucayali, Quebrada de Aucayacu, above Genaro Herrera, marginal forest, ""muena,"" 8 m, fr. green","Rio Ucayali, Quebrada de Aucayacu, above Genaro Herrera, marginal forest, ""muena,"" fr. green",Marginal forest,,,2058606,Typed,no type status
https://fm-digital-assets.fieldmuseum.org/802/677/V0277223F.jpg,V0277223F,Salvador Flores P.,S Flores P,,95(P1-2),Julio/82,1982-07-00,,Poraqueiba sericea Tul.,Poraqueiba sericea Tul.,T. Plowman,1985,,Peru,Loreto,Maynas,,Ampiyacu-Pevas,Ampiyacu-Pevas,Bosque secundario 35 años,100 m.s.n.m.,,1968315,Mix of Handwritten and Typed,no type status
https://fm-digital-assets.fieldmuseum.org/694/649/V0195906F.jpg,V0195906F,Percy Núñez & S. Walsh,P. Núñez,S. Walsh,6330,29 October 1986,1986-10-29,,Euphorbia heterophylla L.,Euphorbia heterophylla L.,M. H. Mayfield,Oct. 1995,,Peru,Cuzco,La Convención,Quillabamba,"Quillabamba, Salespampa","Quillabamba, Salespampa",,1110 m,,1982606,Typed,no type status
https://fm-digital-assets.fieldmuseum.org/904/057/V0290180F.jpg,V0290180F,Jose Schunke,J. Schunke,,9560,30 Mayo 1977,1977-05-30,,Hamelia patens Jacq.,Hamelia patens Jacq.,J. Dwyer,1980,,Peru,San Martin,Lamas,Alonso de Alvarado,"Provincia: Lamas; Distrito: Alonso de Alvarado. San Juan de Pacaizapa, km. 72 carretera Tarapoto-Moyobamba","San Juan de Pacaizapa, km. 72 carretera Tarapoto-Moyobamba","Arbusto de 1.5-2 m., flores strong reddish orange, sepalos dark red, frutos dark red, de 1 cm. de largo, por 7 mm. de diametro, carnoso. En bosque secundario, con abundante luz solar",1000-1050 m,,1872133,Typed,no type status
https://fm-digital-assets.fieldmuseum.org/674/331/V0201636F.jpg,V0201636F,"G.Moore, L.Luna, J.Ruiz",G. Moore,L. Luna | J. Ruiz,138,18-8-81,1981-08-18,,Ficus,Ficus maxima P. Miller,W. C. Burger,1982,,Peru,Loreto,,,"Quistococha, 14km north of Iquitos","Quistococha, 14 kilometers north of Iquitos","Tree of 20m. Important medicinal plant. The ""milk"" from the bark is drunk",600m,,1923146,Typed,no type status
https://fm-digital-assets.fieldmuseum.org/786/584/V0251887F.jpg,V0251887F,"E. P. Killip, A. C. Smith",E. P. Killip,A. C. Smith,26721,"July 20, 21, 1929",1929-07-20,1929-07-21,Psychotria racemosa (Aubl.) Willd.,Psychotria racemosa (Aubl.) Willd.,,,,Peru,Junín,,,"Dept. Junín: Cahuapanas, on Río Pichis; alt. about 340 meters; dense forest","Dept. Junín: Cahuapanas, on Río Pichis; dense forest",Dense forest,about 340 meters,,607534,Mix of Handwritten and Typed,no type status
https://fm-digital-assets.fieldmuseum.org/750/898/V0243915F.jpg,V0243915F,M. O. Dillon and I. Sánchez V.,M. O. Dillon,I. Sánchez V.,6310,22 Jul 1991,1991-07-22,,Wissadula grandifolia Baker ex Rusby,Wissadula grandifolia Baker f. Fryxell,P. Fryxell,1993,,Peru,Piura,Huancabamba,,ca. 2 km N of Canchaque,ca. 2 km N of Canchaque,Shrubs to 1 m; flowers yellow,ca. 1450 m,[5°24'S; 79°36'W],2119563,Typed,no type status
https://fm-digital-assets.fieldmuseum.org/678/428/V0187051F.jpg,V0187051F,COLL. J. FRANCIS MACBRIDE,J F Macbride,,4806,"June 23, 1923",1923-06-23,,Croton baillonianus,Croton Baillonianus,,,,Peru,,,,CUEVA GRANDE ESTACION NEAR POZUZO,Cueva Grande Estacion near Pozuzo,Sunny brushy slope. Open brushy 4-5 ft shrub,about 3500 feet,,535840,Typed,no type status
https://fm-digital-assets.fieldmuseum.org/776/646/V0258426F.jpg,V0258426F,A. Sagástegui A,A Sagástegui,,3820,Noviembre 1966,1966-11-00,,Geranium chilloense Kunth,Geranium chilloense Kunth,C Aedo,2007,,Peru,Cajamarca,Contumaza,,"Jalca. Prov. Contumaza, Dpto. Cajamarca","Jalca. Prov. Contumaza, Dpto. Cajamarca",Ladera abierta,2620 m.s.n.m,,1684365,Mix of Handwritten and Typed,no type status
https://fm-digital-assets.fieldmuseum.org/686/796/V0193750F.jpg,V0193750F,"J. Mostacero L., S. Leiva G., F. Mejía C., F. Peláez P., J. Guevara B.",J Mostacero L,S Leiva G | F Mejía C | F Peláez P | J Guevara B,1640,14-XI-1986,1986-11-14,,Dalechampia aristolochiifolia Kunth,Dalechampia aristolochiifolia Kunth,M J Huft,1992,,Peru,Cajamarca,Cutervo,,La Pucarilla (Socota-San Andrés),La Pucarilla (Socota-San Andrés),Ladera al borde de carretera,2450 m.s.m.,,199352.0,Mix of Handwritten and Typed,no type status
https://fm-digital-assets.fieldmuseum.org/738/306/V0228073F.jpg,V0228073F,"Spichiger, R. & P.-A. Loizeau",R. Spichiger,P.-A. Loizeau,3012,10-4-86,1986-04-10,,Pourouma guianensis ssp guianensis,Pourouma guianensis ssp guianensis,,,,Peru,Loreto,,,"Centre de Recherche de Jenaro Herrera, Loreto, Pérou (73°45'W-4°55'S)","Centre de Recherche de Jenaro Herrera, Loreto, Pérou (73°45'W-4°55'S)","Bosque de terraza alta, suelo arenoso",125 m,73°45'W-4°55'S,2027582.0,Mix of Handwritten and Typed,no type status
https://fm-digital-assets.fieldmuseum.org/494/920/V0100062F.jpg,V0100062F,G. Klug,G. Klug,,660,"October-November, 1929",1929-12-00,,Batesia floribunda Benth.,Batesia floribunda Benth.,H Harms,,,Peru,Loreto,,,"Dept. Loreto: Mishuyacu, near Iquitos, alt. 100 meters; forest","Dept. Loreto: Mishuyacu, near Iquitos; forest",forest,100 meters,,613565,Mix of Handwritten and Typed,no type status
https://fm-digital-assets.fieldmuseum.org/655/199/V0198402F.jpg,V0198402F,coll. T. R. Dudley,T. R. Dudley,,12063,24 Aug. 1968,1968-08-24,,Dendrophthora mesembryanthemifolia Urban,Dendrophthora sp.,J. Kuijt,18 Dec. 1984,,Peru,Ayacucho,La Mar,,"Prov. La Mar, Dept. Ayacucho, eastern Massif of the Cordillera Central opposing the Cordillera Vilcabamba between Tambo San Miguel, Ayna and the Hacienda Luisiana, c. 73°53'W; 12°45'S","eastern Massif of the Cordillera Central opposing the Cordillera Vilcabamba between Tambo San Miguel, Ayna and the Hacienda Luisiana, c. 45 kilometers walking distance SW from the Hacienda Luisiana and the Apurimac River; c. 30 kilometers from the Hacienda Santa Rosa; c. 10 kilometers from Tambo","Parasitic, foliage yellowish-green; calyx bright orange; fr. translucent pink, waxy in dense and isolated, 40-50 ft. high elfin hepatic forest at timberline; Punccu camp",3220 meters,c. 73°53'W; 12°45'S,1721727,Typed,no type status
https://fm-digital-assets.fieldmuseum.org/675/982/V0225274F.jpg,V0225274F,G. Klug,G. Klug,,1595,April 1930,1930-04-00,,Ficus Llewelynii Standl.,Ficus trigona L.f.,M. Vásquez Avila,1983,,Peru,Loreto,,,"Dept. Loreto: Mishuyacu, near Iquitos, alt. 100 meters; forest","Dept. Loreto: Mishuyacu, near Iquitos; forest",forest,100 meters,,873381,Mix of Handwritten and Typed,no type status
https://fm-digital-assets.fieldmuseum.org/736/767/V0224820F.jpg,V0224820F,Mildred E. Mathias Dermot Taylor,M. E. Mathias,D. Taylor,5576,13 July 1961,1961-07-13,,Malpigh.(?) [Malpighiaceae],Malpighiaceae,W. R. Anderson,1983,,Peru,Loreto,,,vicinity of Requena,vicinity of Requena,,,,1733057,Mix of Handwritten and Typed,no type status
https://fm-digital-assets.fieldmuseum.org/939/013/V0304780F.jpg,V0304780F,José Schunke Vigo,J Schunke Vigo,,6677,17 Dec. 1964,1964-12-17,,Paullinia bracteosa Radlk.,Paullinia bracteosa Radlk.,D. R. Simpson,"Oct.,1970",,Peru,Loreto,,,Quebrada de Maquia (Contamana),"Quebrada de Maquia, (Contamana) in tall forest",tall forest,220 m,,1717601,Mix of Handwritten and Typed,no type status
https://fm-digital-assets.fieldmuseum.org/785/493/V0238260F.jpg,V0238260F,Llewelyn Williams,L Williams,,3363,"SEPT.-OCT., 1929",1929-09-00,1929-10-00,Psychotria viridis R&P,Psychotria viridis R.A.,,,,Peru,Loreto,,,ALTO RIO ITAYA Paraiso,ALTO RIO ITAYA Paraiso,forest,145 M,,614121.0,Mix of Handwritten and Typed,no type status
https://fm-digital-assets.fieldmuseum.org/736/994/V0225047F.jpg,V0225047F,"T. Plowman, A. Sagástegui A., J. Mostacero L., F. R. Mejía & F. Peláez",T. Plowman,A. Sagástegui A. | J. Mostacero L. | F. R. Mejía | F. Peláez,14242,12 July 1986,1986-07-12,,Abutilon mollissimum (Cav.) Sweet,Abutilon mollissimum (Cav.) Sweet,P Fryxell,1987,,Peru,Cajamarca,Jaén,,"Road from Pucará to Chamaya, km. 21 east of Pucará, along Río Huancabamba","Road from Pucará to Chamaya, km. 21 east of Pucará, along Río Huancabamba",Dry scrub forest on steep slopes,700 m,,1973380,Typed,no type status
https://fm-digital-assets.fieldmuseum.org/738/506/V0239614F.jpg,V0239614F,Magda Chanco with Michelle McMahon and Larry Hufford,M. Chanco,M. McMahon | L. Hufford,s.n.,14 April 2003,2003-04-14,,Abutilon sp.,Abutilon sp.,,,,Peru,Cajamarca,,,Chilete-San Pablo road about 15 km from Chilete,Chilete-San Pablo road about 15 kilometers from Chilete,,3614 feet,S7° 10.554' W78° 49.665',2253555,Typed,no type status
https://fm-digital-assets.fieldmuseum.org/1611/031/V0414961F.jpg,V0414961F,"Marcos Rios, Tony Mori, Nigel Pitman, Luis Torres, Corine Vriesendorp",M. Ríos,T. Mori | N. Pitman | L. Torres | C. Vriesendorp,4399,13 octubre 2014,2014-10-13,,Andira macrothyrsa Ducke,Andira macrothyrsa Ducke,,,,Peru,Loreto,Requena,,"Quebrada Yanayacu-Río Blanco. Campamento Wiswincho del inventario rápido #27, de la región Tapiche-Blanco. 05°48'33.5""S 73°51'53.8""W. Alt. 90-110 msnm","Quebrada Yanayacu-Río Blanco. Campamento Wiswincho del inventario rápido #27, de la región Tapiche-Blanco",Bosque de planicie inundable de aguas blancas,90-110 msnm,"05°48'33.5""S 73°51'53.8""W",2318558,Typed,no type status
https://fm-digital-assets.fieldmuseum.org/1611/032/V0414962F.jpg,V0414962F,"Marcos Ríos, Tony Mori, Nigel Pitman, Luis Torres, Corine Vriesendorp",M. Ríos,T. Mori | N. Pitman | L. Torres | C. Vriesendorp,4399,13 octubre 2014,2014-10-13,,Andira macrothyrsa Ducke,Andira macrothyrsa Ducke,,,,Peru,Loreto,Requena,,"Quebrada Yanayacu-Río Blanco. Campamento Wiswincho del inventario rápido #27, de la región Tapiche-Blanco. 05°48'33.5""S 73°51'53.8""W","Quebrada Yanayacu-Río Blanco. Campamento Wiswincho del inventario rápido #27, de la región Tapiche-Blanco","Bosque de Planicie Inundable de aguas blancas. Árbol 7 m, flores amarillas y los botones son de color beish (beige)",90-110 msnm,"05°48'33.5""S 73°51'53.8""W",2318557,Typed,no type status
https://fm-digital-assets.fieldmuseum.org/1743/655/V0462893F.jpg,V0462893F,Ynes Mexia,Y. Mexia,,8265,"Oct. 9, 1936",1936-10-09,,Piper callosum Ruiz & Pavon,Piper callosum Ruiz & Pavon,W. Trelease,,,Peru,Huanuco,Huanuco,,Near confluence Rio Cayumba with Huallaga,Near confluence Rio Cayumba with Huallaga,forested slope above road,805 m,,1066996,Typed,no type status
https://fm-digital-assets.fieldmuseum.org/1743/657/V0462895F.jpg,V0462895F,Ynes Mexia,Y. Mexia,,6157,"Nov. 24, 1931",1931-11-24,,Piper callosum Ruiz & Pav.,Piper callosum Ruiz & Pav.,W. Trelease,,,Peru,Loreto,,,"Above Pongo de Manseriche, Right bank of mouth of Rio Santiago; dense forest","Above Pongo de Manseriche, Right bank of mouth of Rio Santiago; dense forest",Dense forest,200 m,,872277,Typed,no type status
https://fm-digital-assets.fieldmuseum.org/1743/506/V0441679F.jpg,V0441679F,Coll. Donald R. Simpson & José Schunke V.,D. R. Simpson,J. Schunke V.,565,"January 4, 1968",1968-01-04,,Ipomoea carnea Jacq.,Ipomoea carnea Jacq.,D. Simpson,Jan. 1969,,Peru,Tumbes,Tumbes,,"Bosque Nacional de Tumbes: Región de ""bosque muy seco tropical"" (sensu Tosi, 1960) cerca de El Caucho o entre El Caucho y Pampas de Hospital. Along the road about 10 km. northwest of El Caucho","Bosque Nacional de Tumbes: Región de ""bosque muy seco tropical"" (sensu Tosi, 1960) cerca de El Caucho o entre El Caucho y Pampas de Hospital. Along the road about 10 kilometers northwest of El Caucho","Vine clambering over shrubs; corolla pale lavender, open in the morning sun, closed on this cloudy afternoon when collected. Common from the dry, deciduous forest zone, downward into the very dry thorn-scrub",,,1897948.0,Typed,no type status
https://fm-digital-assets.fieldmuseum.org/1743/504/V0441677F.jpg,V0441677F,T. Plowman & P. M. Rury,T. Plowman,P. M. Rury,11105,6 December 1981,1981-12-06,,Ipomoea carnea Jacq.,Ipomoea carnea Jacq.,A McDonald,1983,,Peru,Huánuco,Huánuco,,8 km. northeast of Huánuco on road to Tingo María,8 kilometers northeast of Huánuco on road to Tingo María,Scandent shrub on roadside near houses. Stem with milky sap. Fls. pink.,1750 m,"Approx. 9°52'S., 76°11'W",1896900,Typed,no type status
https://fm-digital-assets.fieldmuseum.org/1684/390/V0401892F.jpg,V0401892F,Robin B. Foster,R. B. Foster,,4240,"Aug. 19, 1978",1978-08-19,,Aechmea,Aechmea corymbosa (Mart. ex Schult. & Schult.f.) Mez,E. J. Gouda,2018-02-05,,Peru,Loreto,Maynas,,Rio Nanay Caseria Mishana 30km SW of Iquitos,Prov. Maynas: Rio Nanay Caseria Mishana 30km/SW of Iquitos Callicebus Biological Res. 4km S. of Mishana,Terrestrial in white sand scrub; bracts bright red-pink; flowers white Forested hills on white or brown sand soils,,,1852637,Typed,no type status
https://fm-digital-assets.fieldmuseum.org/1766/135/V0460617F.jpg,V0460617F,"J. Farfán, L. Valenzuela, I. Huamantupa, A. Carazas, W. Argandoña",J. Farfán,L Valenzuela | I Huamantupa | A Carazas | W Argandoña,1262,23 Octubre 2006,2006-10-23,,Anthurium clavigerum Poepp.,Anthurium clavigerum Poepp.,T. B. Croat,2008,,Peru,Cusco,La Convención,,"Dist. Vilcabamba, Chuanquiri camino a Riobamba, Bosque secundario","Dist. Vilcabamba, Chuanquiri camino a Riobamba, Bosque secundario","Bosque Secundario. Epífita, hasta 70 cm, espádice rojo, espata verde",1009 m,"12°47'15""S 073°10'10""W",2315782,Typed,no type status
https://fm-digital-assets.fieldmuseum.org/1826/292/V0469643F.jpg,V0469643F,Thomas B. Croat,T. B. Croat,,18210,"July 18, 1972",1972-07-18,,Agave americana L.,Agave americana L.,,,,Peru,Loreto,,,Sandy area 12.5 km. SW of Iquitos on road to Lago Quisto-cocha,Sandy area 12.5 km. SW of Iquitos on road to Lago Quisto-cocha,Sandy area,,,,Typed,no type status
https://fm-digital-assets.fieldmuseum.org/227/821/V0075820F.jpg,V0075820F,coll. T. R. Dudley,T. R. Dudley,,10783,4 July 1968,1968-07-04,,Thelypteris dudleyi A. R. Smith,Thelypteris dudleyi A. R. Smith,A R Smith,1989,,Peru,Cuzco,La Convencion,,between camp 4&5; almost to Camp 5,"Cordillera Vilcabamba, between camp 4&5; almost to Camp 5","Common, terrestrial type with bright green foliage & purplish-black & glossy petioles; saxatile on almost vertical rock faces. In full sun on old open landslide, just above the cloud forest, one of the commonest colonizers of landslide",c. 2825 m,12° 37'; 73° 32',1799861.0,Typed,Isotype
https://fm-digital-assets.fieldmuseum.org/227/835/V0075836F.jpg,V0075836F,S Knapp,S. Knapp,,5881,4 July 1982,1982-07-04,,TRICHIPTERIS PINNATA Stolze,Trichipteris pinnata Stolze,Robert G. Stolze,1984,,Panama,Colón,,,"Santa Rita Ridge road, 21-26 km from Transisthmian Highway","Santa Rita Ridge road, 21-26 kilometers from Transisthmian Highway",Tropical wet forest,500-550 m,"9°25'N, 79°37'W",1932768,Typed,Isotype
https://fm-digital-assets.fieldmuseum.org/1121/693/C0616676F.jpg,C0616676F,J. Dorantes,J. Dorantes,,455,01/01/1972,1972-01-01,,Woodwardia spinulosa Mart. & Gal.,Woodwardia spinulosa Mart. & Gal.,I. Mónica Palacios-Rios,"September, 2000",,Mexico,Veracruz,Jalapa,PASS,Alto del Gato,Alto del Gato,BOSQUE CADUCIFOLIO SUELO ROJO ARCILLOSO MUY ABUNDANTE HELECHO PERENNE VEG. RIPARIA,,MAPA 38.5 29.0,1730602.0,Typed,no type status
https://fm-digital-assets.fieldmuseum.org/1086/214/C0644079F.jpg,C0644079F,"A. Monteagudo, C. Mateo, G. Ortiz",A. Monteagudo,C. Mateo | G. Ortiz,4909,10 Abril 2003,2003-04-10,,Blechnum occidentalis L.,Blechnum occidentalis L.,H. van der Werff,2005,,Peru,Pasco,Oxapampa,,"Parque Nacional Yanachaga Chemillen Pozuzo Sector Pan de Azúcar, Zona de Recuperación. Bosque ribereño. 10°15'S 75°13'W 1100-1250m","Parque Nacional Yanachaga Chemillen Pozuzo Sector Pan de Azúcar, Zona de Recuperación. Bosque ribereño.","Helecho terrestre adpreso a la roca, soros marrones",1100-1250m,10°15'S 75°13'W,2287355,Typed,no type status
https://fm-digital-assets.fieldmuseum.org/1098/449/C0658238F.jpg,C0658238F,Ynes Mexia,Y. Mexia,,8066,"May 14,1936",1936-05-14,,Adiantum pulverulentum L.,Adiantum pulverulentum L.,Copeland,,,Peru,Cuzco,La Convencion,,upper valley of Rio Sambray; western affluent of Vilcanota; along stream in virgin forest,upper valley of Rio Sambray; western affluent of Vilcanota; along stream in virgin forest,"Common; scattered. ""Raqui-raqui.""",about 1800 m,,1005396,Typed,no type status
https://fm-digital-assets.fieldmuseum.org/1079/847/C0637474F.jpg,C0637474F,J.I. Calzada,J. I. Calzada,,5759,11-enero-1980,1980-01-11,,Diplazium franconis Liebm.,Diplazium franconis Liebm.,R G Stolze,1983,"Liquidambar styraciflua, Quercus sp., Alnus sp.",Mexico,Veracruz,Xico,Xico,Ranchería de Coatititlán,Ranchería de Coatititlán,"Bosque Caducifolio, Muy húmedo, Café arcilloso, Escasa, Hierba, 1 mts., soros cafés",1820 m.s.n.m.,"19° 23' N, 97° 04' W",1894963,Typed,no type status
https://fm-digital-assets.fieldmuseum.org/1079/274/C0636906F.jpg,C0636906F,Antonio Molina R.,A Molina R,,1427,"Nov. 4, 1948",1948-11-04,,Thelypteris piloso-hispida (Hook) Morton,Thelypteris rudis (Kunze)Proctor,A R Smith,1974,,Honduras,Morazán,,,"Helecho arboreo. Bosque lluvioso, norte de la Mt. Uyuca, caminos Tatumbla, Labranza y Quebrada El Granadillo, sobre la Mt. Uyuca, Drainage of the Rio Yeguare, at about Longitude 87° W. and Latitude 14° N., Department of Morazán","Helecho arboreo. Bosque lluvioso, norte de la Mt. Uyuca, caminos Tatumbla, Labranza y Quebrada El Granadillo, sobre la Mt. Uyuca, Drainage of the Rio Yeguare, at about Longitude 87° W. and Latitude 14° N., Department of Morazán",Bosque lluvioso,1800 m,Longitude 87° W. and Latitude 14° N.,1394536,Typed,no type status
https://fm-digital-assets.fieldmuseum.org/1072/569/C0665739F.jpg,C0665739F,"B. León, K. Young & N. Huapaya",B León,K Young | N Huapaya,2911,10 setiembre 1991,1991-09-10,,Thelypteris euchlora (Sod.) Reed,Thelypteris euchlora (Sod.) Reed,Robert G Stolze,1992,,Peru,Cuzco,Paucartambo,,"Bosque de Nubes, Río La Unión. En ladera","Bosque de Nubes, Río La Unión. En ladera","Hierba, rizoma masivo rastrero, hojas 1.5 m largo, pinnas reducidas base nectarios presentes",1700-1800 m,,2112158,Typed,no type status
https://fm-digital-assets.fieldmuseum.org/1137/337/C0626158F.jpg,C0626158F,"Louis O. Williams, Antonio Molina R., Terua P. Williams, Dorothy N. Gibson, and Chester Laskowski ",L. O. Williams,A. Molina R. | T. P. Williams | D. N. Gibson | C. Laskowski,27621,"January 15, 1965",1965-01-15,,Polypodium blepharodes Maxon,Grammitis blepharodes (Maxon) Seymour,R Stolze,1979,,Nicaragua,Matagalpa,,,"Montane rain forest, or cloud forest, Disparate de Potter, Sta. María de Ostuma, Cordillera Central de Nicaragua, Department of Matagalpa, alt. 1600 m","Montane rain forest, or cloud forest, Disparate de Potter, Sta. María de Ostuma, Cordillera Central de Nicaragua, Department of Matagalpa",Epiphyte on mossy tree,1600 m,,1626179,Typed,no type status
https://fm-digital-assets.fieldmuseum.org/1072/487/C0665657F.jpg,C0665657F,Ken Young & Mark Eisenberg 265,K. Young,M. Eisenberg,265,20 April 1981,1981-04-20,,Thelypteris (subg. Amauropelta) cheilanthoides (Kunze) Proctor,Thelypteris (subg. Amauropelta) cheilanthoides (Kunze) Proctor,A. R. Smith,1989,,Peru,Cuzco,La Convencion,PASS,"Just east of Quillabamba. Finca Chichima; cocoa, coffee, yuca, mangoes, bananas, corn crops grown","Just east of Quillabamba. Finca Chichima; cocoa, coffee, yuca, mangoes, bananas, corn crops grown",Fern. Terrestrial; 1 m tall,1300-1400 m,,2038794,Typed,no type status
https://fm-digital-assets.fieldmuseum.org/330/762/C0045536F.jpg,C0045536F,Thomas G. Lammers,T. G. Lammers,,10674,9 May 1998,1998-05-09,,Dryopteris carthusiana (Vill.) H.P. Fuchs,Dryopteris carthusiana (Vill.) H.P. Fuchs,,,,United States of America,Illinois,Cook Co.,,"Swallow Cliffs Woods Forest Preserve, southwest of the jct. of US Hwy 45 and State Hwy 83","Swallow Cliffs Woods Forest Preserve, southwest of the junction of US Highway 45 and State Highway 83",Local in mesic maple-basswood forest on steep slopes of deep ravine south of toboggan run,,,2228497,Typed,no type status
https://fm-digital-assets.fieldmuseum.org/1139/892/C0627900F.jpg,C0627900F,"Louis O. Williams, Antonio Molina R., Albertina R. Molina",L O Williams,A Molina R. | A R Molina,12562,"Mayo 22, 1963",1963-05-22,,Polypodium montigenum Maxon,Polypodium montigenum Maxon,A Molina R,,,El Salvador,Santa Ana,,,"Bosque abierto de Montaña Montecristo, Department Santa Ana","Bosque abierto de Montaña Montecristo, Department Santa Ana",Epífita. Bosque abierto,2000 m,,1661895,Typed,no type status
https://fm-digital-assets.fieldmuseum.org/217/945/V0082645F.jpg,V0082645F,M. O. Dillon,M. O. Dillon,,5376,21 Dec 1987,1987-12-21,,Notholaena mollis Kunze,Notholaena mollis Kunze,,,,Chile,Antofagasta,Antofagasta,,"Cerro Perales, ca. 5 km E of Taltal, (25° 25' S, 70° 25' W)","Cerro Perales, ca. 5 kilometers E of Taltal","Terrestrial, growing in rock crevices",600-850 m,"25° 25' S, 70° 25' W",2010984.0,Typed,no type status
https://fm-digital-assets.fieldmuseum.org/1073/191/C0666362F.jpg,C0666362F,Rolla M. & Alice F. Tryon,R. M. Tryon,A. F. Tryon,6566,23 October 1965,1965-10-23,,Thelypteris Lindigii (C.Chr.) Alston,"Thelypteris rufa (Poir.) A.R.Smith, ined.",A R Smith,"1979, 1989",,Peru,Ancash,,,"Road from Huaras to Cusma, west valley","Road from Huaras to Cusma, west valley",damp shaded rocks,2800 m,,1833066,Typed,no type status
https://fm-digital-assets.fieldmuseum.org/1073/037/C0666207F.jpg,C0666207F,"E. P. Killip, A. C. Smith",E. P. Killip,A. C. Smith,29741,"September 20-22, 1929",1929-09-20,1929-09-22,Dryopteris megalodus (Schk.) Urban,Thelypteris pennata (Poiret) C. Morton,A R Smith,1989,,Peru,Loreto,,,"Soledad, on Rio Itaya; alt. about 110 meters; dense forest","Soledad, on Rio Itaya; dense forest",Dense forest,about 110 meters,,1520668,Mix of Handwritten and Typed,no type status
https://fm-digital-assets.fieldmuseum.org/1073/036/C0666206F.jpg,C0666206F,"E. P. Killip, A. C. Smith",E P Killip,A. C. Smith,29437,"September 18, 1929",1929-09-18,,Dryopteris megalodus (Schk.) Urban,Thelypteris pennata (Poiret) C. Morton,A R Smith,1989,,Peru,Loreto,,,"Dept. Loreto: San Antonio, on Rio Itaya, alt. about 110 meters, dense forest","San Antonio, on Rio Itaya, dense forest",Dense forest,about 110 meters,,PASS,Mix of Handwritten and Typed,no type status
https://fm-digital-assets.fieldmuseum.org/1073/033/C0666203F.jpg,C0666203F,Macbride & Featherstone,J F Macbride,Featherstone,1622,"July 8-22, 1922",1922-07-08,1922-07-22,Dryopteris Pavoniana (Kl.) C.Chr.,Thelypteris pavoniana (Kl.) Tryon,A R Smith,1979,,Peru,,,,Sunny dirt ledgs of the grass-shrub formation,Sunny dirt ledgs of the grass-shrub formation,Sunny dirt ledgs of the grass-shrub formation,ABOUT 9000 FT,,518129,Mix of Handwritten and Typed,no type status
https://fm-digital-assets.fieldmuseum.org/1073/032/C0666202F.jpg,C0666202F,J. J. WURDACK No. 705,J. J. Wurdack,,705,1 June 1962,1962-06-01,,Thelypteris (Thelypteris) pavoniana (Klotzsch),Thelypteris pavoniana (Klotzsch) Tryon,A R Smith,"1979, 1989",,Peru,Amazonas,Chachapoyas,,Upper slopes of Puma-urcu east-southeast of Chachapoyas,Upper slopes of Puma-urcu east-southeast of Chachapoyas,"On banks, locally frequent",2700-3000 m,,1647265,Typed,no type status
https://fm-digital-assets.fieldmuseum.org/1072/942/C0666112F.jpg,C0666112F,Rolla M. Tryon & Alice F. Tryon,R. M. Tryon,A. F. Tryon,5202,"Aug. 13, 1956",1956-08-13,,Thelypteris,Thelypteris opulenta (Kaulf.) Fosberg,A R Smith,"1979, 1990",,Peru,Loreto,Maynas,PASS,"Rio Itaya, 10 km. s. of Iquitos","Rio Itaya, 10 kilometers south of Iquitos",In old banana planting,,,1587072,Typed,no type status
https://fm-digital-assets.fieldmuseum.org/1081/508/C0639123F.jpg,C0639123F,"Louis O. Williams, Antonio Molina R. and Terua P. Williams",L. O. Williams,A. Molina R. | T. P. Williams,23634,"January 8-15, 1963",1963-01-08,1963-01-15,Lycopodium clavatum L.,Lycopodium clavatum L.,C V Morton & D B Lellinger,1964,,Nicaragua,Matagalpa,,,"Cloud forest area, Sta. María de Ostuma, Cordillera Central de Nicaragua between Matagalpa and Jinotega, Department of Matagalpa, alt. 1300-1500 meters","Cloud forest area, Sta. María de Ostuma, Cordillera Central of Nicaragua between Matagalpa and Jinotega, Department of Matagalpa",Terrestrial on open bank,1300-1500 meters,,1604338,Typed,no type status
https://fm-digital-assets.fieldmuseum.org/1748/926/C0675553F.jpg,C0675553F,"John T. Atwood, Jr.",J T Atwood,,77105,8 Feb. 1977,1977-02-08,,Adiantum trapeziforme L.,Adiantum exuberans McCarthy & Hickey,M. R. McCarthy,2012,,Nicaragua,Granada,,,Volcan Mombacho. Lower cloud forest near finca Cutirre,Volcan Mombacho. Lower cloud forest near finca Cutirre,Lower cloud forest,,,1868242,Typed,no type status
https://fm-digital-assets.fieldmuseum.org/1749/002/C0675619F.jpg,C0675619F,H. et al.,G B Hinton,PASS,7644,4-21-35,1935-04-21,,Adiantum trapeziforme L.,Adiantum exuberans McCarthy & Hickey,M. R. McCarthy,2012,,Mexico,Méx,Temascaltepec,PASS,Pantoja,Pantoja,Dry barranca,,,954869,Typed,no type status
https://fm-digital-assets.fieldmuseum.org/1751/323/C0355438F.jpg,C0355438F,R.A.Maas Geesteranus,R. A. Maas Geesteranus,,5744,12-VIII-1949,1949-08-12,,Asplenium dregeanum Kze.,Asplenium sandersonii Hook.,R. Faden,1976,Conopharyngia holstii,Kenya,Nyanza,Kericho Distr.,,"South Western Mau Forest Reserve, camp 8, lat. 0°36'30"" S., long. 35°18'20"" E.","South Western Mau Forest Reserve, camp 8","riparian-woodland along the river Itare, epiphytic, frond fairly pale green; shaded, frequent",1920 m s.m.,"lat. 0°36'30"" S., long. 35°18'20"" E.",1445440,Mix of Handwritten and Typed,no type status
https://fm-digital-assets.fieldmuseum.org/1824/625/C0359489F.jpg,C0359489F,"M. Véliz con J. M. Véliz, J. Charco, H. Sains, J. Lopez y R. Esteban",M. Véliz,J. M. Véliz | J. Charco | H. Sains | J. Lopez | R. Esteban,MV 16199,22/XI/2005,2005-11-22,,Lophosoria quadripinnata (J.F. Gmel)C. Chr. var quadripinnata LOPHOSORIACEAE,Lophosoria quadripinnata (J.F. Gmel)C. Chr. var quadripinnata,M. Véliz,24/XI/2005,Quercus sp,Guatemala,Jalapa,,Aldea San Raymundo,río Manzanillos,río Manzanillos,"Helecho muy frecuente, con frondes compuestos, glaucos en el envés, creciendo dentro de bosque de Quercus sp",2308 msnm,"14° 33' 43.7"" N, 90° 06' 19.7"" O",2298970,Typed,no type status
https://fm-digital-assets.fieldmuseum.org/1752/612/C0662895F.jpg,C0662895F,"CHAS. F. MILLSPAUGH, M. D.",C. F. Millspaugh,,893,JAN. 28-FEB. 6,1899-01-28,1899-02-06,Asplenium dentatum L.,Asplenium dentatum L.,,,,Jamaica,,,Port Antonio,Port Antonio,PORT ANTONIO,,,,PASS,Typed,no type status
https://fm-digital-assets.fieldmuseum.org/1847/286/C0363828F.jpg,C0363828F,T. G. Yuncker,T. G. Yuncker,,17429,"Nov. 17, 1957",1957-11-17,,Lycopodium cernuum L.,Lycopodium cernuum L.,,,,Jamaica,St. Andrew,,,"Scrambling over side of cut, along trail near Bellevue","Scrambling over side of cut, along trail near Bellevue",Scrambling over side of cut,3000-4000 ft,,1483756,Typed,no type status
https://fm-digital-assets.fieldmuseum.org/1847/445/C0363985F.jpg,C0363985F,Carvalho,Carvalho,,2092,25-VII-1986,1986-07-25,,Lycopodiella cernua (L.) Pic.-Serm.,Lycopodiella cernua (L.) Pic.-Serm.,J. Fernández Casas,1991,,Equatorial Guinea,Bioco,,,"Malabo - Basilé, km 13, cerca de Basilé, 32NMK7808, 390 m, márgenes de la carretera","Malabo - Basilé, km 13, cerca de Basilé, márgenes de la carretera",Postrada. Forma pequeñas colonias dispersas,390 m,32NMK7808,2201362,Typed,no type status
https://fm-digital-assets.fieldmuseum.org/1847/568/C0363442F.jpg,C0363442F,Henk van der Werff,H. van der Werff,,11699,12 June 1990,1990-06-12,,Diplazium assimile (Endl.) Bedd.,Diplazium assimile (Endl.) Bedd.,H van der Werff,1991,,Australia,Queensland,,,"Boonjee logging area, at base of Mt. Bartle Frere","Boonjee logging area, at base of Mt. Bartle Frere",Rainforest,,145°43'E 17°25'S,2094887,Typed,no type status
https://fm-digital-assets.fieldmuseum.org/2128/136/C0378283F.jpg,C0378283F,"M. Tagawa & K. Iwatsuki, No. 1150",M. Tagawa,K. Iwatsuki,1150,"July 28, 1956",1956-07-28,,Diplazium amabile (Tag.) Tag.,Diplazium amabile (Tag.) Tag.,,,,Japan,Kagoshima,,,"western slope of Mt. Hoyoshi, south of Kanoya City","western slope of Mt. Hoyoshi, south of Kanoya City",Wet rocky slope in densely wooded ravine,,,1475055.0,Typed,no type status
https://fm-digital-assets.fieldmuseum.org/1862/027/C0364726F.jpg,C0364726F,W. Takeuchi & J. Wiakabu,W. Takeuchi,J. Wiakabu,9366,"February 5, 1994",1994-02-05,,Blechnum ledermannii Brause,Blechnum ledermannii Brause,,,,Papua New Guinea,New Ireland,,,New Ireland; Hans Meyer Range. Site 4 on the expedition report,New Ireland; Hans Meyer Range. Site 4 on the expedition report,Pristine subcloud forest dominated by bryophytic and ferny growth,c. 1800 m,4°25'S X 152°59'E,2158436.0,Typed,no type status
https://fm-digital-assets.fieldmuseum.org/1864/937/C0366013F.jpg,C0366013F,Tagawa & Iwatsuki,Tagawa,K. Iwatsuki,888,"May 20, 1956",1956-05-20,,Dryopteris crassirhizoma Nakai,Dryopteris crassirhizoma Nakai,,,,Japan,,,,,[precise locality unknown],,,,PASS,Typed,no type status
https://fm-digital-assets.fieldmuseum.org/1863/394/C0366453F.jpg,C0366453F,J. Ohwi,J. Ohwi,,NSM. No. 202,April 1951,1951-04-00,,Polystichum tripteron Presl,Polystichum tripteron Presl,,,,Japan,Honshu,Sagami,,Jimmuji in Sagami,Jimmuji in Sagami,,,,1464206.0,Typed,no type status
https://fm-digital-assets.fieldmuseum.org/1862/882/C0364207F.jpg,C0364207F,Father Morice Vanoverbergh,M Vanoverbergh,,3591,April 19 13,1913-04-19,,Asplenium contiguum.Kaulf,Asplenium contiguum Kaulf,,,,Philippines,Luzon,Bontoc Subprovince,,PASS,[precise locality unknown],,,,393439,Typed,no type status
https://fm-digital-assets.fieldmuseum.org/1897/625/C0376117F.jpg,C0376117F,R.B. & A.J. Faden,R. B. Faden,A. J. Faden,77/53,5 Jan. 1977,1977-01-05,,Pyrossia lanceolata (L.) Farw.,Pyrrosia lanceolata (L.) Farw.,D B Lellinger,1979,,Sri Lanka,North Western Province,Kurunegala,,"Doluwakanda Hill, ca. 7°37'N, 80°24'30""E",Doluwakanda Hill,Forest. Locally common. Lithophyte. Rhizome creeping; fronds widely spaced,600 m,"ca. 7°37'N, 80°24'30""E",2014294,Typed,no type status
https://fm-digital-assets.fieldmuseum.org/1904/108/C0377881F.jpg,C0377881F,"By Albert N. Steward, C. Y. Chiao, and H. C. Cheo",A. N. Steward,C. Y. Chiao | H. C. Cheo,344,"Sept. 4, 1931",1931-09-04,,Dryopteris esquirolii Christ,Thelypteris esquirolii (Christ) Ching,,,,China,Kweichow,,,Ta Ho Yen FAN CHING SHAN,Ta Ho Yen FAN CHING SHAN,Moist brushy slope,980 m,,779919,Typed,no type status
https://fm-digital-assets.fieldmuseum.org/1909/756/C0382365F.jpg,C0382365F,J. F. Barcelona,J. F. Barcelona,,48,November 19 89,1989-11-00,,Selaginella cf. repanda,Selaginella philippina Spring,J F Barcelona,"Nov., 1989",,Philippines,Western Visayas,Antique,Sibalom,Egaña around,Egaña around,in shaded & moist places along riverbank,,,2210265,Mix of Handwritten and Typed,no type status
https://fm-digital-assets.fieldmuseum.org/1896/920/C0368029F.jpg,C0368029F,Col. L. & A. Fay,L. Fay,A. Fay,1206,11 Apr 1985,1985-04-11,,Drynaria laurentii (Christ.) Hieron.,Drynaria laurentii (Christ.) Hieron.,,,,Liberia,,,,Cuttington University College,Cuttington University College,"On tree trunk about 10' from ground; common in groves of rubber trees, on trunks. Pinnae 12-15 pairs (fertile leaves); stipe/blade 15,16,17/55,59,55 cm. Sterile leaves 25 x 12 cm., no stipe",250 m,,2111378,Typed,no type status
https://fm-digital-assets.fieldmuseum.org/1990/120/C0356535F.jpg,C0356535F,Coll. H. St. John,H. St. John,,16662,"Aug. 26, 1934",1934-08-26,,Humata banksii Alston,Humata banksii Alston,E B Copeland,,,French Polynesia,Austral Islands,,,"Northwest slope of Teape, Teti woods, on mossy tree limb, altitude 350 meters","Northwest slope of Teape, Teti woods, on mossy tree limb","Epiphyte. Fronds mostly pendent, coriaceous",350 meters,,1435764,Typed,no type status
https://fm-digital-assets.fieldmuseum.org/1995/841/C0383576F.jpg,C0383576F,T. G. Yuncker,T. G. Yuncker,,"18,561","Mar. 30, 1958",1958-03-30,,Selaginella plana (Desv.) Hieron.,Selaginella plana (Desv.) Hieron.,,,,Jamaica,Portland,,,"On wet embankment along trail, rain forest, John Crow Mts., 1.5-2 miles southwest of Ecclesdown","On wet embankment along trail, rain forest, John Crow Mts., 1.5-2 miles southwest of Ecclesdown","On wet embankment along trail, rain forest",1500-2500 ft,,1481965.0,Typed,no type status
https://fm-digital-assets.fieldmuseum.org/1982/572/C0383180F.jpg,C0383180F,A. Carestia,A. Carestia,,s.n.,1871,1871-00-00,,Lycopodium complanatum L.,Lycopodium complanatum L.,J. H. Wilce,1962,,Italy,,Valsesia,,Salita alla Boscarola presso Scopello in Valsesia,Salita alla Boscarola presso Scopello in Valsesia,,,,PASS,Typed,no type status
https://fm-digital-assets.fieldmuseum.org/1991/498/C0358423F.jpg,C0358423F,coll. G.J. Chamberlain,C. J. Chamberlain,,s.n.,"Oct. 15, 1911",1911-10-15,,Trichomanes reniforme,Trichomanes reniforme,,,,New Zealand,,,Ohakune,Ohakune,[precise locality unknown],,,,1407795,Typed,no type status
https://fm-digital-assets.fieldmuseum.org/2116/918/C0662992F.jpg,C0662992F,"R. L. Wilbur no. 8185 E. L. Dunn, H. A. Hespenheide, D. R. Wiseman",R. L. Wilbur,E. L. Dunn | H. A. Hespenheide | D. R. Wiseman,8185,2 August 1964,1964-08-02,,Hemidaria grandifolia (Willd.),Cnemidaria grandifolia (Willd.) Proctor var. grandifolia,R L Wilbur,1966,,Dominica,Saint Paul,,,Disturbed rainforest in the upper Layou Valley about 5 miles from Clarke Hall towards Pont Cassé,Disturbed rainforest in the upper Layou Valley about 5 miles from Clarke Hall towards Pont Cassé,Disturbed rainforest,,,1670026,Typed,no type status
https://fm-digital-assets.fieldmuseum.org/2128/029/C0377971F.jpg,C0377971F,R.B. & A.J. Faden,R. B. Faden,A. J. Faden,77/31,2 Jan 1977,1977-01-02,,Trichospora obtusilobus Sledge = Thelypteris,Trichospora obtusilobus Sledge,,,,Sri Lanka,Central,Nuwara Eliya,,between mile posts 46/3 and 46/4 on Nuwara Eliya-Kandy road,Between mile posts 46/3 and 46/4 on Nuwara Eliya-Kandy road,Shady moist bank near stream. Local and uncommon,ca 1980 m,"6°59'N,80°45'E",2089703,Typed,no type status
https://fm-digital-assets.fieldmuseum.org/326/926/C0003693F.jpg,C0003693F,leg. HK.,H K,,68/641,5.VII.1968,1968-07-05,,Crucispora naucorioides HK. 1971 (Typus),Crucispora naucorioides HK. 1971,,,"Cyathea dealbata, C. smithii, Phyllocladus, Podocarpus",New Zealand,,,,"Kauaeranga Valley, Coromandel Peninsula, N.Z.","Kauaeranga Valley, Coromandel Peninsula","in Humus unter Cyathea dealbata, C. smithii, Phyllocladus, Podocarpus, etc.",,,1017207,Typed,Typus
https://fm-digital-assets.fieldmuseum.org/407/128/C0004429F.jpg,C0004429F,Singer,Singer,,B 7463,14 V 1973,1973-05-14,,Hygrocybe dimorphobasidiata Sing.,Hygrocybe dimorphobasidiata Sing.,,,,Ecuador,Napo,,Lago Agrio,Lago Agrio,Lago Agrio,Ad terram in hylaea,,,1017827.0,Typed,Type
https://fm-digital-assets.fieldmuseum.org/407/130/C0004430F.jpg,C0004430F,Singer,R Singer,,M10517,23 II 1988,1988-02-23,,HYGROCYBE FUEGIANA Sing. (= H. rosea sensu Horak),HYGROCYBE FUEGIANA Sing.,,,Sphagnum spec. and Rubus geoides,Argentina,Tierra del Fuego,Ushuaia,,"road Ushuaya-Lago Fagnano, SW of highest point","road Ushuaya-Lago Fagnano, SW of highest point",Gregarious in bog margin with Sphagnum spec. and Rubus geoides,,,1075922.0,Typed,Holotype
https://fm-digital-assets.fieldmuseum.org/276/684/C0000578F.jpg,C0000578F,"John J. Engel, Matt von Konrat & John E. Braggins",J. J. Engel,M. von Konrat | J. E. Braggins,23773,12 February 2003,2003-02-12,,Telaranea lindenbergii var. papillata Engel & Merr.,Telaranea lindenbergii var. papillata Engel & Merr.,,,"Blechnum novae-zealandiae, Weinmannia, Dicksonia squarrosa, Leptospermum scoparium",New Zealand,Auckland,,,"Whareorino Forest, start of track to Leitch's Hut","Whareorino Forest, start of track to Leitch's Hut","On clayey bank. Clay banks with Blechnum novae-zealandiae overhang, Weinmannia and Dicksonia squarrosa dominant canopy and occasional Leptospermum scoparium",280 m,"38° 24.5' S., 174° 49.8' E",1173554,Typed,Holotype
https://fm-digital-assets.fieldmuseum.org/2535/382/C2079898F.jpg,C2079898F,Marko Lewis,M. Lewis,,78-2684,21-22 November 1978,1978-11-21,1978-11-22,Kindbergia praelonga (Hedw.) Ochyra,Kindbergia praelonga (Hedw.) Ochyra,W. C. Steere,,,Ecuador,Imbabura,,,"PROV. IMBABURA: E. side of Cerro Cotacachi, NW of Cotacachi, 0°22'N., 78°20'W.","E. side of Cerro Cotacachi, NW of Cotacachi, 0°22'N., 78°20'W.",Wet bank of runoff ravine,3750 m,"0°22'N., 78°20'W.",1065158,Mix of Handwritten and Typed,no type status
https://fm-digital-assets.fieldmuseum.org/2537/873/C2077559F.jpg,C2077559F,Marko Lewis,M. Lewis,,78-3163,8 December 1978,1978-12-08,,Hedwigia ciliata (Hedw.) P. Beauv.,Hedwigia ciliata (Hedw.) P. Beauv.,W C Steere,1992,,Ecuador,Azuay,,,"PROV. AZUAY: Area Nacional de Recreación ""Cajas"", forested hill S. of ""Surrochucho"" (Laguna Llaviuco), SW of Sayausí, 2°55'S., 79°09'W.","PROV. AZUAY: Area Nacional de Recreación ""Cajas"", forested hill S. of ""Surrochucho"" (Laguna Llaviuco), SW of Sayausí, 2°55'S., 79°09'W.",Stone wall,3240 m,"2°55'S., 79°09'W.",1065433,Typed,no type status
https://fm-digital-assets.fieldmuseum.org/2537/883/C2077563F.jpg,C2077563F,Leg. R.Benoist,R. Benoist,,4659 pp,s.d.,sd,,Hedwigia albicans (Web.)Lindb.,Hedwigia ciliata (Hedw.) P. Beauv.,Efrain De Luna,1992,,Ecuador,PASS,,,Environs de Quito,Environs de Quito,,,,1089453,Mix of Handwritten and Typed,no type status
https://fm-digital-assets.fieldmuseum.org/2537/887/C2077564F.jpg,C2077564F,Leg. R.Benoist,R Benoist,,2279,27 mars 1930,1930-03-27,,Hedwigia albicans (Web.)Lindb.,Hedwigia ciliata (Hedw.) P. Beauv.,Efrain De Luna,1992,,Ecuador,PASS,,Quito,Equateur. Sur rocher d'andésite. Quito.,[precise locality unknown],Sur rocher d'andésite,,,1089455.0,Typed,no type status
https://fm-digital-assets.fieldmuseum.org/2537/891/C2077565F.jpg,C2077565F,"COLLECTED BY R. S. WILLIAMS, 1901-1902",R. S. Williams,,2850,"April 30, 1902",1902-04-30,,Hedwigia albicans (Web.) Lindb.,Hedwigia ciliata (Hedw.) P. Beauv.,E De Luna,1992,,Bolivia,,,,Near Pelichuco,Near Pelichuco,,3000 meters,,1089454.0,Mix of Handwritten and Typed,no type status
https://fm-digital-assets.fieldmuseum.org/2537/895/C2077566F.jpg,C2077566F,Marko Lewis,M. Lewis,,79-1237A,22 March 1979,1979-03-22,,Hedwigia ciliata (Hedw.) P. Beauv.,Hedwigia ciliata (Hedw.) P. Beauv.,E De Luna,1992,,Bolivia,La Paz,Larecaja,PASS,"DEPTO. LA PAZ, PROV. LARECAJA: Near large red outcrop 2 mi. from Sorata down Río Consata, 15° 41' S., 68° 43' W.","Near large red outcrop 2 miles from Sorata down Río Consata, 15° 41' S., 68° 43' W.",Bromeliad habitat. Abundant on rock faces of exposed cliffs,2630 m,"15° 41' S., 68° 43' W.",1032221,Typed,no type status
https://fm-digital-assets.fieldmuseum.org/2537/899/C2077567F.jpg,C2077567F,Marko Lewis,M. Lewis,,79-1232,22 March 1979,1979-03-22,,Hedwigia ciliata (Hedw.) P. Beauv.,Hedwigia ciliata (Hedw.) P. Beauv.,E De Luna,1992,,Bolivia,La Paz,Larecaja,,"DEPTO. LA PAZ, PROV. LARECAJA: Near large red outcrop 2 mi. from Sorata down Rio Consata, 15° 41' S., 68° 43' W.","Near large red outcrop 2 miles from Sorata down Rio Consata, 15° 41' S., 68° 43' W.",Bromeliad-grass habitat on exposed cliffs,2630 m,"15° 41' S., 68° 43' W.",1032219.0,Typed,no type status
https://fm-digital-assets.fieldmuseum.org/2537/903/C2077568F.jpg,C2077568F,Marko Lewis,M. Lewis,,79-1114,6 March 1979,1979-03-06,,Hedwigia ciliata (Hedw.) P. Beauv.,Hedwigia ciliata (Hedw.) P. Beauv.,E De Luna,1992,,Bolivia,La Paz,Saavedra,,"On mountain side directly N. of river, beneath Niño Karine, NNW of Chuma","On mountain side directly N. of river, beneath Niño Karine, NNW of Chuma, 15° 08' S, 69° 03' W",Humid cliffs and steep slopes,3320 m,"15° 08' S, 69° 03' W",1032220.0,Typed,no type status
https://fm-digital-assets.fieldmuseum.org/2537/908/C2077569F.jpg,C2077569F,F. J. Hermann,F. J. Hermann,,25152,"December 27, 1972",1972-12-27,,Hedwigia ciliata (Hedw.) Beauv.,Hedwigia ciliata (Hedw.) P. Beauv.,E De Luna,1992,,Bolivia,Cochabamba,,Cochabamba,"On conglomerate boulder on shrubby NW slope of Mt. Tunari, near Liriuni Aguas Termales Hotel, alt. ca. 2700 m., 28 km. NW","On conglomerate boulder on shrubby NW slope of Mt. Tunari, near Liriuni Aguas Termales Hotel, 28 km. NW [precise locality unknown]",On conglomerate boulder on shrubby NW slope,ca. 2700 m,,1040675,Typed,no type status
https://fm-digital-assets.fieldmuseum.org/2537/555/C2077570F.jpg,C2077570F,Ynes Mexia,Y. Mexia,,6204,"Dec. 2, 1931",1931-12-02,,Pilosium subchlorophyllosum C.M.,Pilosium subchlorophyllosum C.M.,Bartram,,,Peru,Loreto,,,Above Pongo de Manseriche. Streamlet near mouth of Rio Santiago.,Above Pongo de Manseriche. Streamlet near mouth of Rio Santiago,On fallen log,400 m,,1057692,Typed,no type status
https://fm-digital-assets.fieldmuseum.org/2537/556/C2077571F.jpg,C2077571F,Ynes Mexia,Y. Mexia,,6204,"Dec. 2, 1931",1931-12-02,,Pilosium sub-lorophyllum C.M.,Pilosium sub-lorophyllum C.M.,Bartram,,,Peru,Loreto,,,Above Pongo de Manseriche. Streamlet near mouth of Rio Santiago.,Above Pongo de Manseriche. Streamlet near mouth of Rio Santiago.,On fallen log,400 m,,2077571.0,Typed,no type status
https://fm-digital-assets.fieldmuseum.org/2537/557/C2077572F.jpg,C2077572F,"A. C. SMITH, NO. 2748",A. C. Smith,,2748,"Dec. 15-24, 1937",1937-12-15,1937-12-24,Pilosium flaccisetum C.M.,Pilosium flaccisetum C.M.,E. B. Bartram,,,Guyana,,,,"Basin of Essequibo River, near mouth of Onoro Creek, lat. about 1°35' N.; dense forest","Basin of Essequibo River, near mouth of Onoro Creek, lat. about 1°35' N.; dense forest","On decayed wood, in swamp",,lat. about 1°35' N,1023751,Mix of Handwritten and Typed,no type status
https://fm-digital-assets.fieldmuseum.org/2537/558/C2077573F.jpg,C2077573F,J.Florschütz-de Waard & R.Zielman,J Florschütz-de Waard,R. Zielman,5315,5 - 11 - 1981,1981-11-05,,Pilosium chlorophyllum (Hornsch.)C.Müll. c.fr.,Pilosium chlorophyllum (Hornsch.)C.Müll.,R Zielman,,Cecropia (bospapaja),Suriname,,,,"area of Kabalebo Dam project, distr. Nickerie, line NW from road km 39.5, p. 5N 58W qu.SE","area of Kabalebo Dam project, distr. Nickerie, line NW from road km 39.5, p. 5N 58W qu.SE",Secondary wood with Cecropia (bospapaja) on rotting log,0-50 m,5N 58W qu.SE,1073523,Typed,no type status
https://fm-digital-assets.fieldmuseum.org/2537/559/C2077574F.jpg,C2077574F,J.Florschütz-de Waard & R.Zielman,J Florschütz-de Waard,R Zielman,5254,3-11-1981,1981-11-03,,Pilosium chlorophyllum(Hornsch.)C.Müll.,Pilosium chlorophyllum(Hornsch.)C.Müll.,R Zielman,,,Suriname,Nickerie,,,"Area of Kabalebo Dam project, distr. Nickerie, line NW from road km 39.5, p. 5N 56W qu. SE","Area of Kabalebo Dam project, distr. Nickerie, line NW from road km 39.5, p. 5N 56W qu. SE","Savanna forest, on rotting log",0 - 50 m,PASS,1073529,Typed,no type status
https://fm-digital-assets.fieldmuseum.org/2537/560/C2077575F.jpg,C2077575F,J.Florschütz-de Waard & R.Zielman,J Florschütz-de Waard,R Zielman,5098,30-10-1981,1981-10-30,,Pilosium chlorophyllum(Hornsch.)C.Müll.,Pilosium chlorophyllum(Hornsch.)C.Müll.,R Zielman,,,Suriname,,,,"Area of Kabalebo Dam project, distr. Nickerie, line W from road 34 km, p. 5N 58W qu. SE","Area of Kabalebo Dam project, distr. Nickerie, line W from road 34 km, p. 5N 58W qu. SE","Rainforest, on rotting log",0 - 50 m,PASS,1073528,Typed,no type status
https://fm-digital-assets.fieldmuseum.org/2537/561/C2077576F.jpg,C2077576F,"J.C.Lindeman, A.R.A.Görts-van Rijn, M.J.Jansen-Jacobs & A.M.C.Hetterscheid-Hollants",J. C. Lindeman,A R A Görts-van Rijn | M J Jansen-Jacobs | A M C Hetterscheid-Hollants,243 A,3-IX-1980,1980-09-03,,Pilosium chlorophyllum (Hornsch.) C.Müll.,Pilosium chlorophyllum (Hornsch.) C.Müll.,H R Zielman,,,Suriname,,,,"Area of Kabalebo Dam project, distr.Nickerie, 4° 5° NB, 57° 30' 58° WL. Forest S of km 28.7","Area of Kabalebo Dam project, distr.Nickerie, Forest S of km 28.7",Epiphyte on tree trunk,30 - 130 m,"4° 5° NB, 57° 30' 58° WL",1073527.0,Typed,no type status
https://fm-digital-assets.fieldmuseum.org/2537/562/C2077577F.jpg,C2077577F,J. Florschütz-de Waard and R. Zielman,J Florschütz-de Waard,R Zielman,5141,31 October 1981,1981-10-31,,Pilosium chlorophyllum (Hornsch.) C. Müll.,Pilosium chlorophyllum (Hornsch.) C. Müll.,R Zielman,,Astrocaryum,Suriname,Nickerie,,,"Distr. Nickerie, Kabalebo river area, line W, from road km 34, 5°N., 58°W., alt. 0-50 m","Distr. Nickerie, Kabalebo river area, line W, from road km 34, 5°N., 58°W",On decaying log in marsh forest with Astrocaryum,0-50 m,"5°N., 58°W.",1079833,Typed,no type status
https://fm-digital-assets.fieldmuseum.org/2537/563/C2077578F.jpg,C2077578F,J. and P.A. Florschütz 4690,J Florschütz,P. A. Florschütz,4690,18 December 1975,1975-12-18,,Pilosium chlorophyllum (Hornsch.) C. Muell.,Pilosium chlorophyllum (Hornsch.) C. Muell.,R Zielman | J Florschütz-de Waard,,,Suriname,,,,"Brownsberg, trail to Leo Val, alt. ca. 500 m","Brownsberg, trail to Leo Val",On rotting log in rainforest,ca. 500 m,,1065613.0,Typed,no type status
https://fm-digital-assets.fieldmuseum.org/2537/564/C2077579F.jpg,C2077579F,H.Cornelissen & S.R.Gradstein C076,H. Cornelissen,S. R. Gradstein,C076,8 March 1977,1977-03-08,,Pilosium chlorophyllum (Hornsch.) C. Müll.,Pilosium chlorophyllum (Hornsch.) C. Müll.,J Florschütz-de Waard,,,Guyana,,,,"Mabura Hill, 180 km S of Georgetown, 5°20'N 58°40'W, alt. 0-50 m","Mabura Hill, 180 km S of Georgetown",On rotting tree base in mixed rain forest,0-50 m,5°20'N 58°40'W,1091586,Typed,no type status
https://fm-digital-assets.fieldmuseum.org/2537/565/C2077580F.jpg,C2077580F,R. Spruce,R. Spruce,,1321,s.d.,sd,,Stereophyllum chlorophyllum. Hornsch.,Pilosium chlorophyllum (Hornsch.) C. Müll. in Broth.,R R Ireland | W R Buck,1992,,Brazil,,,,Fl. Amazon prope Para,Fl. Amazon prope Para,,,,1078188,Mix of Handwritten and Typed,no type status
https://fm-digital-assets.fieldmuseum.org/2537/566/C2077581F.jpg,C2077581F,Richard Evans Schultes et Isidoro Cabrera,R. E. Schultes,I. Cabrera,17922,"Oct. 22, 1952",1952-10-22,,Pilosium chlorophyllum (Hornsch.) Jaeg.,Pilosium chlorophyllum (Hornsch.) Jaeg.,H. A. Crum,1956,,Colombia,Vaupés,,PASS,Río Vaupés: Mitú and vicinity. Cerro Mitú,Río Vaupés: Mitú and vicinity. Cerro Mitú,On rotten log,,"Lat. 1° 0' N, Long. 70° 5' W",1055492,Mix of Handwritten and Typed,no type status
https://fm-digital-assets.fieldmuseum.org/2537/567/C2077582F.jpg,C2077582F,Richard Evans Schultes et Isidoro Cabrera,R. E. Schultes,I. Cabrera,14294,"October 4-6, 1951",1951-10-04,1951-10-06,Pilosium chlorophyllum (Hornsch.) C.M.,Pilosium chlorophyllum (Hornsch.) C.M.,H. A. Crum,1956,,Colombia,Vaupés,,,"Rio Kuduyari (affluent of Rio Vaupés), Yapobodá, quartzitic savannah","Rio Kuduyari (affluent of Rio Vaupés), Yapobodá, quartzitic savannah",On rotten logs,,,1055491,Typed,no type status
https://fm-digital-assets.fieldmuseum.org/2537/568/C2077583F.jpg,C2077583F,Richard Evans Schultes,R. E. Schultes,,12309,June 1951,1951-06-00,,Pilosium chlorophyllum (Hornsch.) C.M. in Broth.,Pilosium chlorophyllum (Hornsch.) C.M. in Broth.,D Griffin III,June 1951,,Colombia,Vaupés,,,"Comisaría del Vaupés, Rio Apaporis. Soratama","Comisaría del Vaupés, Rio Apaporis. Soratama",On trunks,,,1055490,Mix of Handwritten and Typed,no type status
https://fm-digital-assets.fieldmuseum.org/2537/569/C2077584F.jpg,C2077584F,Richard Evans Schultes,R. E. Schultes,,11128,Dec. 1950,1950-12-00,,Pilosium chlorophyllum (Hornsch.) C.M. in Broth.,Pilosium chlorophyllum (Hornsch.) C.M. in Broth.,D Griffin III,,,Colombia,Guaviare,,San Jose del Guaviare,San Jose del Guaviare,San Jose del Guaviare,,,,1055459.0,Typed,no type status
https://fm-digital-assets.fieldmuseum.org/2537/570/C2077585F.jpg,C2077585F,Ynes Mexia,Y. Mexia,,6014a,"Aug. 31, 1931",1931-08-31,,Diclonum chlorophyllum (Hornsch.) C.M.,Pilosum chlorophyllum (Hsch.) C.M.,Bartram,,,Brazil,Pará,,PASS,Districto Acará. Thomé Assú; down Rio Acará 3 km.,Districto Acará. Thomé Assú; down Rio Acará 3 kilometers,On fallen log,35 m,,2077585.0,Typed,no type status
https://fm-digital-assets.fieldmuseum.org/2537/571/C2077586F.jpg,C2077586F,Ynes Mexia,Y. Mexia,,5914,"July 16, 1931",1931-07-16,,Pilosium Chlorophyllosum (Hsch.) C.M.,Pilosium Chlorophyllosum (Hsch.) C.M.,Bartram,,,Brazil,Pará,Districto Acará,PASS,Thomé Assú. Japanese Colony,Thomé Assú. Japanese Colony,On rotting log in woods. Abundant,about 30 m,,870829,Typed,no type status
https://fm-digital-assets.fieldmuseum.org/2539/518/C2078862F.jpg,C2078862F,"leg. Dana Griffin, III Manuel López F.",D Griffin,M López F.,PV-1525,14 marzo 1985,1985-03-14,,Brachythecium plumosum (Hedw.) BSG,Brachythecium plumosum (Hedw.) BSG,D Griffin III,,,Venezuela,Trujillo,,,"ESTADO TRUJILLO: páramo de Guirigay, arriba del pueblo de Las Piedras. Entre el río Burate y Peñas Blancas, con Espeletia schultzii, Alt. 3.200 m","páramo de Guirigay, arriba del pueblo de Las Piedras. Entre el río Burate y Peñas Blancas, con Espeletia schultzii","Sobre roca húmeda, lecho de riachuelo, a sol",3.200 m,,1064449,Typed,no type status
https://fm-digital-assets.fieldmuseum.org/2539/519/C2078913F.jpg,C2078913F,P. Dusén,P. Dusén,,5872,22 February 1897,1897-02-22,,Brachythecium albicans (Hedw.) Schimp.,Brachythecium albicans (Hedw.) Schimp.,W. R. Buck,,,Chile,Patagonia occident.,,,"Patagonia occident., Cerro Colorado","Patagonia occident., Cerro Colorado",,,,1136354.0,Typed,no type status
https://fm-digital-assets.fieldmuseum.org/2539/520/C2078924F.jpg,C2078924F,Ynes Mexia,Y. Mexia,,8001,"April 10, 1936",1936-04-10,,Brachythecium subpilosum (H.f.& W.)Jaeg.,Brachythecium austro-glareosum (C. Muell.) Kindb.,K D McFarland,Sept 1987,,Chile,Territorio Magellanes,,,Last Hope Inlet; Peninsula Antonio Varas; openings in Nothofagus wood in moist earth,Last Hope Inlet; Peninsula Antonio Varas; openings in Nothofagus wood in moist earth,Openings in Nothofagus wood in moist earth,25 m,,1036758,Typed,no type status
https://fm-digital-assets.fieldmuseum.org/2539/521/C2078925F.jpg,C2078925F,Marko Lewis,M. Lewis,,79-2108,25 May 1979,1979-05-25,,Brachythecium calliergonoides Broth. in Herz.,Brachythecium calliergonoides Broth. in Herz.,R. Ochyra,1982,,Bolivia,Oruro,Sajama,,"DEPTO. ORURO, PROV. SAJAMA: Río Junthuma Khuchu, 2 mi. down river from Aguas termales de Río Junthuma Khuchu, 18° 07' S., 69° 00' W. In warmish creek","DEPTO. ORURO, PROV. SAJAMA: Río Junthuma Khuchu, 2 miles down river from Aguas termales de Río Junthuma Khuchu, In warmish creek",In warmish creek,4350 m,"18° 07' S., 69° 00' W",1049405.0,Typed,no type status
https://fm-digital-assets.fieldmuseum.org/2539/522/C2078926F.jpg,C2078926F,Marko Lewis,M. Lewis,,79-2109,25 May 1979,1979-05-25,,Brachythecium calliergonoides Broth. in Herz.,Brachythecium calliergonoides Broth. in Herz.,R. Ochyra,1982,,Bolivia,Oruro,Sajama,,"DEPTO. ORURO, PROV. SAJAMA: Río Junthuma Khuchu, 2 mi. down river from Aguas termales de Río Junthuma Khuchu, 4350 m., 18° 07' S., 69° 00' W.","DEPTO. ORURO, PROV. SAJAMA: Río Junthuma Khuchu, 2 miles down river from Aguas termales de Río Junthuma Khuchu, 18° 07' S., 69° 00' W.",In warmish creek,4350 m,"18° 07' S., 69° 00' W",1019406.0,Typed,no type status
https://fm-digital-assets.fieldmuseum.org/2539/523/C2078927F.jpg,C2078927F,Marko Lewis,M. Lewis,,79-2112,25 May 1979,1979-05-25,,Brachythecium calliergonoides Broth. in Herz.,Brachythecium calliergonoides Broth. in Herz.,R. Ochyra,1982,,Bolivia,Oruro,Sajama,,"DEPTO. ORURO, PROV. SAJAMA: Río Junthuma Khuchu, 2 mi. down river from Aguas termales de Río Junthuma Khuchu, 4350 m., 18° 07' S., 69° 00' W.","DEPTO. ORURO, PROV. SAJAMA: Río Junthuma Khuchu, 2 miles down river from Aguas termales de Río Junthuma Khuchu",In warmish creek,4350 m,"18° 07' S., 69° 00' W",1049407.0,Typed,no type status
https://fm-digital-assets.fieldmuseum.org/2539/524/C2078928F.jpg,C2078928F,Marko Lewis,M. Lewis,,79-2115,25 May 1979,1979-05-25,,Brachythecium calliergonoides Broth. in Herz.,Brachythecium calliergonoides Broth.,R. Ochyra,1982,,Bolivia,Oruro,Sajama,,"DEPTO. ORURO, PROV. SAJAMA: Rio Junthuma Khuchu, 2 mi. down river from Aguas termales de Rio Junthuma Khuchu, 4350 m., 18° 07' S., 69° 00' W. In warmish creek","DEPTO. ORURO, PROV. SAJAMA: Rio Junthuma Khuchu, 2 miles down river from Aguas termales de Rio Junthuma Khuchu, In warmish creek",In warmish creek,4350 m,"18° 07' S., 69° 00' W",1049409.0,Typed,no type status
https://fm-digital-assets.fieldmuseum.org/2539/525/C2078929F.jpg,C2078929F,Marko Lewis,M. Lewis,,79-2117,25 May 1979,1979-05-25,,Brachythecium calliergonoides Broth. in Herz.,Brachythecium calliergonoides Broth. in Herz.,R. Ochyra,1982,,Bolivia,Oruro,Sajama,,"DEPTO. ORURO, PROV. SAJAMA: Río Junthuma Khuchu, 2 mi. down river from Aguas termales de Río Junthuma Khuchu, 18° 07' S., 69° 00' W. In warmish creek","DEPTO. ORURO, PROV. SAJAMA: Río Junthuma Khuchu, 2 miles down river from Aguas termales de Río Junthuma Khuchu, In warmish creek",In warmish creek,4350 m,"18° 07' S., 69° 00' W",1049410.0,Typed,no type status
https://fm-digital-assets.fieldmuseum.org/2539/526/C2078930F.jpg,C2078930F,Marko Lewis,M. Lewis,,79-2118,25 May 1979,1979-05-25,,Brachythecium calliergonoides Broth. in Herz.,Brachythecium calliergonoides Broth. in Herz.,R. Ochyra,February 1982,,Bolivia,Oruro,Sajama,,"DEPTO. ORURO, PROV. SAJAMA: Río Junthuma Khuchu, 2 mi. down river from Aguas termales de Río Junthuma Khuchu, 4350 m., 18° 07' S., 69° 00' W","DEPTO. ORURO, PROV. SAJAMA: Río Junthuma Khuchu, 2 miles down river from Aguas termales de Río Junthuma Khuchu, 18° 07' S., 69° 00' W",In warmish creek,4350 m,"18° 07' S., 69° 00' W",1049411.0,Mix of Handwritten and Typed,no type status
https://fm-digital-assets.fieldmuseum.org/2539/527/C2078931F.jpg,C2078931F,Marko Lewis,M. Lewis,,79-2107,25 May 1979,1979-05-25,,Brachythecium calliergonoides Broth. in Herz.,Brachythecium calliergonoides Broth. in Herz.,R. Ochyra,1982,,Bolivia,Oruro,Sajama,,"DEPTO. ORURO, PROV. SAJAMA: Rio Junthuma Khuchu, 2 mi. down river from Aguas termales de Rio Junthuma Khuchu, 4350 m, 18° 07' S, 69° 00' W","DEPTO. ORURO, PROV. SAJAMA: Rio Junthuma Khuchu, 2 miles down river from Aguas termales de Rio Junthuma Khuchu, 18° 07' S, 69° 00' W",In warmish creek,4350 m,"18° 07' S, 69° 00' W",1049404.0,Typed,no type status
https://fm-digital-assets.fieldmuseum.org/2539/529/C2078932F.jpg,C2078932F,Marko Lewis,M. Lewis,,79-2119,25 May 1979,1979-05-25,,Brachythecium calliergonoides Broth. in Herz.,Brachythecium calliergonoides Broth. in Herz.,R. Ochyra,1982,,Bolivia,Oruro,Sajama,,"DEPTO. ORURO. PROV. SAJAMA. Rio Junthuma Khuchu, 2 mi. down river from Aguas termales de Rio Junthuma Khuchu, 4350 m., 18° 07' S, 69° 00' W. In warmish creek","Río Junthuma Khuchu, 2 miles down river from Aguas termales de Río Junthuma Khuchu",In warmish creek,4350 m,"18° 07' S, 69° 00' W",1049412,Typed,no type status
https://fm-digital-assets.fieldmuseum.org/2539/889/C2079350F.jpg,C2079350F,Ynes Mexia,Y. Mexia,,6149,"Nov. 23, 1931",1931-11-23,,Vesicularia amphibola (Spr.) Broth.,Vesicularia amphibola (Spr.) Broth.,Bartram,,,Peru,Loreto,,,Above Pongo de Manseriche. Left bank of Río Santiago.,Above Pongo de Manseriche. Left bank of Río Santiago.,On stone in overflow forest,200 m,,873368,Typed,no type status
https://fm-digital-assets.fieldmuseum.org/2539/890/C2079351F.jpg,C2079351F,"Ynes Mexia, No. 6160-a",Y. Mexia,,6160-a,"Nov. 25, 1931",1931-11-25,,Vesicularia amphibola (Spr.) Broth.,Vesicularia amphibola (Spr.) Broth.,Bartram,,,Peru,Loreto,,,Above Pongo de Manseriche. Right bank of Rio Santiago.,Above Pongo de Manseriche. Right bank of Rio Santiago.,Dense forest on log,200 m,,873367,Typed,no type status
https://fm-digital-assets.fieldmuseum.org/2539/892/C2079352F.jpg,C2079352F,Ynes Mexia,Y. Mexia,,6217-a,"Dec. 4, 1931",1931-12-04,,Vesicularia amphibola (Spr.) Broth.,Vesicularia amphibola (Spr.) Broth.,Bartram,,,Peru,Loreto,,,Above Pongo de Manseriche. Streamlet on right bank of Rio Santiago. On rocks wet by spray.,Above Pongo de Manseriche. Streamlet on right bank of Rio Santiago. On rocks wet by spray.,On rocks wet by spray,250 m,,870879,Typed,no type status
https://fm-digital-assets.fieldmuseum.org/2539/893/C2079353F.jpg,C2079353F,Ynes Mexia,Y. Mexia,,6259-a,"Dec. 12, 1931",1931-12-12,,Vesicularia amphibola (Spr.) Broth.,Vesicularia amphibola (Spr.) Broth.,Bartram,,,Peru,Loreto,,,Above Pongo de Manseriche. Creek Carapisa.,Above Pongo de Manseriche. Creek Carapisa.,Log in forest,215 m,,870867,Typed,no type status
https://fm-digital-assets.fieldmuseum.org/2539/894/C2079354F.jpg,C2079354F,Ynes Mexia,Y. Mexia,,6354-a,"Jan. 3, 1932",1932-01-03,,Vesicularia amphibola (Spr.) Broth.,Vesicularia amphibola (Spr.) Broth.,Bartram,,,Peru,Loreto,,,Above Pongo de Manseriche. Creek Inche.,Above Pongo de Manseriche. Creek Inche.,On earth collected on inclined tree trunk,215 m,,873369,Typed,no type status
https://fm-digital-assets.fieldmuseum.org/2539/895/C2079355F.jpg,C2079355F,Ynes Mexia,Y. Mexia,,6375a,"Jan. 3, 1932",1932-01-03,,Vesicularia amphibola (Spr.) Broth.,Vesicularia amphibola (Spr.) Broth.,Bartram,,Taxithelium planum (Brid.) Mitt.,Peru,Loreto,,,Above Pongo de Manseriche. Creek Inche.,Above Pongo de Manseriche. Creek Inche.,On rotten log. Sterile.,215 m,,1039121,Typed,no type status
https://fm-digital-assets.fieldmuseum.org/2539/896/C2079356F.jpg,C2079356F,Ynes Mexia,Y. Mexia,,6375-a,"Jan. 3, 1932",1932-01-03,,Taxithelium planum (Brid.) Mitt.,Taxithelium planum (Brid.) Mitt.,Bartram,,Vesicularia amphibola (Spruce) Broth.,Peru,Loreto,,,Above Pongo de Manseriche. Creek Inche,Above Pongo de Manseriche. Creek Inche,On rotten log. Sterile,215 m,,870880,Typed,no type status
https://fm-digital-assets.fieldmuseum.org/2539/897/C2079357F.jpg,C2079357F,Ynes Mexia,Y. Mexia,,6377,"Jan. 3, 1932",1932-01-03,,Vesicularia amphibola (Spr.) Broth.,Vesicularia amphibola (Spruce) Broth.,Bartram,,,Peru,Loreto,,,Above Pongo de Manseriche. Creek Inche.,Above Pongo de Manseriche. Creek Inche.,On rotten log,215 m,,870873,Typed,no type status
https://fm-digital-assets.fieldmuseum.org/2539/898/C2079358F.jpg,C2079358F,Ynes Mexia,Y. Mexia,,8070,"May 14,1936",1936-05-14,,Vesicularia amphibola (Spr.) Broth.,Vesicularia amphibola (Spr.) Broth.,Bartram,,,Peru,Cuzco,La Convencion,,upper valley of the Sambray; affluent of the Vilcanota,Departamento Cuzco. Provincia La Convencion; upper valley of the Sambray; affluent of the Vilcanota; on rotten logs in virgin forest,On rotten logs in virgin forest,1800 m,,1036318.0,Typed,no type status
https://fm-digital-assets.fieldmuseum.org/2539/900/C2079359F.jpg,C2079359F,Ynes Mexia,Y. Mexia,,8070,"May 14, 1936",1936-05-14,,"Vesicularia amphibola (Spr.) Broth., in mixture",Vesicularia amphibola (Spr.) Broth.,Bartram,,,Peru,Cuzco,La Convencion,,upper valley of the Sambray affluent of the Vilcanota,upper valley of the Sambray affluent of the Vilcanota,On rotten logs in virgin forest,1800 m,,1039122,Typed,no type status
https://fm-digital-assets.fieldmuseum.org/2539/901/C2079360F.jpg,C2079360F,P. R. Reitz,P R Reitz,,2222,20.9.1949,1949-09-20,,Vesicularia vesicularis (Schwaegr.) Broth.,Vesicularia vesicularis (Schwaegr.) Broth.,Bartram,1949,,Brazil,Santa Catarina,,Brusque,"Azambuja, Brusque","Azambuja, Brusque","Epífita, da mata virgem",50 msm,,,Typed,no type status
https://fm-digital-assets.fieldmuseum.org/2539/902/C2079361F.jpg,C2079361F,F. J. Hermann,F. J. Hermann,,25019,"December 19, 1972",1972-12-19,,Vesicularia vesicularis (Schwaegr.) Broth.,Vesicularia vesicularis (Schwaegr.) Broth.,H Robinson,,PASS,Colombia,Santander,,,"On base of tree trunk, Paraguitas, alt. ca. 4000 ft., 1/4 mile NW","On base of tree trunk, Paraguitas, 1/4 mile NW",On base of tree trunk,ca. 4000 ft,,1029101.0,Typed,no type status
https://fm-digital-assets.fieldmuseum.org/2539/903/C2079362F.jpg,C2079362F,Richard Evans Schultes,R. E. Schultes,,11107,"Dec., 1950",1950-12-00,,Vesicularia vesicularis (Schwgr.) Broth,Vesicularia vesicularis (Schwgr.) Broth,D Griffin III,,,Colombia,Meta,,Villavicencio,Intendencia del Meta: alrededores de Villavicencio,Intendencia del Meta: alrededores de Villavicencio,,500 m,,1055509.0,Typed,no type status
https://fm-digital-assets.fieldmuseum.org/2542/815/C2079715F.jpg,C2079715F,"leg.: J.-P. Frahm, P. Geissler, S.R. Gradstein, G. Philippi, W. Schultze-Motel",J-P Frahm,P Geissler | S R Gradstein | G Philippi | W Schultze-Motel,875,4.9.1982,1982-09-04,,Entodon jamesonii (Tayl.) Mitt.,Entodon jamesonii (Tayl.) Mitt.,W. Schultze-Motel,,,Peru,Amazonas,Chachapoyas,,"Dep. Amazonas, Prov. Chachapoyas, Straße Chachapoyas-Cajamarca oberhalb Leimebamba km 417, s-exponierter Hang, hochandiner Regenwald auf Kalkstein","Dep. Amazonas, Prov. Chachapoyas, Straße Chachapoyas-Cajamarca oberhalb Leimebamba km 417, s-exponierter Hang, hochandiner Regenwald auf Kalkstein",hochandiner Regenwald auf Kalkstein,2800 msm,,1044230.0,Typed,no type status
https://fm-digital-assets.fieldmuseum.org/2542/817/C2079716F.jpg,C2079716F,Paul C. Hutchison J. Kenneth Wright,P. C. Hutchison,J K Wright,4806,1 April 1964,1964-04-01,,Entodon jamesoni (Tayl.) Mitt.,Entodon jamesoni (Tayl.) Mitt.,H. Robinson,1966,,Peru,Amazonas,Chachapoyas,,"Cerros Calla Calla, east side, 5 km. above Leimebamba on the road to Balsas, at San Miguel (no buildings at this locality)","Cerros Calla Calla, east side, 5 kilometers above Leimebamba on the road to Balsas, at San Miguel (no buildings at this locality)",,2400 m,,1012181.0,Typed,no type status
https://fm-digital-assets.fieldmuseum.org/2542/820/C2079717F.jpg,C2079717F,leg. Dana Griffin III,D Griffin III,,PV-966,20 febr. 1985,1985-02-20,,Entodon jamesoni (tayl.) Broth.,Entodon jamesoni (tayl.) Broth.,D Griffin III,,,Venezuela,Merida,,,"páramo de Los Granates, finca de Los Granates, a lo largo del río de Los Granates y en las lomas cercanas","páramo de Los Granates, finca de Los Granates, a lo largo del río de Los Granates y en las lomas cercanas","Sobre roca ± seca, a sombra",3.000-3.300 m,,1064416,Typed,no type status
https://fm-digital-assets.fieldmuseum.org/2542/822/C2079718F.jpg,C2079718F,Ynes Mexia,Y. Mexia,,5687,"April 21, 1931",1931-04-21,,Entodon Lindbergii Hpe.,Entodon Lindbergii Hpe.,Bartram,,,Brazil,Minas Geraes,,Corinto,Fazenda do Diamante. Campo Tiririca.,Fazenda do Diamante. Campo Tiririca.,Base of living tree in shade,590 m,,870818,Typed,no type status
https://fm-digital-assets.fieldmuseum.org/2542/825/C2079719F.jpg,C2079719F,R. Spruce,R. Spruce,,1023,s.d.,sd,,Entodon longisetus Hook.,Entodon longisetus Hook.,W. Mitten,,,Ecuador,PASS,,Baños,Andes Quitenses. Baños,Andes Quitenses. Baños,,,,1078203,Mix of Handwritten and Typed,no type status
https://fm-digital-assets.fieldmuseum.org/2542/827/C2079720F.jpg,C2079720F,Marko Lewis,M. Lewis,,79-590,8 February 1979,1979-02-08,,Entodon cf. nano-climacium C.M. (= E. micans Herz.),Entodon cf. nano-climacium C.M.,W. Buck,1980,,Bolivia,Tarija,Méndez/Cercado/Avilés,,"DEPTO. TARIJA, PROV. MÉNDEZ/PROV. CERCADO/PROV. AVILÉS: Canyon 5 mi. SW of Tablada, SW of Tarija, 21° 36' S., 64° 48' W.","Canyon 5 miles SW of Tablada, SW of Tarija, 21° 36' S., 64° 48' W.",Bank of creek,2160 m,"21° 36' S., 64° 48' W.",1078788,Typed,no type status
https://fm-digital-assets.fieldmuseum.org/2542/829/C2079721F.jpg,C2079721F,Marko Lewis,M. Lewis,,79-1220,22 March 1979,1979-03-22,,Entodon nano-climacium C.M. (= E. micans Herz.),Entodon nano-climacium C.M.,W. Buck,1980,,Bolivia,La Paz,Larecaja,,Near large red outcrop 2 mi. from Sorata down Río Consata,Near large red outcrop 2 miles from Sorata down Río Consata,Very shady ground along creek in humid shrubs,2600 m,"15° 41' S., 68° 43' W.",1078799.0,Typed,no type status
https://fm-digital-assets.fieldmuseum.org/2542/831/C2079722F.jpg,C2079722F,Harry Ward Foote,H. W. Foote,,s.n.,Sep. 3.,1911-09-03,,Entodon platygyrioides C.M.,Entodon platygyrioides C.M.,,,,Peru,,,,"On rocks above San Miguel, 6000ft.","On rocks above San Miguel, 6000 feet",On rocks,6000ft.,,,Mix of Handwritten and Typed,no type status
https://fm-digital-assets.fieldmuseum.org/2542/835/C2079723F.jpg,C2079723F,Marko Lewis,M. Lewis,,79-1346,1 April 1979,1979-04-01,,cf. Entodon polycarpus,Entodon polycarpus,W. Buck,1980,,Bolivia,La Paz,Larecaja,,Between Abra Huallata and waterfall at Millipaya,Between Abra Huallata and waterfall at Millipaya,"Waterfall ravine, highest extension of shrubs",3780 m,"15° 51' S., 68° 39' W.",1046746.0,Typed,no type status
https://fm-digital-assets.fieldmuseum.org/2542/837/C2079595F.jpg,C2079595F,H. Roivainen,H. Roivainen,,2095,25.1.1970,1970-01-25,,Isopterygium pulchellum (Hedw.) Jaeg.,Isopterygium pulchellum (Hedw.) Jaeg.,R. Ochyra,1996,Nothofagus pumilio,Argentina,Tierra del Fuego,PASS,Ushuaia,"Tierra del Fuego australis, Ushuaia, Arroyo Grande (54°47'S,68°17'W), en fisuras de roca y en raizes humoso-arcillosos de Nothofagus pumilio, en orilla de la cascada,150 m s.m.,bastante copiosamente","Tierra del Fuego australis, Ushuaia, Arroyo Grande, en fisuras de roca y en raizes humoso-arcillosos de Nothofagus pumilio, en orilla de la cascada, bastante copiosamente","En fisuras de roca y en raizes humoso-arcillosos de Nothofagus pumilio, en orilla de la cascada",150 m s.m.,"54°47'S,68°17'W",1182417.0,Typed,no type status
https://fm-digital-assets.fieldmuseum.org/2542/839/C2079596F.jpg,C2079596F,H. Roivainen,H. Roivainen,,1352,24.12.1969,1969-12-24,,Isopterygium pulchellum (Brid.) Jaeg.,Isopterygium pulchellum (Brid.) Jaeg.,R. Ochyra,1996,,Argentina,Tierra del Fuego,PASS,Ushuaia,"Valle del Río Pipo (54°46'S, 68°20'W), suelo humoso húmedo en el pendiente del río, bastante copiosamente","Valle del Río Pipo (54°46'S, 68°20'W), suelo humoso húmedo en el pendiente del río, bastante copiosamente","suelo humoso húmedo en el pendiente del río, bastante copiosamente",300 m s.m.,"54°46'S, 68°20'W",1182415.0,Typed,no type status
https://fm-digital-assets.fieldmuseum.org/2542/842/C2079597F.jpg,C2079597F,E. P. Killip & A. C. Smith,E. P. Killip,A. C. Smith,14871,"November 29, 1926",1926-11-29,,Isopterygium stigmocarpum (C.M.) Par.,Isopterygium tenerum (Sw.) Mitt.,R. R. Ireland,1988,,Colombia,Santander,,,"Dept. Santander, between Puerto Wilches and Puerto Santos, alt. 110-115 m.",Between Puerto Wilches and Puerto Santos,,110-115 m,,1040009.0,Typed,no type status
https://fm-digital-assets.fieldmuseum.org/2542/844/C2079598F.jpg,C2079598F,Richard Evans Schultes,R. E. Schultes,,11110,"Dec., 1950",1950-12-00,,Isopterygium tenerum (Sw.) Mitt.,Isopterygium tenerum (Sw.) Mitt.,D Griffin III,1988,,Colombia,Meta,,,Intendencia del Meta: alrededores de Villavicencio,Intendencia del Meta: alrededores de Villavicencio,,500 m,,1055473,Typed,no type status
https://fm-digital-assets.fieldmuseum.org/2542/846/C2079599F.jpg,C2079599F,D.C.Geijskes,D. C. Geijskes,,s.n.,29 - 9 - 1952,1952-09-29,,Isopterygium tenerum(Sw.)Mitt.,Isopterygium tenerum(Sw.)Mitt.,H. R. Zielman,,,Suriname,,,,Marowijne River; Armina falls,Marowijne River; Armina Falls,"Rainforest On roots and rocks on bank of river, shad",,,1073518,Typed,no type status
https://fm-digital-assets.fieldmuseum.org/2542/848/C2079600F.jpg,C2079600F,Ynes Mexia,Y. Mexia,,4841,"July 6, 1930",1930-07-06,,Isopterygium brachyneuron (C.M.)Mitt. ex p.,Isopterygium tenerum (Sw.) Mitt.,R. R. Ireland,1988,,Brazil,Minas Gerais,,Viçosa,Agricultural College land. Horticultural Hill. Cut over woods near base. On rotting log. Abundant.,Agricultural College land. Horticultural Hill. Cut over woods near base. On rotting log. Abundant.,Cut over woods near base. On rotting log. Abundant.,670 m,,1039979,Typed,no type status
https://fm-digital-assets.fieldmuseum.org/2542/851/C2079601F.jpg,C2079601F,Ynes Mexia,Y. Mexia,,4888,"July 21, 1930",1930-07-21,,Isopterygium laxum (Hpe.) Broth.,Isopterygium tenerum (Sw.) Mitt.,R R Ireland,1988,,Brazil,Minas Geraes,,Viçosa,Viçosa Agricultural College lands. Corriga Riberro. Shady streambank. On rotten wood.,Viçosa Agricultural College lands. Corriga Riberro. Shady streambank. On rotten wood.,Shady streambank. On rotten wood.,675 m,,873365,Typed,no type status
https://fm-digital-assets.fieldmuseum.org/2542/853/C2079602F.jpg,C2079602F,Ynes Mexia,Y. Mexia,,5386,"Dec. 6, 1930",1930-12-06,,Isopterygium brachyneuron (C.M.) Mitt.,Isopterygium tenerum (Sw.) Mitt.,R. R. Ireland,1988,,Brazil,Minas Gerais,,Viçosa,Road to São Miguel. About km. 4.,Road to São Miguel. About km. 4.,Dense forest. On rotten logs. In fruit.,710 m,,870841,Typed,no type status
https://fm-digital-assets.fieldmuseum.org/2542/855/C2079603F.jpg,C2079603F,Ynes Mexia,Y. Mexia,,5441,"Dec. 23, 1930",1930-12-23,,Isopterygium laxum (Hpe.) Broth.,Isopterygium tenerum (Sw.) Mitt.,R R Ireland,1988,,Brazil,Minas Gerais,,Viçosa,Viçosa Agricultural College lands. Base of Horticultural Hill,Viçosa Agricultural College lands. Base of Horticultural Hill,"On rotting log, in woods. Abundant",670 m,,870823,Typed,no type status
https://fm-digital-assets.fieldmuseum.org/2542/857/C2079604F.jpg,C2079604F,"H. S. Irwin, R. M. Harley, G. L. Smith",H. S. Irwin,R. M. Harley | G. L. Smith,31332,2 March 1971,1971-03-02,,Isopterygium tenerum (Sw.) Mitt.,Isopterygium tenerum (Sw.) Mitt.,R. R. Ireland,1988,Coccoloba sp.,Brazil,Bahia,,,"Valley of the Rio das Ondas, ca. 10km W. of Barreiras","Valley of the Rio das Ondas, ca. 10km West of Barreiras","On the bark and exposed roots of Coccoloba sp, and on adjacent soil, at river bank. Cut-over gallery forest and adjacent cerrado",ca. 500m,,1059328,Typed,no type status
https://fm-digital-assets.fieldmuseum.org/2542/863/C2079606F.jpg,C2079606F,Ynes Mexia,Y. Mexia,,4884,"July 21, 1930",1930-07-21,,Isopterygium curvicollum (C.M.) Mitt.,Isopterygium tenerum (Sw.) Mitt.,R R Ireland,1988,,Brazil,Minas Geraes,,Viçosa,"Viçosa Agricultural College lands. Corrigo Riberro. Shady streambank, on rotten log. Abundant.","Viçosa Agricultural College lands. Corrigo Riberro. Shady streambank, on rotten log. Abundant.","Shady streambank, on rotten log. Abundant.",675 m,,870845,Typed,no type status
https://fm-digital-assets.fieldmuseum.org/2542/865/C2079607F.jpg,C2079607F,Ynes Mexia,Y. Mexia,,4698,"May 14, 1930",1930-05-14,,Isopterygium curvicollum (C.M.) Mitt. ex P.,Isopterygium tenerum (Sw.) Mitt.,R R Ireland,1988,,Brazil,Minas Geraes,,Viçosa,Fazenda de Cresiuma. Wood on slope,Fazenda de Cresiuma. Wood on slope,On rotten log,700 m,,870839,Typed,no type status
https://fm-digital-assets.fieldmuseum.org/2542/868/C2079608F.jpg,C2079608F,Ynes Mexia,Y. Mexia,,4884,"July 21, 1930",1930-07-21,,Isopterygium curvicollum (C.M.) Mitt.,Isopterygium tenerum (Sw.) Mitt.,R R Ireland,1988,,Brazil,Minas Geraes,,Viçosa,Viçosa Agricultural College lands. Corrige Riberro.,Viçosa Agricultural College lands. Corrige Riberro.,"Shady streambank, on rotten log. Abundant.",675 m,,1039977,Typed,no type status
https://fm-digital-assets.fieldmuseum.org/2542/870/C2079609F.jpg,C2079609F,Ynes Mexia,Y. Mexia,,4545,"March 31, 1930",1930-03-31,,Isopterygium curvicollum (C.M.) Mitt.,Isopterygium tenerum (Sw.) Mitt.,R R Ireland,1988,,Brazil,Minas Gerais,,Viçosa,"Road to São Miguel. Near stream ""Turca."" Cut over woods on slope. On rotting tree trunk","Road to São Miguel. Near stream ""Turca."" Cut over woods on slope. On rotting tree trunk",On rotting tree trunk,710 m,,1039978,Typed,no type status
https://fm-digital-assets.fieldmuseum.org/2542/875/C2079611F.jpg,C2079611F,leg. V. Schiffner,V. Schiffner,,2898,m. Jul. fr.,0000-07-00,,Isopterygium aurantiacum (C. M.) Broth.,Isopterygium tenerum (Sw.) Mitt.,R R Ireland,1988,,Brazil,São Paulo,,Cerqueira-Cesar,"prope urbem Cerqueira-Cesar, in palude, c. 500 m. s. m.","prope urbem Cerqueira-Cesar, in palude",In palude,c. 500 m. s. m.,,1012176.0,Typed,no type status
https://fm-digital-assets.fieldmuseum.org/2542/877/C2079856F.jpg,C2079856F,Ynes Mexia,Y. Mexia,,4841,"July 6, 1930",1930-07-06,,Isopterygium brachyneuron (C.M.) Mitt.ex p,Isopterygium tenerum (Sw.) Mitt,R R Ireland,1988,,Brazil,Minas Geraes,,Viçosa,Viçosa Agricultural College lands. Horticultural Hill. Cut over woods near base,Viçosa Agricultural College lands. Horticultural Hill. Cut over woods near base,On rotting log. Abundant,670 m,,870837.0,Typed,no type status
https://fm-digital-assets.fieldmuseum.org/2542/879/C2079858F.jpg,C2079858F,R. S. Williams,R. S. Williams,,2095,"Nov. 29, 1901",1901-11-29,,Isopterygium tenerum (Sw.) Mitt.,Isopterygium tenerum (Sw.) Mitt.,R. R. Ireland,1988,,Bolivia,PASS,,PASS,"San Buena Ventura, 190 meters, on bark","San Buena Ventura, on bark",On bark,190 meters,,1039993,Mix of Handwritten and Typed,no type status
https://fm-digital-assets.fieldmuseum.org/2542/881/C2079859F.jpg,C2079859F,"COLLECTED BY R. S. WILLIAMS, 1901-1902",R. S. Williams,,2059,1901-1902,1901-00-00,1902-00-00,Isopterygium tenerum (Sw.) Mitt.,Isopterygium tenerum (Sw.) Mitt.,R S Williams,23 Jan. 1902,,Bolivia,PASS,,,Tumupasa,Tumupasa,,,,1017412,Mix of Handwritten and Typed,no type status
https://fm-digital-assets.fieldmuseum.org/2550/919/C2010970F.jpg,C2010970F,leg. Hagen,Hagen,,s.n.,27/7 1907,1907-07-27,,Pogonatum urnigerum (L.) var. α humile (Wahlenb.),Pogonatum urnigerum (L.) var. α humile (Wahlenb.),,,,Norway,Trondelag,Sundbygdens amt,Opdal,Vårstigen,Vårstigen,,900 mtr.,,2010970.0,Mix of Handwritten and Typed,no type status
https://fm-digital-assets.fieldmuseum.org/2550/921/C2010972F.jpg,C2010972F,Elihu Hall,E Hall,,s.n.,s.d.,sd,,Pogonatum urnigerum Brid,Pogonatum umigerum Brid.,,,,England,,,,,[precise locality unknown],,,,,Typed,no type status
https://fm-digital-assets.fieldmuseum.org/2550/925/C2000534F.jpg,C2000534F,PASS,PASS,,s.n.,1878,1878-00-00,,Pogonatum urnigerum,Pogonatum urnigerum Pal. Beau.,,,,France,Pyrénées,,,Gorge de Jeret,Gorge de Jeret,,,,,Mix of Handwritten and Typed,no type status
https://fm-digital-assets.fieldmuseum.org/2550/927/C2000536F.jpg,C2000536F,Ex Herb. Wm. Mitten,W Mitten,,s.n.,Mch 1847,1847-03-00,,Pogonatum urnigerum,Pogonatum urnigerum,,,,England,Sussex,,,Hendey Hill Near Blackdown,Hendey Hill Near Blackdown,,,,1096014,Mix of Handwritten and Typed,no type status
https://fm-digital-assets.fieldmuseum.org/2550/929/C2000538F.jpg,C2000538F,Holmes Com. G.E.H,Holmes,,s.n.,PASS,sd,,Pogonatum urnigerum,Pogonatum urnigerum,,,,United Kingdom,England,Devon,Plymouth,Plymouth Devon,[precise locality unknown],,,,1182972,Mix of Handwritten and Typed,no type status
https://fm-digital-assets.fieldmuseum.org/2550/933/C2000542F.jpg,C2000542F,leg Jeanpert,Jeanpert,,s.n.,9/4/94,1894-04-09,,Pogonatum urnigerum P.B,Pogonatum urnigerum P.B,,,,France,PASS,,,"Villers Cotterets. route de Soissons, cassiende","Villers Cotterets. route de Soissons, cassiende",sable,,,1058477,Handwritten,no type status
https://fm-digital-assets.fieldmuseum.org/2550/935/C2000932F.jpg,C2000932F,C. Müller Frib.,C. Müller,,476,9. Sept. 1905,1905-09-09,,Pogonatum urnigerum (L.) Pal. Beauv. c. fr.,Pogonatum urnigerum (L.) Pal. Beauv.,,,,Germany,Baden,,,"auf Erde in Felsritzen zwischen Rinken und Seebrück am Feldberge, etwa 1250 m s. m.","auf Erde in Felsritzen zwischen Rinken und Seebrück am Feldberge, etwa 1250 meters",Auf Erde in Felsritzen,etwa 1250 m s. m.,,1194391,Typed,no type status
https://fm-digital-assets.fieldmuseum.org/2550/937/C2000934F.jpg,C2000934F,leg.Zd.Pilous,Z. Pilous,,s.n.,V.1946,1946-05-00,,Pogonatum urnigerum P.B.,Pogonatum urnigerum P.B.,,,,Czech Republic,Bohemia,Montes Krkonoše,,"In declivis graminosis silvaticis prope pagum Hoření Vrchlabí, ca 580 m","In declivis graminosis silvaticis prope pagum Hoření Vrchlabí, ca 580 meters",In declivis graminosis silvaticis,ca 580 m,,1270015,Typed,no type status
https://fm-digital-assets.fieldmuseum.org/2550/939/C2000936F.jpg,C2000936F,James Thompson,J. Thompson,,s.n.,Sept. 2 1842,1842-09-02,,Pogonatum urnigerum,Pogonatum urnigerum,,,,Scotland,,,,,[precise locality unknown],,,,1230970.0,Mix of Handwritten and Typed,no type status
https://fm-digital-assets.fieldmuseum.org/2550/941/C2000938F.jpg,C2000938F,leg. Philippe,Philippe,,s.n.,s.d.,sd,,Pogonatum urnigerum,Pogonatum urnigerum,,,,PASS,PASS,,,Peña de Cheris,Peña de Cheris,,,,1058446,Handwritten,no type status
https://fm-digital-assets.fieldmuseum.org/2550/943/C2000940F.jpg,C2000940F,L. N. Johnson,L N Johnson,,s.n.,1848,1848-00-00,,"Pogonatum urnigerum, Breuv.","Pogonatum urnigerum, Breuv.",,,,Germany,,,,Marraques Fall,[precise locality unknown],,,,1159426.0,Handwritten,no type status
https://fm-digital-assets.fieldmuseum.org/2550/946/C2000943F.jpg,C2000943F,Leg.,C. Jensen,,s.n.,25/10 1901,1901-10-25,,Pogonatum urnigerum (Hedw.) PB.,Pogonatum urnigerum (Hedw.) PB.,C. Jensen,,,Denmark,Sjælland,,,Magistratskoven by Hvalsø in a gravel-pit,Magistratskoven by Hvalsø in a gravel-pit,In a gravel-pit,,,,Typed,no type status
https://fm-digital-assets.fieldmuseum.org/2550/948/C2000945F.jpg,C2000945F,Herbier Ed. Jeanpert,E Jeanpert,,s.n.,s.d.,sd,,PASS,PASS,,,,France,PASS,,,PASS,[precise locality unknown],PASS,,,1058475,Handwritten,no type status
https://fm-digital-assets.fieldmuseum.org/2550/950/C2000947F.jpg,C2000947F,1876 leg. Restoin,Restoin,,s.n.,1876,1876-00-00,,Pogonatum urnigerum P.B.,Pogonatum urnigerum P.B.,,,,France,Manche,,,Sourdenal (manche),Sourdenal (manche),,,,1058481,Handwritten,no type status
https://fm-digital-assets.fieldmuseum.org/2550/952/C2000949F.jpg,C2000949F,ex herb. George E. Hunt,G E Hunt,,s.n.,s.d.,sd,,Pogonatum Bridel,Pogonatum Bridel,,,,Scotland,,,,,[precise locality unknown],,,,1182976,Mix of Handwritten and Typed,no type status
https://fm-digital-assets.fieldmuseum.org/2550/954/C2010614F.jpg,C2010614F,Leg. M. Onraedt 76.L.8693,M Onraedt,,76.L.8693,Le 18.07.1976,1976-07-18,,"Pogonatum urnigerum P. Beauv., Schimp. = Polytrichum urnigerum L.","Pogonatum urnigerum P. Beauv., Schimp.",M Onraedt,,Polytrichum urnigerum L.,Switzerland,Valais,Val d'Hérens,La Forclaz,"sur talus ensoleillé; alt. Ca. 1750 m Suisse: Canton du Valais, Val d'Hérens, à La Forclaz","sur talus ensoleillé Suisse: Canton du Valais, Val d'Hérens, à La Forclaz",sur talus ensoleillé,Ca. 1750 m,,2010614.0,Typed,no type status
https://fm-digital-assets.fieldmuseum.org/2550/956/C2010616F.jpg,C2010616F,M. Onraedt,M. Onraedt,,76.5.1580,Le 24/07/1976,1976-07-24,,Pogonatum urnigerum P. Beauv. Schimp.,Pogonatum urnigerum P. Beauv. Schimp.,PASS,,,Switzerland,Valais,,,entre St. Martin et Mase,entre St. Martin et Mase,Talus forestier,alt. 1600m,,1050867,Mix of Handwritten and Typed,no type status
https://fm-digital-assets.fieldmuseum.org/2550/958/C2010618F.jpg,C2010618F,Barnes legit.,Barnes,,s.n.,Feb. 1868.,1868-02-00,,"Pogonatum urnigerum, Brid.",Pogonatum urnigerum,,,,United Kingdom,Westmorland,,,PASS,[precise locality unknown],,,,1058318.0,Mix of Handwritten and Typed,no type status
https://fm-digital-assets.fieldmuseum.org/2550/960/C2010620F.jpg,C2010620F,Jack,Jack,,986A b,25. August 1850,1850-08-25,,Pogonatum urnigerum (L.) Pal. Beauv.,Pogonatum urnigerum (L.) Pal. Beauv.,,,,Germany,Baden-Württemberg,,Salem,An Waldgräben bei Salem,An Waldgräben bei Salem,PASS,,,1054838.0,Typed,no type status
https://fm-digital-assets.fieldmuseum.org/2550/962/C2010622F.jpg,C2010622F,Dr. Hepp,Dr Hepp,,986 B,17. October 1862,1862-10-17,,Pogonatum urnigerum (L.) Pal. Beauv.,Pogonatum urnigerum (L.) Pal. Beauv.,,,,Germany,Baden-Württemberg,,Degerfelden,An einem Waldrande auf dem rothen Sandsteinbruche oberhalb Degerfelden,An einem Waldrande auf dem rothen Sandsteinbruche oberhalb Degerfelden,PASS,,,1054981,Typed,no type status
https://fm-digital-assets.fieldmuseum.org/2550/964/C2010624F.jpg,C2010624F,"Jack, Leiner u. Stizenberger",Jack,,986B,September 1862,1862-09-00,,Pogonatum urnigerum (L.) Pal. Beauv.,Pogonatum urnigerum (L.) Pal. Beauv.,,,,Switzerland,PASS,,,In Hohlwegen bei Schaffhausen,In Hohlwegen bei Schaffhausen,PASS,,,1055069.0,Typed,no type status
https://fm-digital-assets.fieldmuseum.org/2550/966/C2010626F.jpg,C2010626F,Coll. and determ. C. Jensen,C. Jensen,,s.n.,"November 21, 1904",1904-11-21,,Pogonatum urnigerum (Hedw.) PB. c. fr.,Pogonatum urnigerum (Hedw.) PB.,C. Jensen,,,Denmark,Zealand,,,sandy soil in Magistratskoven south of Hvalsö,sandy soil in Magistratskoven south of Hvalsö,Sandy soil,,,,Typed,no type status
https://fm-digital-assets.fieldmuseum.org/2550/968/C2010974F.jpg,C2010974F,P. Allorge,P. Allorge,,s.n.,22. VIII. 1927,1927-08-22,,"Pogonatum urnigerum (Linné Sp. Plant. II, p. 1109, N° 3, 1753, sub Polytricho), Palisot de Beauvois Prodr., p. 84, 1805, f. 2",Pogonatum urnigerum,,,"Blasia pusilla L., Pellia epiphylla (L.) Lindb., Alicularia scalaris (Schr.) Corda, Dichodontium pellucidum (L. pp.) Schimp., Rhytidiadelphus loreus (Dill., L.) Warnst",Spain,Navarra,,,"Puerto de Ibañeta (Navarra), talus argileux (schistes) avec Blasia pusilla L., Pellia epiphylla (L.) Lindb., Alicularia scalaris (Schr.) Corda, Dichodontium pellucidum (L. pp.) Schimp., Rhytidiadelphus loreus (Dill., L.) Warnst",Puerto de Ibañeta,"Calcifuge, mésophile, sciaphile. Fréquent sur les talus siliceux frais, récemment dénudés",ca 1.050 m,,1200129.0,Typed,no type status
https://fm-digital-assets.fieldmuseum.org/2550/970/C2010976F.jpg,C2010976F,leg. Zd. Pilous,Z. Pilous,,s.n.,VII.1949,1949-07-00,,Pogonatum urnigerum Pal. var. humile Brid.,Pogonatum urnigerum Pal. var. humile Brid.,,,,Slovakia,Montes Nízké Tatry,,,"In terra montis Ďumbier, ca 1840 m",In terra montis Ďumbier,,ca 1840 m,,1350887,Typed,no type status
https://fm-digital-assets.fieldmuseum.org/2550/990/C1042257F.jpg,C1042257F,S. Churchill et al.,S. Churchill,H Huaylla | R Lozano | M Serrano,22853,12 May 2004,2004-05-12,,Neckera scabridens C. Müller,Neckera scabridens C. Müller,S. Churchill,Jun 2004,"Prumnopitys exigua, Podocarpus, Myrcianthes, N. chilensis",Bolivia,Chuquisaca,Belisario Boeto,PASS,"Monte Grande, ca. 32 km de Villa Serrano. Bosque montano de yungas. Con Prumnopitys exigua, Podocarpus, Myrcianthes. <22845-22885>","Monte Grande, ca. 32 km de Villa Serrano. Bosque montano de yungas. Con Prumnopitys exigua, Podocarpus, Myrcianthes. <22845-22885>",Musgo sobre rama de árbol; c.fr.; con N. chilensis,2740 m,"18°43'43""S 64°29'07""W",1183467,Typed,no type status
https://zenodo.org/record/1486506/files/K000931304.jpg,K000931304,E. Córdula (309); Y Melo & K.Pinheiro,E Córdula,Y Melo | K Pinheiro,309,23/VI/2007,2007-06-23,,Ancistrotropis peduncularis (Fawcett & Rendle) A. Delgado (Phaseolus peduncularis Fawcett & Rendle) (Vigna peduncularis (Kunth) Fawcett & Rendle),Ancistrotropis peduncularis (Fawcett & Rendle) A. Delgado,G. P. Lewis,12.2012,,Brazil,Pernambuco,,Mirandiba,BRASIL. Pernambuco - Município de Mirandiba. Serra das Umburanas (afloramento rochoso),Serra das Umburanas,"Caatinga arbórea-arbustiva densa, solo derivado de embasamento cristalino",457 m (base),Lat.: 8°12' S Long.: 38°32',,Mix of Handwritten and Typed,no type status
https://zenodo.org/record/1485174/files/EIG.6763.jpg,EIG.6763,Ilkka Kukkonen 11003,I. Kukkonen,,11003,13. Sept. 1981,1981-09-13,,Arthropteris tenella (Forst.f.) J.Sm.,Arthropteris tenella (Forst.f.) J.Sm.,J. Sarvela,1982,,Australia,Queensland,Atherton Tableland,,"Lamin's Hill, E. of Malanda","Lamin's Hill, East of Malanda",Patch of rain forest. Fern climbing on tree stems,,,1459190.0,Mix of Handwritten and Typed,no type status
https://zenodo.org/record/1486594/files/K001046329.jpg,K001046329,G. Pabst 5121,G. Pabst,,5121,7.9.60,1960-09-07,,Avicennia tomentosa,Avicennia tomentosa,A P Duarte,23.9.60,,Brazil,Guanabara,,,"Brasil-Guanabara, Baguá próximo ao Jóquei Club da Ilha do ""Governador""","Brasil-Guanabara, Baguá próximo ao Jóquei Club da Ilha do ""Governador""",Arbusto e pequenas árvores de flores brancas,,,,Typed,no type status
https://zenodo.org/record/1486540/files/K000964719.jpg,K000964719,W. Hoehne,W. Hoehne,,10228,13/9/33,1933-09-13,,Cestrum corymbosum Schlecht.,Cestrum corymbosum Schlecht.,M Kuhlmann,,,Brazil,São Paulo,,São Paulo,Cantareiras. São Paulo,Cantareiras. São Paulo,,,,PASS,Typed,no type status
https://zenodo.org/record/1485130/files/EIG.5460.jpg,EIG.5460,H. Eggert,H. Eggert,,s.n.,17 May 77,1877-05-17,,Cystopteris bulbifera (L) Bernh,Cystopteris bulbifera (L) Bernh,,,,United States,Illinois,,,Bluffs in Illinois,Bluffs in Illinois,PASS,,,1126455.0,Handwritten,no type status
https://zenodo.org/record/1485102/files/EIG.435.jpg,EIG.435,Ilkka Kukkonen 12608,I. Kukkonen,,12608,8.XI.1982,1982-11-08,,Dryopteris inaequalis (Schlechtend.) O. Kuntze,Dryopteris inaequalis (Schlechtend.) O. Kuntze,J. Sarvela,1983,"Festuca schefflerii, Euryops prostrata, Anthemis tigrensis, Juniperus procera",Ethiopia,Bale,,,"Bale Adm. Reg., Saneti plateau and Mount Batu, 06°55'N; 39°40'E, c. 4000-4200 m. In alpine belt dominated by Festuca schefflerii, Euryops prostrata, Anthemis tigrensis.","On the way to Saneti plateau from Robe. Steep forested slope of a river canyon, e.g. Juniperus procera. Pastured slope.","In alpine belt dominated by Festuca schefflerii, Euryops prostrata, Anthemis tigrensis. Steep forested slope of a river canyon, e.g. Juniperus procera. Pastured slope.",c. 3400 m,06°55'N; 39°40'E,1489739.0,Mix of Handwritten and Typed,no type status
https://zenodo.org/record/1484126/files/E00570050.jpg,E00570050,"Vallejo-Marin, M.",M. Vallejo-Marin,G Lye | D Barragán | M A Vallejo | C Marin | I Vallejo,11-LED-seed-2-14,23 Mar 2012,2012-03-23,,Mimulus peregrinus sp. nov.,Mimulus peregrinus Vall-Marín,,,M. x robertsii,Scotland,South Lanarkshire,,,"British Isles, v.c. 77, Shortcleuch Water, Leadhills, South Lanarkshire, Scotland. OS Grid reference: NS 9029 1578. WGS84 coordinates: N 55.4237°, W 3.7349°","British Isles, v.c. 77, Shortcleuch Water, Leadhills, South Lanarkshire, Scotland. OS Grid reference: NS 9029 1578. WGS84 coordinates: N 55.4237°, W 3.7349°",Occurring on the banks of a stream on a substrate of sand and shingle,360 m,"N 55.4237°, W 3.7349°",,Mix of Handwritten and Typed,Holotype
https://zenodo.org/record/1485964/files/K000773283.jpg,K000773283,B.T. Lowne,B T Lowne,,s.n.,Aug. 9th 1902,1902-08-09,,Monotropa hypopithys,Monotropa hypopithys,,,,United Kingdom,Surrey,,,Reigate Hill. Surrey,Reigate Hill. Surrey,,,,,Mix of Handwritten and Typed,no type status
https://zenodo.org/record/1480969/files/BR0000006918378.jpg,BR0000006918378,Bart Van de Vijver,B. Van de Vijver,,s.n.,25/04/2007,2007-04-25,,Ophrys oestrifera subsp. garganensis Van de Vijver & W. Van Looken,Ophrys oestrifera subsp. garganensis Van de Vijver & W. Van Looken,,,Cistus and Pinus,Italy,Promontorio del Gargano,,,Behind the Chapel of Madonna di Loreto,Behind the Chapel of Madonna di Loreto,Macchia-shrub with Cistus and Pinus,,,6918378.0,Mix of Handwritten and Typed,no type status
https://zenodo.org/record/1486710/files/K001207911.jpg,K001207911,G. Hatschbach,G. Hatschbach,PASS,20590,9/11/968,1968-11-09,,Pfaffia glabratoides Ssgth.,Pfaffia glabratoides Ssgth.,T M Pedersen,971,,Brazil,Paraná,Laranjeiras do Sul,PASS,"Rio Iguaçu, prox. a barra do Perdido (mun. Laranjeiras do Sul) Paraná","Rio Iguaçu, prox. a barra do Perdido (mun. Laranjeiras do Sul) Paraná","Erva 1m, terreno arenoso, margens de rio",,,1207911.0,Typed,no type status
https://zenodo.org/record/1485807/files/K000263710.jpg,K000263710,"J.J. de Wilde, Sosef & van Nek",J. J. de Wilde,M S M Sosef | C van Nek,10130,22-1-1991,1991-01-22,,Rhynchosia gabonensis Jongkind,Rhynchosia gabonensis Jongkind,,,,Gabon,,,,About 10 km. on the road from Tchimbélé to Assok,About 10 kilometers on the road from Tchimbélé to Assok,"Vine, 7 m. long in tree in roadside. Pods silvery-grey. Seeds glossy, dark blue. Leaflets thick leathery, dull, green above, beneath paler green, with reddish nervation",± 580 m,"0 04 N., 10 23 E",,Typed,Isotype
https://zenodo.org/record/1480461/files/BM000934757.jpg,BM000934757,Wilhelm Suksdorf,W. Suksdorf,,12045,3. Aug. 1926,1926-08-03,,Solanum triflorum Nutt.,Solanum triflorum Nutt,T Särkinen,2014,,United States,Washington,Klickitat county,Bingen,High sandy river-bank at Bingen,High sandy river-bank at Bingen,High sandy river-bank,,,,Typed,no type status
https://zenodo.org/record/1485887/files/K000536956.jpg,K000536956,COLL. J. FRANCIS MACBRIDE,J. F. Macbride,,5234,"Aug. 27-Sept. 1, 1923",1923-08-27,1923-09-01,Tococa undabunda Macbr.,Tococa undabunda J.F. Macbr.,F. A. Michelangeli,20.08,,Peru,,,,Montaña slope HACIENDA SCHUNKE,Montaña slope Hacienda Schunke,Montaña slope,about 4000 feet,,,Mix of Handwritten and Typed,Isotype
https://zenodo.org/record/1479535/files/B%2010%200375227.jpg,B 10 0375227,"X. Cornejo, C. Bonifaz",X. Cornejo,C. Bonifaz,5822,"Oct. 27, 1997",1997-10-27,,Capparis sclerophylla Iltis nov. sp. ISOTIPO,Capparis sclerophylla Iltis,,,"C.heterophylla, C.scabrida, C.lanceolata y C.crotonoides",Ecuador,Manabí,,Bahía de Caráquez,"Prov. Manabí. Bahía de Caráquez a 8 Km. Alrededores de Universidad Católica. Bosque seco tropical deciduo, fuertemente intervenido","Prov. Manabí. Bahía de Caráquez a 8 kilometers. Alrededores de Universidad Católica. Bosque seco tropical deciduo, fuertemente intervenido","Bosque seco tropical deciduo, fuertemente intervenido",30 m,"-00,45 -80,32",,Typed,Isotype
https://zenodo.org/record/1479341/files/B%2010%200185601.jpg,B 10 0185601,M. l'Abbé Delavay,M l'Abbé Delavay,,s.n.,2 April 1887,1887-04-02,,Gentiana albescens Franch.,Gentiana albescens Franch.,,,,China,Yunnan,,,in collibus prope Mo-so-yn,in collibus prope Mo-so-yn,PASS,,,,Mix of Handwritten and Typed,no type status
https://zenodo.org/record/1479171/files/B%2010%200030508.jpg,B 10 0030508,Winfried Meier y Silvia Llamozas,W. Meier,S. Llamozas,3685,16-17 de abril 1983,1993-04-16,1983-04-17,Klarobelia subglobosa Chatrou,Klarobelia subglobosa,J L Chatrou,1994,,Venezuela,"Distrito Federal, Estado Miranda",,,Cordillera de la Costa: excursión Guatire-Caruao: ruta: Fila Juan Torres-Río Brazo Grande-Fila Maestra-Río Caruao-población San Jorge de Caruao,Cordillera de la Costa: excursión Guatire-Caruao: ruta: Fila Juan Torres-Río Brazo Grande-Fila Maestra-Río Caruao-población San Jorge de Caruao,"arbol caido, secado",500 msm,"lat.: 10°34'N, long.: 66°25'O",,Mix of Handwritten and Typed,Isotypus
https://zenodo.org/record/1479203/files/B%2010%200069251.jpg,B 10 0069251,Kessler,Kessler,,283,21.12.1988,1988-12-21,,Mallotus paniculatus,Mallotus paniculatus,Kessler,,,Malaysia,Sarawak,,,Base of Gunung Pueh,Base of Gunung Pueh,Secondary vegetation along road,up to 200 m,,,Typed,no type status
https://zenodo.org/record/1479479/files/B%2010%200279821.jpg,B 10 0279821,M. Jacobs,M. Jacobs,,5005,Aug. 1,1958-08-01,,Piptospatha grabowskii (Engl.)Engl. (Syn. P. havilandii (Engl.) Engl.),Piptospatha grabowskii (Engl.)Engl.,,,,Borneo,Sarawak,,,"N.slopes of Mount Penrissen (S. of Kuching), approx. 1°5' N., 110°15' E. Primary forest on sandstone substratum","N.slopes of Mount Penrissen (S. of Kuching), approx. 1°5' N., 110°15' E. Primary forest on sandstone substratum","In very moist sandstone gorge on rocks. Inflor. sheath violet, tip olive-greenish; ♀ and ♂ flowers sordidly pale yellow. Frequent on the spot. Pollinated by small blue glossy beetles",c. 700-900 m,"approx. 1°5' N., 110°15' E",,Typed,no type status
https://zenodo.org/record/1479168/files/B%2010%200030420.jpg,B 10 0030420,"P. J. M. & H. Maas, L. Kollmann",P. J. M. Maas,H. Maas | L. Kollmann,8833,16 Feb 1999,1999-02-16,,Pseudoxandra sp. nov.,Pseudoxandra spiritus-sancti Maas,P. J. M. Maas,2001,,Brazil,Espírito Santo,Santa Teresa,PASS,"Est. Espírito Santo, Município de Santa Teresa, Estação Biológica de Santa Lúcia","Est. Espírito Santo, Município de Santa Teresa, Estação Biológica de Santa Lúcia","High forest, on brown sand; vegetation with many Palmae and terrestrial and epiphytic Bromeliaceae",800 m,19°58'S 40°32'W,,Typed,Isotype
https://zenodo.org/record/1479553/files/B%2010%200385068.jpg,B 10 0385068,"leg. R. Berazaín, J. Bisse, M. A. Díaz, H. Dietrich, L. González Géigel, J. Gutiérrez, E. Köhler, L. Lepper, U. Rändel, H. Schaarschmidt",R. Berazaín,J Bisse | M A Díaz | H Dietrich | L González Géigel | J Gutiérrez | E Köhler | L Lepper | U Rändel | H Schaarschmidt,HFC 39098,09-II-1979,1979-02-09,,Stenandrium pallidum H. Dietr.,Stenandrium pallidum H. Dietr.,H. Manitz,2007,,Cuba,Guantánamo,San Antonio del Sur,PASS,"Abra de Mariana, loma al oeste del barranco Coordenadas de la cuadrícula (Cuba 1:250000): 16/71 [,,15/70""]","Abra de Mariana, loma al oeste del barranco",PASS,,"16/71 [,,15/70""]",385068.0,Mix of Handwritten and Typed,Isotype
